credentialid,name,type,businessname,dba,fullcredentialcode,credentialtype,credentialnumber,credentialsubcategory,credential,status,statusreason,active,issuedate,effectivedate,expirationdate,address,city,state,zip,recordrefreshedon,New Georeferenced Column,Planning Regions,Counties,Zip Code,Town Index
1388588,MASONICARE HOME HEALTH AND HOSPICE,CORPORATION,MASONICARE HOME HEALTH AND HOSPICE,MASONICARE HOME HEALTH AND HOSPICE,ALSA.0000185,ALSA,185,,Assisted Living Service Agency,ACTIVE,CURRENT,1,11/09/2016 12:00:00 AM,10/01/2018 12:00:00 AM,09/30/2020 12:00:00 AM,104 SOUTH TURNPIKE ROAD,WALLINGFORD,CT,06492,06/04/2019 12:00:00 AM,POINT (-72.845175 41.446386),7,1044,195,148
1003789,ATRIA GREENRIDGE PLACE,LIMITED LIABILITY COMPANY,ATRIA GREENRIDGE PLACE,ATRIA GREENRIDGE PLACE,ALSA.0000159,ALSA,159,,Assisted Living Service Agency,ACTIVE,CURRENT,1,06/22/2011 12:00:00 AM,04/01/2019 12:00:00 AM,03/31/2021 12:00:00 AM,1 ELIZABETH CT,ROCKY HILL,CT,060671187,04/23/2019 12:00:00 AM,POINT (-72.674737 41.667831),1,1041,189,119
929168,THE SAYBROOK AT HADDAM,LIMITED LIABILITY COMPANY,THE SAYBROOK AT HADDAM,THE SAYBROOK AT HADDAM,ALSA.0000148,ALSA,148,,Assisted Living Service Agency,ACTIVE,CURRENT,1,09/25/2009 12:00:00 AM,07/01/2019 12:00:00 AM,06/30/2021 12:00:00 AM,1556 SAYBROOK RD ROUTE 154,HADDAM,CT,064381370,07/05/2019 12:00:00 AM,,,,,
930102,CEDAR LLC,BUSINESS,CEDAR LLC,LAUREL GARDENS OF TRUMBULL,ALSA.0AL0037,ALSA,AL0037,,Assisted Living Service Agency,INACTIVE,,0,10/01/2004 12:00:00 AM,10/01/2004 12:00:00 AM,09/30/2006 12:00:00 AM,2750 RESERVOIR AVENUE,TRUMBULL,CT,06611,05/18/2010 12:00:00 AM,POINT (-73.196145 41.237926),2,1040,76,144
1468423,FAIRFIELD COUNTY HOUSE,CORPORATION,FAIRFIELD COUNTY HOUSE,FAIRFIELD COUNTY HOUSE,ALSA.0000191,ALSA,191,,Assisted Living Service Agency,ACTIVE,CURRENT,1,01/10/2018 12:00:00 AM,01/01/2020 12:00:00 AM,12/31/2021 12:00:00 AM,1 DEN RD,STAMFORD,CT,069021113,05/01/2020 12:00:00 AM,POINT (-73.575065 41.096419),9,1040,7,135
929131,BAL TRUMBULL LLC,LIMITED LIABILITY COMPANY,BAL TRUMBULL LLC,BAL TRUMBULL,ALSA.0000143,ALSA,143,,Assisted Living Service Agency,ACTIVE,CURRENT,1,12/02/2008 12:00:00 AM,10/01/2018 12:00:00 AM,09/30/2020 12:00:00 AM,2750 RESERVOIR AVE,TRUMBULL,CT,066115715,10/19/2018 12:00:00 AM,POINT (-73.196145 41.237926),2,1040,76,144
929994,ROSEDALE OF GLASTONBURY LIMITED PARTNERSHIP,BUSINESS,ROSEDALE OF GLASTONBURY LIMITED PARTNERSHIP,LAUREL GARDENS OF GLASTONBURY,ALSA.0000069,ALSA,69,,Assisted Living Service Agency,INACTIVE,,0,07/01/2007 12:00:00 AM,07/01/2007 12:00:00 AM,06/30/2009 12:00:00 AM,1177 Hebron Avenue,Glastonbury,CT,06033,05/18/2010 12:00:00 AM,POINT (-72.565688 41.718233),1,1041,90,54
930210,HEBREW COMMUNITY SERVICES INC.,CORPORATION,HEBREW COMMUNITY SERVICES INC.,HEBREW HEALTH CARE ASSISTED LIVING SERVICE AGENCY,ALSA.0AL0052,ALSA,AL0052,,Assisted Living Service Agency,ACTIVE IN RENEWAL,CURRENT,1,04/01/2008 12:00:00 AM,04/01/2018 12:00:00 AM,03/31/2020 12:00:00 AM,1 ABRAHMS BLVD,WEST HARTFORD,CT,061171508,04/14/2020 12:00:00 AM,POINT (-72.728931 41.802774),1,1041,181,155
928953,AHC CAPITAL INC.,BUSINESS,AHC CAPITAL INC.,ALTERRA CLARE BRIDGE OF GLASTONBURY,ALSA.0000062,ALSA,62,,Assisted Living Service Agency,INACTIVE,,0,03/16/2001 12:00:00 AM,03/16/2001 12:00:00 AM,12/31/2002 12:00:00 AM,1824 Manchester Road,Glastonbury,CT,06033,05/18/2010 12:00:00 AM,POINT (-72.52021 41.730072),1,1041,90,54
1361714,WATERMARK AT HOME,LIMITED LIABILITY COMPANY,WATERMARK AT HOME,WATERMARK AT HOME,ALSA.0000180,ALSA,180,,Assisted Living Service Agency,ACTIVE IN RENEWAL,CURRENT,1,06/20/2016 12:00:00 AM,04/01/2018 12:00:00 AM,03/31/2020 12:00:00 AM,3030 PARK AVE,BRIDGEPORT,CT,066041138,03/12/2020 12:00:00 AM,POINT (-73.219717 41.198599),2,1040,172,15
1125452,MAPLEWOOD AT ORANGE,LIMITED LIABILITY COMPANY,MAPLEWOOD AT ORANGE,MAPLEWOOD AT ORANGE,ALSA.0000167,ALSA,167,,Assisted Living Service Agency,ACTIVE,CURRENT,1,09/28/2012 12:00:00 AM,07/01/2018 12:00:00 AM,06/30/2020 12:00:00 AM,245 INDIAN RIVER RD,ORANGE,CT,064773668,07/20/2018 12:00:00 AM,POINT (-73.000132 41.263913),7,1044,196,107
929524,PARAMOUNT SENIOR LIVING AT LITCHFIELD LLC,BUSINESS,PARAMOUNT SENIOR LIVING AT LITCHFIELD LLC,SARAH PIERCE ASSISTED LIVING,ALSA.0000108,ALSA,108,,Assisted Living Service Agency,INACTIVE,,0,08/01/2005 12:00:00 AM,08/01/2005 12:00:00 AM,06/30/2007 12:00:00 AM,19 Constitution Way,Litchfield,CT,06759,05/18/2010 12:00:00 AM,POINT (-73.2049 41.743708),6,1042,264,74
929713,MCLEAN FUND,BUSINESS,MCLEAN FUND,MCLEAN ASSISTED LIVING SERVICES,ALSA.0AL0013,ALSA,AL0013,,Assisted Living Service Agency,INACTIVE,,0,07/01/2001 12:00:00 AM,07/01/2001 12:00:00 AM,06/30/2003 12:00:00 AM,75 Great Pond Road,SIMSBURY,CT,06070,05/18/2010 12:00:00 AM,POINT (-72.824809 41.885251),1,1041,18,128
930028,MASONICARE AT NEWTOWN/LOCKWOOD LODGE,CORPORATION,MASONICARE AT NEWTOWN/LOCKWOOD LODGE,MASONICARE AT NEWTOWN/LOCKWOOD LODGE,ALSA.0000086,ALSA,86,,Assisted Living Service Agency,CLOSED,CLOSED,0,10/01/2008 12:00:00 AM,10/01/2016 12:00:00 AM,09/30/2018 12:00:00 AM,139 TODDY HILL RD,SANDY HOOK,CT,064821362,06/11/2018 12:00:00 AM,POINT (-73.258862 41.38261),9,1040,152,97
930721,ONE MACDONOUGH PLACE,CORPORATION,ONE MACDONOUGH PLACE,ONE MACDONOUGH PLACE,ALSA.0AL0029,ALSA,AL0029,,Assisted Living Service Agency,ACTIVE,CURRENT,1,10/01/2008 12:00:00 AM,10/01/2018 12:00:00 AM,09/30/2020 12:00:00 AM,1 MACDONOUGH PL,MIDDLETOWN,CT,064573607,01/14/2019 12:00:00 AM,POINT (-72.646473 41.555899),3,1043,236,83
930301,WAVENY CARE CENTER HEALTH SERVICES INC.,CORPORATION,WAVENY CARE CENTER HEALTH SERVICES INC.,ASSISTED LIVING SERVICE AGENCY OF NEW CANAAN,ALSA.0000071,ALSA,71,,Assisted Living Service Agency,ACTIVE,CURRENT,1,10/01/2009 12:00:00 AM,10/01/2019 12:00:00 AM,09/30/2021 12:00:00 AM,3 FARM RD,NEW CANAAN,CT,068406626,11/18/2019 12:00:00 AM,POINT (-73.493667 41.128529),9,1040,180,90
1518503,ATRIA LITCHFIELD HILLS,LIMITED LIABILITY COMPANY,ATRIA LITCHFIELD HILLS,ATRIA LITCHFIELD HILLS,ALSA.0000194,ALSA,194,,Assisted Living Service Agency,ACTIVE IN RENEWAL,CURRENT,1,05/29/2018 12:00:00 AM,05/22/2018 12:00:00 AM,03/31/2020 12:00:00 AM,376 GOSHEN ROAD,TORRINGTON,CT,06790,01/16/2020 12:00:00 AM,POINT (-73.15464 41.820838),6,1042,122,143
930717,AVERY HEIGHTS ASSISTED LIVING SERVICES AGENCY,CORPORATION,AVERY HEIGHTS ASSISTED LIVING SERVICES AGENCY,AVERY HEIGHTS ASSISTED LIVING SERVICES AGENCY,ALSA.0AL0016,ALSA,AL0016,,Assisted Living Service Agency,ACTIVE,CURRENT,1,04/01/2009 12:00:00 AM,04/01/2019 12:00:00 AM,03/31/2021 12:00:00 AM,705 NEW BRITAIN AVENUE,HARTFORD,CT,061064263,12/13/2019 12:00:00 AM,POINT (-72.705383 41.733277),1,1041,182,64
1518501,ATRIA LITCHFIELD HILLS,LIMITED LIABILITY COMPANY,ATRIA LITCHFIELD HILLS,ATRIA LITCHFIELD HILLS,ALSA.0000192,ALSA,192,,Assisted Living Service Agency,INACTIVE,,0,,,,376 GOSHEN ROAD,TORRINGTON,CT,06790,05/29/2018 12:00:00 AM,POINT (-73.15464 41.820838),6,1042,122,143
930726,SUFFIELD BY THE RIVER,LIMITED LIABILITY COMPANY,SUFFIELD BY THE RIVER,SUFFIELD BY THE RIVER,ALSA.0AL0036,ALSA,AL0036,,Assisted Living Service Agency,CLOSED,CLOSED,0,01/01/2009 12:00:00 AM,01/01/2019 12:00:00 AM,12/31/2020 12:00:00 AM,7 CANAL RD,SUFFIELD,CT,060781970,09/26/2019 12:00:00 AM,POINT (-72.613305 41.985924),1,1041,115,139
2001797,CHURCH HILL  VILLAGE,LIMITED LIABILITY COMPANY,CHURCH HILL  VILLAGE,CHURCH HILL  VILLAGE,ALSA.0000219,ALSA,219,,Assisted Living Service Agency,ACTIVE,CURRENT,1,01/23/2020 12:00:00 AM,01/23/2020 12:00:00 AM,12/31/2021 12:00:00 AM,2 BOULEVARD,NEWTOWN,CT,064701602,02/19/2020 12:00:00 AM,POINT (-73.30058 41.41495),9,1040,153,97
930714,MERRY-GO-ROUND INC.,CORPORATION,MERRY-GO-ROUND INC.,MERRY GO ROUND ALSA,ALSA.0AL0008,ALSA,AL0008,,Assisted Living Service Agency,ACTIVE,CURRENT,1,01/01/2009 12:00:00 AM,01/01/2019 12:00:00 AM,12/31/2020 12:00:00 AM,1/2 BOLLING PL,GREENWICH,CT,068306540,02/25/2019 12:00:00 AM,POINT (-73.628363 41.023759),9,1040,6,57
1248823,MAPLEWOOD AT STRAWBERRY HILL,LIMITED LIABILITY COMPANY,MAPLEWOOD AT STRAWBERRY HILL,MAPLEWOOD AT STRAWBERRY HILL,ALSA.0000172,ALSA,172,,Assisted Living Service Agency,ACTIVE,CURRENT,1,10/06/2014 12:00:00 AM,10/01/2018 12:00:00 AM,09/30/2020 12:00:00 AM,73 STRAWBERRY HILL AVE,NORWALK,CT,068551476,01/14/2019 12:00:00 AM,POINT (-73.398881 41.109301),9,1040,247,103
929017,HEARTHSTONE ASSISTED LIVING SERVICES AGENCY INC.,BUSINESS,HEARTHSTONE ASSISTED LIVING SERVICES AGENCY INC.,"HEARTHSTONE ASSISTED LIVING SERVICES AGENCY, INC.",ALSA.0000116,ALSA,116,,Assisted Living Service Agency,INACTIVE,,0,09/12/2006 12:00:00 AM,09/12/2006 12:00:00 AM,06/30/2008 12:00:00 AM,91 EAST MAIN STREET,Clinton,CT,06413,05/18/2010 12:00:00 AM,POINT (-72.520003 41.27723),3,1043,271,27
929882,OLSL LARSON PLACE LLC,BUSINESS,OLSL LARSON PLACE LLC,ATRIA LARSON PLACE,ALSA.0000111,ALSA,111,,Assisted Living Service Agency,CLOSED,CLOSED,0,10/01/2009 12:00:00 AM,10/01/2009 12:00:00 AM,09/30/2011 12:00:00 AM,1450 Whitney Avenue,Hamden,CT,06517,07/24/2012 12:00:00 AM,POINT (-72.913115 41.353404),7,1044,198,62
929772,WATERMARK HOME CARE OF CONNECTICUT LLC,LIMITED LIABILITY COMPANY,WATERMARK HOME CARE OF CONNECTICUT LLC,WATERMARK AT HOME,ALSA.0000115,ALSA,115,,Assisted Living Service Agency,CLOSED,CLOSED,0,07/01/2008 12:00:00 AM,07/01/2014 12:00:00 AM,06/30/2016 12:00:00 AM,3030 PARK AVE,BRIDGEPORT,CT,066041138,06/20/2016 12:00:00 AM,POINT (-73.219717 41.198599),2,1040,172,15
930924,HOME HEALTH CARE SERVICES LLC,LIMITED LIABILITY COMPANY,HOME HEALTH CARE SERVICES LLC,HOME HEALTH CARE SERVICES ALSA,ALSA.0AL0017,ALSA,AL0017,,Assisted Living Service Agency,CLOSED,,0,10/01/2011 12:00:00 AM,10/01/2015 12:00:00 AM,09/30/2017 12:00:00 AM,163 CEDAR ST STE 2A,BRANFORD,CT,064056012,02/02/2018 12:00:00 AM,POINT (-72.819522 41.289319),7,1044,170,14
1003930,ATRIA STRATFORD,LIMITED LIABILITY COMPANY,ATRIA STRATFORD,ATRIA STRATFORD,ALSA.0000162,ALSA,162,,Assisted Living Service Agency,CLOSED,CLOSED,0,06/22/2011 12:00:00 AM,04/01/2019 12:00:00 AM,03/31/2021 12:00:00 AM,6911 MAIN ST,STRATFORD,CT,066141360,01/24/2020 12:00:00 AM,POINT (-73.10197 41.247009),2,1040,218,138
1799287,"LANDING OF NORTH HAVEN, THE",LIMITED LIABILITY COMPANY,"LANDING OF NORTH HAVEN, THE","LANDING OF NORTH HAVEN, THE",ALSA.0000217,ALSA,217,,Assisted Living Service Agency,ACTIVE,CURRENT,1,10/16/2019 12:00:00 AM,10/09/2019 12:00:00 AM,09/30/2021 12:00:00 AM,201 CLINTONVILLE ROAD,NORTH HAVEN,CT,06473,10/16/2019 12:00:00 AM,POINT (-72.827199 41.404869),7,1044,195,148
929129,BAL WOODBRIDGE LLC,LIMITED LIABILITY COMPANY,BAL WOODBRIDGE LLC,BAL WOODBRIDGE,ALSA.0000144,ALSA,144,,Assisted Living Service Agency,ACTIVE,CURRENT,1,12/02/2008 12:00:00 AM,10/01/2018 12:00:00 AM,09/30/2020 12:00:00 AM,21 BRADLEY RD,WOODBRIDGE,CT,065252294,09/11/2019 12:00:00 AM,POINT (-72.982582 41.343605),7,1044,61,167
929691,WATERMARK ALSA II L.L.C.,LIMITED LIABILITY COMPANY,WATERMARK ALSA II L.L.C.,"WATERMARK ALSA II, L.L.C.",ALSA.0000122,ALSA,122,,Assisted Living Service Agency,CLOSED,CLOSED,0,10/01/2009 12:00:00 AM,10/01/2015 12:00:00 AM,09/30/2017 12:00:00 AM,611 EAST HILL ROAD,SOUTHBURY,CT,06487,06/20/2016 12:00:00 AM,POINT (-73.241049 41.485015),4,1044,99,130
1380456,STONEBROOK VILLAGE AT WINDSOR LOCKS,LIMITED LIABILITY COMPANY,STONEBROOK VILLAGE AT WINDSOR LOCKS,STONEBROOK VILLAGE AT WINDSOR LOCKS,ALSA.0000184,ALSA,184,,Assisted Living Service Agency,ACTIVE,CURRENT,1,09/22/2016 12:00:00 AM,07/01/2018 12:00:00 AM,06/30/2020 12:00:00 AM,550 OLD COUNTY RD,WINDSOR LOCKS,CT,060961514,07/26/2018 12:00:00 AM,POINT (-72.656962 41.909754),1,1041,21,165
1370692,"SHORELINE OF CLINTON, THE",LIMITED LIABILITY COMPANY,"SHORELINE OF CLINTON, THE","SHORELINE OF CLINTON, THE",ALSA.0000183,ALSA,183,,Assisted Living Service Agency,ACTIVE,CURRENT,1,08/04/2016 12:00:00 AM,07/01/2018 12:00:00 AM,06/30/2020 12:00:00 AM,,CLINTON,CT,06413,07/20/2018 12:00:00 AM,POINT (-72.528067 41.278677),3,1043,271,27
1995085,SPRING VILLAGE AT STRATFORD,LIMITED LIABILITY COMPANY,SPRING VILLAGE AT STRATFORD,SPRING VILLAGE AT STRATFORD,ALSA.0000218,ALSA,218,,Assisted Living Service Agency,ACTIVE,CURRENT,1,12/27/2019 12:00:00 AM,12/03/2019 12:00:00 AM,09/30/2021 12:00:00 AM,6911 MAIN STREET,STRATFORD,CT,06614,12/27/2019 12:00:00 AM,POINT (-73.10197 41.247009),2,1040,218,138
929871,EAGLE POINTE LLC,LIMITED LIABILITY COMPANY,EAGLE POINTE LLC,EAGLE POINTE,ALSA.0000104,ALSA,104,,Assisted Living Service Agency,ACTIVE,CURRENT,1,01/01/2009 12:00:00 AM,01/01/2019 12:00:00 AM,12/31/2020 12:00:00 AM,1 CANAL RD,SUFFIELD,CT,060781921,03/21/2019 12:00:00 AM,POINT (-72.612137 41.985928),1,1041,115,139
930100,BELLMARIE INC.,BUSINESS,BELLMARIE INC.,BELLMARIE ASSISTED LIVING SERVICES AGENCY,ALSA.0AL0018,ALSA,AL0018,,Assisted Living Service Agency,INACTIVE,,0,07/01/2005 12:00:00 AM,07/01/2005 12:00:00 AM,06/30/2007 12:00:00 AM,122 EAST MAIN STREET,PLAINVILLE,CT,06062,05/18/2010 12:00:00 AM,POINT (-72.860062 41.673843),1,1041,260,110
930729,SENIOR LIVING SERVICES LLC,BUSINESS,SENIOR LIVING SERVICES LLC,"SENIOR LIVING SERVICES, LLC",ALSA.0AL0044,ALSA,AL0044,,Assisted Living Service Agency,CLOSED,CLOSED,0,07/01/2009 12:00:00 AM,07/01/2009 12:00:00 AM,06/30/2011 12:00:00 AM,580 Long Hill Avenue,Shelton,CT,06484,01/23/2012 12:00:00 AM,POINT (-73.098429 41.281236),4,1040,217,126
928963,LEXINGTON HEALTH CARE GROUP INC.,BUSINESS,LEXINGTON HEALTH CARE GROUP INC.,"PROFESSIONAL RELIEF NURSES, INC.",ALSA.0000077,ALSA,77,,Assisted Living Service Agency,INACTIVE,,0,06/24/2002 12:00:00 AM,06/24/2002 12:00:00 AM,03/31/2004 12:00:00 AM,1010 Wethersfield Avenue,Hartford,CT,06114,05/18/2010 12:00:00 AM,POINT (-72.668393 41.728767),1,1041,8,64
929683,OLSL DARIEN LLC,BUSINESS,OLSL DARIEN LLC,ATRIA DARIEN,ALSA.0000121,ALSA,121,,Assisted Living Service Agency,CLOSED,CLOSED,0,07/01/2009 12:00:00 AM,07/01/2009 12:00:00 AM,06/30/2011 12:00:00 AM,50 Ledge Road,Darien,CT,06820,07/24/2012 12:00:00 AM,POINT (-73.484302 41.071484),9,1040,5,35
929580,HAMDEN CARE LLC,BUSINESS,HAMDEN CARE LLC,LAUREL GARDENS OF HAMDEN,ALSA.0000084,ALSA,84,,Assisted Living Service Agency,INACTIVE,,0,07/01/2004 12:00:00 AM,07/01/2004 12:00:00 AM,06/30/2006 12:00:00 AM,35 Hamden Hills Drive,Hamden,CT,06514,05/18/2010 12:00:00 AM,POINT (-72.910228 41.388808),7,1044,100,62
1286246,"RESIDENCE AT BROOKSIDE, THE",LIMITED LIABILITY COMPANY,"RESIDENCE AT BROOKSIDE, THE","RESIDENCE AT BROOKSIDE, THE",ALSA.0000174,ALSA,174,,Assisted Living Service Agency,CLOSED,CLOSED,0,05/21/2015 12:00:00 AM,04/01/2017 12:00:00 AM,03/31/2019 12:00:00 AM,117 SIMSBURY RD,AVON,CT,060013715,10/15/2018 12:00:00 AM,POINT (-72.829948 41.817597),1,1041,46,4
929116,BAL WATERBURY LLC,LIMITED LIABILITY COMPANY,BAL WATERBURY LLC,BAL WATERBURY,ALSA.0000130,ALSA,130,,Assisted Living Service Agency,ACTIVE,CURRENT,1,12/01/2008 12:00:00 AM,10/01/2018 12:00:00 AM,09/30/2020 12:00:00 AM,180 SCOTT RD,WATERBURY,CT,067053284,02/25/2019 12:00:00 AM,POINT (-72.977856 41.532751),4,1044,62,115
929135,BAL NIANTIC LLC,LIMITED LIABILITY COMPANY,BAL NIANTIC LLC,BAL NIANTIC,ALSA.0000140,ALSA,140,,Assisted Living Service Agency,ACTIVE,CURRENT,1,12/02/2008 12:00:00 AM,10/01/2018 12:00:00 AM,09/30/2020 12:00:00 AM,417 MAIN ST,NIANTIC,CT,063573144,01/14/2019 12:00:00 AM,POINT (-72.199095 41.322286),8,1045,31,45
929127,BAL EAST HAVEN LLC,LIMITED LIABILITY COMPANY,BAL EAST HAVEN LLC,BAL EAST HAVEN,ALSA.0000136,ALSA,136,,Assisted Living Service Agency,ACTIVE,CURRENT,1,12/01/2008 12:00:00 AM,10/01/2018 12:00:00 AM,09/30/2020 12:00:00 AM,111 S SHORE DR,EAST HAVEN,CT,065124661,10/19/2018 12:00:00 AM,POINT (-72.877458 41.245779),7,1044,130,44
1390339,BROOKDALE CHATFIELD,CORPORATION,BROOKDALE CHATFIELD,BROOKDALE CHATFIELD,ALSA.0000186,ALSA,186,,Assisted Living Service Agency,ACTIVE,CURRENT,1,11/21/2016 12:00:00 AM,10/01/2018 12:00:00 AM,09/30/2020 12:00:00 AM,1 CHATFIELD DR,WEST HARTFORD,CT,061102802,01/24/2019 12:00:00 AM,POINT (-72.752873 41.727893),1,1041,213,155
1520434,COMMONS OF NEWTOWN THE,LIMITED LIABILITY COMPANY,COMMONS OF NEWTOWN THE,COMMONS OF NEWTOWN THE,ALSA.0000197,ALSA,197,,Assisted Living Service Agency,ACTIVE,CURRENT,1,06/11/2018 12:00:00 AM,04/01/2020 12:00:00 AM,03/31/2022 12:00:00 AM,139 TODDY HILL ROAD,NEWTOWN,CT,06470,04/28/2020 12:00:00 AM,POINT (-73.258982 41.382079),9,1040,152,97
1003885,ATRIA HAMILTON HEIGHTS,LIMITED LIABILITY COMPANY,ATRIA HAMILTON HEIGHTS,ATRIA HAMILTON HEIGHTS,ALSA.0000160,ALSA,160,,Assisted Living Service Agency,ACTIVE,CURRENT,1,06/22/2011 12:00:00 AM,04/01/2019 12:00:00 AM,03/31/2021 12:00:00 AM,FERN STREET AT ONE HAMILTON HEIGHTS DRIVE,WEST HARTFORD,CT,06119,05/03/2019 12:00:00 AM,POINT (-72.721722 41.770222),1,1041,251,155
1422256,ATRIA FARMINGTON,LIMITED LIABILITY COMPANY,ATRIA FARMINGTON,ATRIA FARMINGTON,ALSA.0000189,ALSA,189,,Assisted Living Service Agency,CLOSED,CLOSED,0,05/05/2017 12:00:00 AM,04/01/2019 12:00:00 AM,03/31/2021 12:00:00 AM,111 SCOTT SWAMP RD,FARMINGTON,CT,060322861,04/06/2020 12:00:00 AM,POINT (-72.857734 41.704071),1,1041,254,52
1003943,ATRIA STAMFORD,LIMITED LIABILITY COMPANY,ATRIA STAMFORD,ATRIA STAMFORD,ALSA.0000163,ALSA,163,,Assisted Living Service Agency,ACTIVE,CURRENT,1,06/23/2011 12:00:00 AM,04/01/2019 12:00:00 AM,03/31/2021 12:00:00 AM,77 3RD ST,STAMFORD,CT,069054722,04/18/2019 12:00:00 AM,POINT (-73.538768 41.065308),9,1040,84,135
1392357,EVERGREEN WOODS,LIMITED LIABILITY COMPANY,EVERGREEN WOODS,EVERGREEN WOODS,ALSA.0000187,ALSA,187,,Assisted Living Service Agency,ACTIVE,CURRENT,1,12/05/2016 12:00:00 AM,10/01/2018 12:00:00 AM,09/30/2020 12:00:00 AM,88 NOTCH HILL ROAD,NORTH BRANFORD,CT,06471,02/25/2019 12:00:00 AM,POINT (-72.751087 41.317083),7,1044,131,99
929696,ARDEN COURTS OF HAMDEN CT LLC,LIMITED LIABILITY COMPANY,ARDEN COURTS OF HAMDEN CT LLC,ARDEN COURTS OF HAMDEN,ALSA.0000125,ALSA,125,,Assisted Living Service Agency,CLOSED,CLOSED,0,10/01/2009 12:00:00 AM,10/01/2015 12:00:00 AM,09/30/2017 12:00:00 AM,153 LEEDER HILL DR,HAMDEN,CT,065172731,01/29/2016 12:00:00 AM,POINT (-72.921723 41.346298),7,1044,198,62
929872,ESSEX MEADOWS,CORPORATION,ESSEX MEADOWS,ESSEX MEADOWS,ALSA.0000105,ALSA,105,,Assisted Living Service Agency,CLOSED,CLOSED,0,01/01/2009 12:00:00 AM,01/01/2017 12:00:00 AM,12/31/2018 12:00:00 AM,30 BOKUM RD,ESSEX,CT,064261510,12/03/2018 12:00:00 AM,POINT (-72.410763 41.338327),3,1043,97,50
929846,"CASCADES, THE",LIMITED LIABILITY COMPANY,"CASCADES, THE","CASCADES, THE",ALSA.0000097,ALSA,97,,Assisted Living Service Agency,ACTIVE,CURRENT,1,01/01/2008 12:00:00 AM,01/01/2020 12:00:00 AM,12/31/2021 12:00:00 AM,13 PARK LAWN DR,BETHEL,CT,068011043,01/09/2020 12:00:00 AM,POINT (-73.398195 41.425007),9,1040,77,9
1042086,"BAL EDGEHILL, LLC",LIMITED LIABILITY COMPANY,"BAL EDGEHILL, LLC","BAL EDGEHILL, LLC",ALSA.0000165,ALSA,165,,Assisted Living Service Agency,ACTIVE,CURRENT,1,11/22/2011 12:00:00 AM,10/01/2019 12:00:00 AM,09/30/2021 12:00:00 AM,122 PALMERS HILL RD,STAMFORD,CT,069022134,12/02/2019 12:00:00 AM,POINT (-73.565584 41.059385),9,1040,7,135
929799,CAPITAL SENIOR LIVING INC.,BUSINESS,CAPITAL SENIOR LIVING INC.,"CAPITAL SENIOR LIVING, INC.",ALSA.AL-0053,ALSA,AL-0053,,Assisted Living Service Agency,INACTIVE,,0,04/01/2004 12:00:00 AM,04/01/2004 12:00:00 AM,03/31/2006 12:00:00 AM,6469 Main Street,Trumbull,CT,06611,05/18/2010 12:00:00 AM,POINT (-73.227161 41.276361),2,1040,76,144
1642317,THE RESIDENCE AT SELLECK'S WOODS,LIMITED LIABILITY COMPANY,THE RESIDENCE AT SELLECK'S WOODS,THE RESIDENCE AT SELLECK'S WOODS,ALSA.0000210,ALSA,210,,Assisted Living Service Agency,ACTIVE,CURRENT,1,03/27/2019 12:00:00 AM,03/13/2019 12:00:00 AM,12/31/2020 12:00:00 AM,1 PARKLAND DR,DARIEN,CT,068203627,03/27/2019 12:00:00 AM,POINT (-73.459857 41.083349),9,1040,5,35
996312,BROOKDALE MOUNTAIN LAUREL HEBRON,CORPORATION,BROOKDALE MOUNTAIN LAUREL HEBRON,BROOKDALE MOUNTAIN LAUREL HEBRON,ALSA.0000156,ALSA,156,,Assisted Living Service Agency,CLOSED,CLOSED,0,05/04/2011 12:00:00 AM,04/01/2017 12:00:00 AM,03/31/2019 12:00:00 AM,1177 HEBRON AVE,GLASTONBURY,CT,060335008,05/30/2018 12:00:00 AM,POINT (-72.565688 41.718233),1,1041,90,54
933992,POMPERAUG WOODS,CORPORATION,POMPERAUG WOODS,POMPERAUG WOODS,ALSA.0000151,ALSA,151,,Assisted Living Service Agency,ACTIVE IN RENEWAL,CURRENT,1,05/28/2010 12:00:00 AM,04/01/2018 12:00:00 AM,03/31/2020 12:00:00 AM,80 HERITAGE RD,SOUTHBURY,CT,064881882,01/22/2020 12:00:00 AM,POINT (-73.217482 41.482196),4,1044,99,130
929164,CONNECTICUT ORANGE LLC,BUSINESS,CONNECTICUT ORANGE LLC,LAUREL ESTATES,ALSA.0000147,ALSA,147,,Assisted Living Service Agency,CLOSED,CLOSED,0,09/01/2009 12:00:00 AM,09/01/2009 12:00:00 AM,06/30/2011 12:00:00 AM,245 Indian River Road,Orange,CT,06477,02/16/2011 12:00:00 AM,POINT (-73.000132 41.263913),7,1044,196,107
929927,SOUTHBURY SENIOR LIVING LLC,BUSINESS,SOUTHBURY SENIOR LIVING LLC,"SOUTHBURY SENIOR LIVING, LLC",ALSA.0000107,ALSA,107,,Assisted Living Service Agency,INACTIVE,INACTIVE,0,07/01/2009 12:00:00 AM,07/01/2009 12:00:00 AM,06/30/2011 12:00:00 AM,1177 Hebron Avenue,Glastonbury,CT,06025,05/18/2010 12:00:00 AM,POINT (-72.565688 41.718233),1,1041,90,54
929173,BROOKDALE PLACE OF WEST HARTFORD LLC,LIMITED LIABILITY COMPANY,BROOKDALE PLACE OF WEST HARTFORD LLC,BROOKDALE WEST HARTFORD,ALSA.0000150,ALSA,150,,Assisted Living Service Agency,ACTIVE,CURRENT,1,11/18/2009 12:00:00 AM,10/01/2019 12:00:00 AM,09/30/2021 12:00:00 AM,22 SIMSBURY RD,WEST HARTFORD,CT,061171444,12/17/2019 12:00:00 AM,POINT (-72.72196 41.797336),1,1041,181,155
929132,BAL ROCKY HILL LLC,LIMITED LIABILITY COMPANY,BAL ROCKY HILL LLC,BAL ROCKY HILL,ALSA.0000142,ALSA,142,,Assisted Living Service Agency,ACTIVE,CURRENT,1,12/02/2008 12:00:00 AM,10/01/2018 12:00:00 AM,09/30/2020 12:00:00 AM,1160 ELM STREET EXT,ROCKY HILL,CT,060671812,11/08/2018 12:00:00 AM,POINT (-72.679839 41.658021),1,1041,189,119
930077,GEER VILLAGE,CORPORATION,GEER VILLAGE,GEER VILLAGE,ALSA.0000093,ALSA,93,,Assisted Living Service Agency,ACTIVE,CURRENT,1,04/01/2009 12:00:00 AM,04/01/2019 12:00:00 AM,03/31/2021 12:00:00 AM,77 S CANAAN RD,CANAAN,CT,060182517,08/22/2019 12:00:00 AM,POINT (-73.332737 42.017975),6,1042,233,100
1597359,"ROSES AT GUILFORD HOUSE, THE",LIMITED LIABILITY COMPANY,"ROSES AT GUILFORD HOUSE, THE","ROSES AT GUILFORD HOUSE, THE",ALSA.0000201,ALSA,201,,Assisted Living Service Agency,CLOSED,CLOSED,0,09/05/2018 12:00:00 AM,09/04/2018 12:00:00 AM,06/30/2020 12:00:00 AM,109 WEST LAKE AVENUE,GUILFORD,CT,06437,03/22/2019 12:00:00 AM,POINT (-72.725116 41.311477),7,1044,201,60
929720,ABBINGTON SERVICES INC.,BUSINESS,ABBINGTON SERVICES INC.,ABBINGTON OF NEWINGTON,ALSA.0AL0042,ALSA,AL0042,,Assisted Living Service Agency,INACTIVE,,0,04/01/2001 12:00:00 AM,04/01/2001 12:00:00 AM,03/31/2003 12:00:00 AM,2125 MAIN STREET,NEWINGTON,CT,06111,05/18/2010 12:00:00 AM,POINT (-72.718613 41.671269),1,1041,86,94
929716,SENIORS' CHOICE AT THE GREEN LLC,BUSINESS,SENIORS' CHOICE AT THE GREEN LLC,SENIORS' CHOICE AT THE GREEN,ALSA.0AL0030,ALSA,AL0030,,Assisted Living Service Agency,INACTIVE,,0,10/01/2000 12:00:00 AM,10/01/2000 12:00:00 AM,09/30/2002 12:00:00 AM,1 ELIZABETH COURT,ROCKY HILL,CT,06067,05/18/2010 12:00:00 AM,POINT (-72.674737 41.667831),1,1041,189,119
1330938,MEADOW MILLS ASSISTED LIVING & MEMORY CARE,LIMITED LIABILITY COMPANY,MEADOW MILLS ASSISTED LIVING & MEMORY CARE,MEADOW MILLS ASSISTED LIVING & MEMORY CARE,ALSA.0000178,ALSA,178,,Assisted Living Service Agency,ACTIVE IN RENEWAL,CURRENT,1,01/28/2016 12:00:00 AM,04/01/2018 12:00:00 AM,03/31/2020 12:00:00 AM,153 LEEDER HILL DR,HAMDEN,CT,065172731,03/13/2020 12:00:00 AM,POINT (-72.921723 41.346298),7,1044,198,62
930723,CARE LINK CORPORATION,CORPORATION,CARE LINK CORPORATION,CARE LINK CORPORATION,ALSA.0AL0032,ALSA,AL0032,,Assisted Living Service Agency,ACTIVE,CURRENT,1,10/01/2008 12:00:00 AM,10/01/2018 12:00:00 AM,09/30/2020 12:00:00 AM,580 LONG HILL AVE,SHELTON,CT,064844803,10/04/2018 12:00:00 AM,POINT (-73.098429 41.281236),4,1040,217,126
930030,MEADOW RIDGE,LIMITED LIABILITY COMPANY,MEADOW RIDGE,MEADOW RIDGE,ALSA.0000088,ALSA,88,,Assisted Living Service Agency,ACTIVE,CURRENT,1,10/01/2008 12:00:00 AM,10/01/2018 12:00:00 AM,09/30/2020 12:00:00 AM,100 REDDING RD,REDDING,CT,068963236,09/25/2019 12:00:00 AM,POINT (-73.425508 41.263538),9,1040,154,117
929981,BENCHMARK ASSISTED LIVING LLC,BUSINESS,BENCHMARK ASSISTED LIVING LLC,BENCHMARK ASSISTED LIVING,ALSA.0000059,ALSA,59,,Assisted Living Service Agency,INACTIVE,,0,01/01/2007 12:00:00 AM,01/01/2007 12:00:00 AM,12/31/2008 12:00:00 AM,20 Academy Lane,Mystic,CT,06355,05/18/2010 12:00:00 AM,POINT (-71.97156 41.356613),8,1045,135,59
929497,ATRIA ASSISTED LIVING STAMFORD LLC,BUSINESS,ATRIA ASSISTED LIVING STAMFORD LLC,"ATRIA ASSISTED LIVING, STAMFORD",ALSA.AL-0058,ALSA,AL-0058,,Assisted Living Service Agency,INACTIVE,,0,12/20/2000 12:00:00 AM,12/20/2000 12:00:00 AM,09/30/2002 12:00:00 AM,59 COURTLAND AVENUE,STAMFORD,CT,06902,05/13/2010 12:00:00 AM,POINT (-73.514066 41.060375),9,1040,7,135
1223302,BSL SHELTON LLC,LIMITED LIABILITY COMPANY,BSL SHELTON LLC,BSL SHELTON LLC,ALSA.0000169,ALSA,169,,Assisted Living Service Agency,ACTIVE,CURRENT,1,05/19/2014 12:00:00 AM,07/01/2018 12:00:00 AM,06/30/2020 12:00:00 AM,708 BRIDGEPORT AVE # A,SHELTON,CT,064844734,12/18/2018 12:00:00 AM,POINT (-73.124392 41.274858),4,1040,217,126
929009,DAY KIMBALL HOSPITAL,BUSINESS,DAY KIMBALL HOSPITAL,DAY KIMBALL HOMECARE ALSA,ALSA.0000106,ALSA,106,,Assisted Living Service Agency,INACTIVE,,0,06/30/2005 12:00:00 AM,06/30/2005 12:00:00 AM,06/30/2007 12:00:00 AM,320 Pomfret Street,Putnam,CT,06260,05/18/2010 12:00:00 AM,POINT (-71.914692 41.907746),5,39,39,116
1532874,"RESIDENCE AT SUMMER STREET, THE",LIMITED LIABILITY COMPANY,"RESIDENCE AT SUMMER STREET, THE","RESIDENCE AT SUMMER STREET, THE",ALSA.0000200,ALSA,200,,Assisted Living Service Agency,ACTIVE,CURRENT,1,07/30/2018 12:00:00 AM,07/27/2018 12:00:00 AM,06/30/2020 12:00:00 AM,14 SECOND STREET,STAMFORD,CT,069055103,07/30/2018 12:00:00 AM,POINT (-73.542044 41.063554),9,1040,84,135
929578,ORANGE CARE LLC,BUSINESS,ORANGE CARE LLC,LAUREL GARDENS OF ORANGE,ALSA.0000082,ALSA,82,,Assisted Living Service Agency,INACTIVE,,0,07/01/2004 12:00:00 AM,07/01/2004 12:00:00 AM,06/30/2006 12:00:00 AM,245 Indian River Road,Orange,CT,06477,05/18/2010 12:00:00 AM,POINT (-73.000132 41.263913),7,1044,196,107
929719,PRIORITY CARE INC.,BUSINESS,PRIORITY CARE INC.,"PRIORITY CARE, INC.",ALSA.0AL0041,ALSA,AL0041,,Assisted Living Service Agency,INACTIVE,,0,04/01/2001 12:00:00 AM,04/01/2001 12:00:00 AM,03/31/2003 12:00:00 AM,999 ORONOQUE LANE,STRATFORD,CT,06614,05/18/2010 12:00:00 AM,POINT (-73.102725 41.248399),2,1040,218,138
930013,SUNRISE WEST HARTFORD ASSISTED LIVING L.L.C.,BUSINESS,SUNRISE WEST HARTFORD ASSISTED LIVING L.L.C.,SUNRISE ASSISTED LIVING OF WEST HARTFORD,ALSA.0000074,ALSA,74,,Assisted Living Service Agency,INACTIVE,,0,01/01/2008 12:00:00 AM,01/01/2008 12:00:00 AM,12/31/2009 12:00:00 AM,22 Simsbury Road,West Hartford,CT,06107,05/18/2010 12:00:00 AM,POINT (-72.72196 41.797336),1,1041,181,155
1329552,BRIGHTVIEW ON NEW CANAAN,LIMITED LIABILITY COMPANY,BRIGHTVIEW ON NEW CANAAN,BRIGHTVIEW ON NEW CANAAN,ALSA.0000177,ALSA,177,,Assisted Living Service Agency,ACTIVE,CURRENT,1,01/22/2016 12:00:00 AM,01/01/2020 12:00:00 AM,12/31/2021 12:00:00 AM,162 NEW CANAAN AVE,NORWALK,CT,068501916,02/20/2020 12:00:00 AM,POINT (-73.439401 41.129127),9,1040,204,103
929118,BAL HAMDEN LLC,LIMITED LIABILITY COMPANY,BAL HAMDEN LLC,BAL HAMDEN LLC,ALSA.0000133,ALSA,133,,Assisted Living Service Agency,ACTIVE,CURRENT,1,12/01/2008 12:00:00 AM,10/01/2018 12:00:00 AM,09/30/2020 12:00:00 AM,35 HAMDEN HILLS DR,HAMDEN,CT,065185322,12/07/2018 12:00:00 AM,POINT (-72.910228 41.388808),7,1044,100,62
929773,ARDEN COURTS OF FARMINGTON CT LLC,LIMITED LIABILITY COMPANY,ARDEN COURTS OF FARMINGTON CT LLC,ARDEN COURTS OF FARMINGTON,ALSA.0000123,ALSA,123,,Assisted Living Service Agency,ACTIVE,CURRENT,1,10/01/2009 12:00:00 AM,10/01/2019 12:00:00 AM,09/30/2021 12:00:00 AM,45 SOUTH RD,FARMINGTON,CT,060322022,11/18/2019 12:00:00 AM,POINT (-72.799001 41.725058),1,1041,254,52
929128,BAL MIDDLETOWN LLC,LIMITED LIABILITY COMPANY,BAL MIDDLETOWN LLC,BAL MIDDLETOWN,ALSA.0000137,ALSA,137,,Assisted Living Service Agency,ACTIVE,CURRENT,1,12/02/2008 12:00:00 AM,10/01/2018 12:00:00 AM,09/30/2020 12:00:00 AM,645 SAYBROOK RD,MIDDLETOWN,CT,064574746,11/05/2018 12:00:00 AM,POINT (-72.61955 41.538898),3,1043,236,83
1607035,"RESIDENCE AT SOUTH WINDSOR FARMS, THE",LIMITED LIABILITY COMPANY,"RESIDENCE AT SOUTH WINDSOR FARMS, THE","RESIDENCE AT SOUTH WINDSOR FARMS, THE",ALSA.0000204,ALSA,204,,Assisted Living Service Agency,ACTIVE,CURRENT,1,10/11/2018 12:00:00 AM,09/27/2018 12:00:00 AM,09/30/2020 12:00:00 AM,200 DEMING WAY,SOUTH WINDSOR,CT,06074,10/11/2018 12:00:00 AM,POINT (-72.552788 41.820807),1,1041,89,132
929100,MASONICARE HOME HEALTH AND HOSPICE INC.,CORPORATION,MASONICARE HOME HEALTH AND HOSPICE INC.,MASONICARE HOME HEALTH AND HOSPICE,ALSA.0000128,ALSA,128,,Assisted Living Service Agency,CLOSED,CLOSED,0,10/30/2008 12:00:00 AM,10/01/2014 12:00:00 AM,09/30/2016 12:00:00 AM,33 N PLAINS INDUSTRIAL RD,WALLINGFORD,CT,064925841,11/09/2016 12:00:00 AM,POINT (-72.81405 41.485441),7,1044,195,148
930727,ATRIA STRATFORD,BUSINESS,ATRIA STRATFORD,ATRIA STRATFORD,ALSA.0AL0039,ALSA,AL0039,,Assisted Living Service Agency,CLOSED,CLOSED,0,01/01/2009 12:00:00 AM,01/01/2011 12:00:00 AM,12/31/2012 12:00:00 AM,6911 MAIN ST,STRATFORD,CT,066141360,09/26/2012 12:00:00 AM,POINT (-73.10197 41.247009),2,1040,218,138
1519307,COLEBROOK VILLAGE AT HEBRON,CORPORATION,COLEBROOK VILLAGE AT HEBRON,COLEBROOK VILLAGE AT HEBRON,ALSA.0000196,ALSA,196,,Assisted Living Service Agency,ACTIVE,CURRENT,1,06/14/2018 12:00:00 AM,04/01/2020 12:00:00 AM,03/31/2022 12:00:00 AM,55 JOHN E HORTON BLVD,HEBRON,CT,062481564,04/27/2020 12:00:00 AM,,,,,
929939,NSL CONNECTICUT LLC,BUSINESS,NSL CONNECTICUT LLC,"NSL CONNECTICUT, LLC",ALSA.0000060,ALSA,60,,Assisted Living Service Agency,INACTIVE,,0,01/01/2005 12:00:00 AM,01/01/2005 12:00:00 AM,12/31/2006 12:00:00 AM,1 HAMILTON HEIGHTS DRIVE,WEST HARTFORD,CT,06119,05/18/2010 12:00:00 AM,POINT (-72.722606 41.768831),1,1041,251,155
929883,LUTHER RIDGE AT MIDDLETOWN INC.,CORPORATION,LUTHER RIDGE AT MIDDLETOWN INC.,"LUTHER RIDGE AT MIDDLETOWN, INC.",ALSA.0000113,ALSA,113,,Assisted Living Service Agency,ACTIVE,CURRENT,1,10/01/2009 12:00:00 AM,10/01/2019 12:00:00 AM,09/30/2021 12:00:00 AM,628 CONGDON ST W,MIDDLETOWN,CT,064577939,12/17/2019 12:00:00 AM,POINT (-72.694591 41.570091),3,1043,236,83
929172,BROOKDALE WILTON,LIMITED LIABILITY COMPANY,BROOKDALE WILTON,BROOKDALE WILTON,ALSA.0000149,ALSA,149,,Assisted Living Service Agency,ACTIVE,CURRENT,1,11/18/2009 12:00:00 AM,10/01/2019 12:00:00 AM,09/30/2021 12:00:00 AM,96 DANBURY RD,WILTON,CT,068974409,12/17/2019 12:00:00 AM,POINT (-73.416578 41.173046),9,1040,212,161
929581,WOODBRIDGE CARE LLC,BUSINESS,WOODBRIDGE CARE LLC,LAUREL GARDENS OF WOODBRIDGE,ALSA.0000085,ALSA,85,,Assisted Living Service Agency,INACTIVE,,0,07/01/2004 12:00:00 AM,07/01/2004 12:00:00 AM,06/30/2006 12:00:00 AM,21 Bradley Road,Woodbridge,CT,06525,05/18/2010 12:00:00 AM,POINT (-72.982582 41.343605),7,1044,61,167
1798836,ANTHOLOGY OF SIMSBURY,LIMITED LIABILITY COMPANY,ANTHOLOGY OF SIMSBURY,ANTHOLOGY OF SIMSBURY,ALSA.0000215,ALSA,215,,Assisted Living Service Agency,ACTIVE,CURRENT,1,10/17/2019 12:00:00 AM,10/23/2019 12:00:00 AM,09/30/2021 12:00:00 AM,142 COOPER AVE,WEATOGUE,CT,060897949,10/23/2019 12:00:00 AM,,,,,
929801,THE HOMESTEADS AT NEWTOWN LLC,BUSINESS,THE HOMESTEADS AT NEWTOWN LLC,THE HOMESTEADS AT NEWTOWN,ALSA.0000061,ALSA,61,,Assisted Living Service Agency,INACTIVE,,0,01/01/2005 12:00:00 AM,01/01/2005 12:00:00 AM,12/31/2006 12:00:00 AM,166 Mount Pleasant Road,Newtown,CT,06470,05/18/2010 12:00:00 AM,POINT (-73.366622 41.415915),9,1040,153,97
1618070,ESSEX MEADOWS,LIMITED LIABILITY COMPANY,ESSEX MEADOWS,ESSEX MEADOWS,ALSA.0000206,ALSA,206,,Assisted Living Service Agency,ACTIVE,CURRENT,1,12/03/2018 12:00:00 AM,11/20/2018 12:00:00 AM,09/30/2020 12:00:00 AM,30 BOKUM ROAD,ESSEX,CT,06426,12/03/2018 12:00:00 AM,POINT (-72.410763 41.338327),3,1043,97,50
930101,VILLAGE RETIREMENT COMMUNITIES LLC,BUSINESS,VILLAGE RETIREMENT COMMUNITIES LLC,VILLAGE AT EAST FARMS,ALSA.0AL0034,ALSA,AL0034,,Assisted Living Service Agency,INACTIVE,,0,10/01/2004 12:00:00 AM,10/01/2004 12:00:00 AM,09/30/2006 12:00:00 AM,180 SCOTT ROAD,WATERBURY,CT,06705,05/18/2010 12:00:00 AM,POINT (-72.977856 41.532751),4,1044,62,115
929849,SACRED HEART MANOR INC.,CORPORATION,SACRED HEART MANOR INC.,SACRED HEART MANOR,ALSA.0000098,ALSA,98,,Assisted Living Service Agency,ACTIVE IN RENEWAL,CURRENT,1,04/01/2008 12:00:00 AM,04/01/2018 12:00:00 AM,03/31/2020 12:00:00 AM,261 BENHAM ST,HAMDEN,CT,065142801,02/04/2020 12:00:00 AM,POINT (-72.932224 41.364958),7,1044,197,62
929590,NEW ENGLAND HOME CARE INC.,BUSINESS,NEW ENGLAND HOME CARE INC.,"NEW ENGLAND HOME CARE, INC.",ALSA.0000089,ALSA,89,,Assisted Living Service Agency,INACTIVE,,0,01/01/2005 12:00:00 AM,01/01/2005 12:00:00 AM,12/31/2006 12:00:00 AM,57 Plains Road,Milford,CT,06460,05/18/2010 12:00:00 AM,POINT (-73.074204 41.22262),7,1044,193,84
930073,EVERGREEN WOODS,LIMITED LIABILITY COMPANY,EVERGREEN WOODS,EVERGREEN WOODS,ALSA.0000092,ALSA,92,,Assisted Living Service Agency,CLOSED,CLOSED,0,04/01/2009 12:00:00 AM,04/01/2015 12:00:00 AM,03/31/2017 12:00:00 AM,88 NOTCH HILL RD,NORTH BRANFORD,CT,064711846,12/05/2016 12:00:00 AM,POINT (-72.751087 41.317083),7,1044,131,99
996299,BROOKDALE BUCKINGHAM,CORPORATION,BROOKDALE BUCKINGHAM,BROOKDALE BUCKINGHAM,ALSA.0000155,ALSA,155,,Assisted Living Service Agency,ACTIVE,CURRENT,1,05/04/2011 12:00:00 AM,04/01/2019 12:00:00 AM,03/31/2021 12:00:00 AM,1824 MANCHESTER RD,GLASTONBURY,CT,060331832,04/22/2019 12:00:00 AM,POINT (-72.52021 41.730072),1,1041,90,54
1518513,ATRIA GLASTONBURY,LIMITED LIABILITY COMPANY,ATRIA GLASTONBURY,ATRIA GLASTONBURY,ALSA.0000195,ALSA,195,,Assisted Living Service Agency,ACTIVE IN RENEWAL,CURRENT,1,05/29/2018 12:00:00 AM,05/22/2018 12:00:00 AM,03/31/2020 12:00:00 AM,1177 HEBRON AVENUE,GLASTONBURY,CT,06033,01/20/2020 12:00:00 AM,POINT (-72.565688 41.718233),1,1041,90,54
930925,BRIGHTON GARDENS OF STAMFORD ALSA,LIMITED LIABILITY COMPANY,BRIGHTON GARDENS OF STAMFORD ALSA,BRIGHTON GARDENS OF STAMFORD,ALSA.0000022,ALSA,22,,Assisted Living Service Agency,ACTIVE,CURRENT,1,10/01/2009 12:00:00 AM,10/01/2019 12:00:00 AM,09/30/2021 12:00:00 AM,59 ROXBURY RD,STAMFORD,CT,069021283,10/23/2019 12:00:00 AM,POINT (-73.56296 41.08957),9,1040,7,135
1003908,ATRIA LARSON PLACE,LIMITED LIABILITY COMPANY,ATRIA LARSON PLACE,ATRIA LARSON PLACE,ALSA.0000161,ALSA,161,,Assisted Living Service Agency,ACTIVE,CURRENT,1,06/22/2011 12:00:00 AM,04/01/2019 12:00:00 AM,03/31/2021 12:00:00 AM,1450 WHITNEY AVE,HAMDEN,CT,065172451,04/18/2019 12:00:00 AM,POINT (-72.913115 41.353404),7,1044,198,62
1394779,ARTIS SENIOR LIVING OF BRANFORD,LIMITED LIABILITY COMPANY,ARTIS SENIOR LIVING OF BRANFORD,ARTIS SENIOR LIVING OF BRANFORD,ALSA.0000188,ALSA,188,,Assisted Living Service Agency,ACTIVE,CURRENT,1,12/21/2016 12:00:00 AM,10/01/2018 12:00:00 AM,09/30/2020 12:00:00 AM,814 E MAIN ST,BRANFORD,CT,064052920,11/29/2018 12:00:00 AM,POINT (-72.749485 41.308551),7,1044,170,14
930202,LIVEWELL CONNECTICUT,CORPORATION,LIVEWELL CONNECTICUT,LIVEWELL CONNECTICUT,ALSA.0000048,ALSA,48,,Assisted Living Service Agency,ACTIVE,CURRENT,1,01/01/2008 12:00:00 AM,01/01/2020 12:00:00 AM,12/31/2021 12:00:00 AM,1261 S MAIN ST,PLANTSVILLE,CT,064791750,01/09/2020 12:00:00 AM,POINT (-72.895847 41.573158),1,1041,185,131
1243579,"LINDEN AT WOODBRIDGE, THE",LIMITED LIABILITY COMPANY,"LINDEN AT WOODBRIDGE, THE","LINDEN AT WOODBRIDGE, THE",ALSA.0000170,ALSA,170,,Assisted Living Service Agency,ACTIVE,CURRENT,1,09/04/2014 12:00:00 AM,07/01/2018 12:00:00 AM,06/30/2020 12:00:00 AM,330 AMITY RD,WOODBRIDGE,CT,065252131,07/20/2018 12:00:00 AM,POINT (-72.988123 41.349764),7,1044,61,167
929644,MAPLEWOOD AT DANBURY ALSA LLC,LIMITED LIABILITY COMPANY,MAPLEWOOD AT DANBURY ALSA LLC,"MAPLEWOOD AT DANBURY ALSA, LLC",ALSA.0000114,ALSA,114,,Assisted Living Service Agency,ACTIVE IN RENEWAL,CURRENT,1,04/01/2008 12:00:00 AM,04/01/2018 12:00:00 AM,03/31/2020 12:00:00 AM,1 GORHAM IS,WESTPORT,CT,068803217,02/28/2020 12:00:00 AM,POINT (-73.362577 41.143759),9,1040,179,158
1003704,ATRIA CROSSROADS PLACE,LIMITED LIABILITY COMPANY,ATRIA CROSSROADS PLACE,ATRIA CROSSROADS PLACE,ALSA.0000157,ALSA,157,,Assisted Living Service Agency,ACTIVE,CURRENT,1,06/22/2011 12:00:00 AM,04/01/2019 12:00:00 AM,03/31/2021 12:00:00 AM,1 BEECHWOOD DR,WATERFORD,CT,063851227,04/22/2019 12:00:00 AM,POINT (-72.157421 41.366678),8,1045,140,152
929571,INTERIM HEALTHCARE OF HARTFORD INC.,BUSINESS,INTERIM HEALTHCARE OF HARTFORD INC.,"INTERIM HEALTHCARE OF HARTFORD, INC.",ALSA.0000075,ALSA,75,,Assisted Living Service Agency,INACTIVE,,0,01/01/2004 12:00:00 AM,01/01/2004 12:00:00 AM,12/31/2005 12:00:00 AM,231 Farmington Avenue,Farmington,CT,06032,05/18/2010 12:00:00 AM,POINT (-72.793626 41.737713),1,1041,254,52
930222,"COVENANT LIVING OF CROMWELL, INC.",CORPORATION,"COVENANT LIVING OF CROMWELL, INC.",COVENANT LIVING OF CROMWELL ASSISTED LIVING SERVICES AGENCY,ALSA.0000063,ALSA,63,,Assisted Living Service Agency,ACTIVE,CURRENT,1,01/01/2009 12:00:00 AM,01/01/2019 12:00:00 AM,12/31/2020 12:00:00 AM,52 MISSIONARY RD,CROMWELL,CT,064162170,10/07/2019 12:00:00 AM,POINT (-72.660908 41.600427),3,1043,165,33
930213,DANBURY ASSISTED LIVING LLC.,LIMITED LIABILITY COMPANY,DANBURY ASSISTED LIVING LLC.,"DANBURY ASSISTED LIVING, LLC.",ALSA.0000054,ALSA,54,,Assisted Living Service Agency,CLOSED,CLOSED,0,07/01/2008 12:00:00 AM,07/01/2018 12:00:00 AM,06/30/2020 12:00:00 AM,8 GLEN HILL RD,DANBURY,CT,068114985,02/15/2019 12:00:00 AM,POINT (-73.448186 41.414573),9,1040,60,34
929130,BAL BROOKFIELD LLC,LIMITED LIABILITY COMPANY,BAL BROOKFIELD LLC,BAL BROOKFIELD,ALSA.0000138,ALSA,138,,Assisted Living Service Agency,ACTIVE,CURRENT,1,12/01/2009 12:00:00 AM,10/01/2018 12:00:00 AM,09/30/2020 12:00:00 AM,246A FEDERAL RD,BROOKFIELD,CT,068042652,12/07/2018 12:00:00 AM,POINT (-73.404301 41.44501),9,1040,173,18
929798,AMICUS HEALTHCARE LIVING CENTERS LLC,BUSINESS,AMICUS HEALTHCARE LIVING CENTERS LLC,THE ATRIUM AT ROCKY HILL,ALSA.0000049,ALSA,49,,Assisted Living Service Agency,INACTIVE,,0,01/01/2004 12:00:00 AM,01/01/2004 12:00:00 AM,12/31/2005 12:00:00 AM,1160 Elm Street,Rocky Hill,CT,06067,05/18/2010 12:00:00 AM,POINT (-72.679839 41.658021),1,1041,189,119
930725,ORCHARDS AT SOUTHINGTON INC.,CORPORATION,ORCHARDS AT SOUTHINGTON INC.,"ORCHARDS AT SOUTHINGTON, INC. THE",ALSA.0AL0035,ALSA,AL0035,,Assisted Living Service Agency,ACTIVE,CURRENT,1,10/01/2008 12:00:00 AM,10/01/2018 12:00:00 AM,09/30/2020 12:00:00 AM,34 HOBART ST,SOUTHINGTON,CT,064893366,11/29/2018 12:00:00 AM,POINT (-72.876441 41.606384),1,1041,176,131
930026,DUNCASTER ASSISTED LIVING SERVICES AGENCY,CORPORATION,DUNCASTER ASSISTED LIVING SERVICES AGENCY,"DUNCASTER, INC.",ALSA.0000080,ALSA,80,,Assisted Living Service Agency,ACTIVE,CURRENT,1,07/01/2008 12:00:00 AM,07/01/2018 12:00:00 AM,06/30/2020 12:00:00 AM,40 LOEFFLER RD,BLOOMFIELD,CT,060022262,05/09/2019 12:00:00 AM,POINT (-72.76466 41.828776),1,1041,224,11
1123803,ASSISTED LIVING SERVICES AGENCY AT CREAMERY BROOK,CORPORATION,ASSISTED LIVING SERVICES AGENCY AT CREAMERY BROOK,ASSISTED LIVING SERVICES AGENCY AT CREAMERY BROOK,ALSA.0000166,ALSA,166,,Assisted Living Service Agency,ACTIVE,CURRENT,1,09/19/2012 12:00:00 AM,07/01/2018 12:00:00 AM,06/30/2020 12:00:00 AM,36 VINA LN,BROOKLYN,CT,062341937,10/16/2018 12:00:00 AM,POINT (-71.944691 41.782419),5,39,37,19
929120,EMERITUS CORPORATION,CORPORATION,EMERITUS CORPORATION,EMERITUS AT WOODBRIDGE,ALSA.0000132,ALSA,132,,Assisted Living Service Agency,CLOSED,CLOSED,0,12/01/2008 12:00:00 AM,10/01/2012 12:00:00 AM,09/30/2014 12:00:00 AM,330 AMITY RD,WOODBRIDGE,CT,065252131,09/04/2014 12:00:00 AM,POINT (-72.988123 41.349764),7,1044,61,167
1640127,THE ROSES AT GUILFORD HOUSE,LIMITED LIABILITY COMPANY,THE ROSES AT GUILFORD HOUSE,THE ROSES AT GUILFORD HOUSE,ALSA.0000209,ALSA,209,,Assisted Living Service Agency,ACTIVE,CURRENT,1,03/21/2019 12:00:00 AM,03/21/2019 12:00:00 AM,12/31/2020 12:00:00 AM,109 WEST LAKE AVENUE,GUILFORD,CT,064371352,03/21/2019 12:00:00 AM,POINT (-72.725116 41.311477),7,1044,201,60
2021202,FARMINGTON STATION A SENIOR LIVING RESIDENCE,LIMITED LIABILITY COMPANY,FARMINGTON STATION A SENIOR LIVING RESIDENCE,FARMINGTON STATION A SENIOR LIVING RESIDENCE,ALSA.0000220,ALSA,220,,Assisted Living Service Agency,ACTIVE,CURRENT,1,04/03/2020 12:00:00 AM,03/30/2020 12:00:00 AM,03/31/2022 12:00:00 AM,111 SCOTT SWAMP RD,FARMINGTON,CT,060322861,04/03/2020 12:00:00 AM,POINT (-72.857734 41.704071),1,1041,254,52
930922,WHITNEY CENTER INCORPORATED,CORPORATION,WHITNEY CENTER INCORPORATED,"WHITNEY CENTER, INC",ALSA.0AL0001,ALSA,AL0001,,Assisted Living Service Agency,ACTIVE,CURRENT,1,10/01/2009 12:00:00 AM,10/01/2019 12:00:00 AM,09/30/2021 12:00:00 AM,200 LEEDER HILL DR,HAMDEN,CT,065172749,12/02/2019 12:00:00 AM,POINT (-72.920674 41.34892),7,1044,198,62
929879,OLSL CROSSROADS PLACE LLC,BUSINESS,OLSL CROSSROADS PLACE LLC,ATRIA CROSSROADS PLACE,ALSA.0000109,ALSA,109,,Assisted Living Service Agency,INACTIVE,INACTIVE,0,10/01/2009 12:00:00 AM,10/01/2009 12:00:00 AM,09/30/2011 12:00:00 AM,One Beechwood Drive,Waterford,CT,06385,11/29/2012 12:00:00 AM,,,,,
930719,UNITED COMMUNITY & FAMILY SERVICES INC.,BUSINESS,UNITED COMMUNITY & FAMILY SERVICES INC.,"UNITED COMMUNITY & FAMILY SERVICES, INC.",ALSA.0AL0026,ALSA,AL0026,,Assisted Living Service Agency,INACTIVE,,0,07/01/2008 12:00:00 AM,07/01/2008 12:00:00 AM,06/30/2010 12:00:00 AM,34 EAST TOWN STREET,NORWICH,CT,06360,05/18/2010 12:00:00 AM,POINT (-72.091557 41.550573),8,1045,14,104
929496,PARKSIDE SENIOR SERVICES LLC,BUSINESS,PARKSIDE SENIOR SERVICES LLC,GREAT POND CROSSING AT RIDGEFIELD,ALSA.0000079,ALSA,79,,Assisted Living Service Agency,INACTIVE,,0,08/13/2002 12:00:00 AM,08/13/2002 12:00:00 AM,06/30/2004 12:00:00 AM,640 Danbury Road,Ridgefield,CT,06877,05/18/2010 12:00:00 AM,POINT (-73.474933 41.324173),9,1040,43,118
929134,BAL MYSTIC LLC,LIMITED LIABILITY COMPANY,BAL MYSTIC LLC,BAL MYSTIC,ALSA.0000139,ALSA,139,,Assisted Living Service Agency,ACTIVE,CURRENT,1,12/02/2008 12:00:00 AM,10/01/2018 12:00:00 AM,09/30/2020 12:00:00 AM,20 ACADEMY LN,MYSTIC,CT,063552557,01/14/2019 12:00:00 AM,POINT (-71.97156 41.356613),8,1045,135,59
1632606,"SPRING VILLAGE AT DANBURY, LLC",LIMITED LIABILITY COMPANY,"SPRING VILLAGE AT DANBURY, LLC",SPRING VILLAGE AT DANBURY,ALSA.0000208,ALSA,208,,Assisted Living Service Agency,ACTIVE,CURRENT,1,02/15/2019 12:00:00 AM,02/01/2019 12:00:00 AM,12/31/2020 12:00:00 AM,8 GLEN HILL ROAD,DANBURY,CT,06811,02/15/2019 12:00:00 AM,POINT (-73.448186 41.414573),9,1040,60,34
929715,C.A. MOFFIE INC.,BUSINESS,C.A. MOFFIE INC.,C.A. MOFFIE,ALSA.0AL0019,ALSA,AL0019,,Assisted Living Service Agency,INACTIVE,,0,10/01/1999 12:00:00 AM,10/01/1999 12:00:00 AM,09/30/2001 12:00:00 AM,58 MULBERRY STREET,PLANTSVILLE,CT,06479,05/18/2010 12:00:00 AM,POINT (-72.892396 41.574041),1,1041,185,131
1525116,"KSMS CONNECTICUT, INC.",CORPORATION,"KSMS CONNECTICUT, INC.","KSMS CONNECTICUT, INC.",ALSA.0000198,ALSA,198,,Assisted Living Service Agency,ACTIVE,CURRENT,1,07/13/2018 12:00:00 AM,07/13/2018 12:00:00 AM,06/30/2020 12:00:00 AM,1058 LITCHFIELD ST,TORRINGTON,CT,067906029,07/31/2018 12:00:00 AM,POINT (-73.141985 41.788523),6,1042,122,143
929117,BAL WINDSOR LLC,LIMITED LIABILITY COMPANY,BAL WINDSOR LLC,BAL WINDSOR,ALSA.0000131,ALSA,131,,Assisted Living Service Agency,ACTIVE,CURRENT,1,12/01/2008 12:00:00 AM,10/01/2018 12:00:00 AM,09/30/2020 12:00:00 AM,432 BUCKLAND RD,SOUTH WINDSOR,CT,060743741,01/14/2019 12:00:00 AM,POINT (-72.552781 41.822542),1,1041,89,132
929149,LCS-WESTMINSTER PARTNERSHIP I LLP,LIMITED LIABILITY PARTNERSHIP,LCS-WESTMINSTER PARTNERSHIP I LLP,AVALON HEALTH CARE CENTER AT STONERIDGE,ALSA.0000145,ALSA,145,,Assisted Living Service Agency,CLOSED,CLOSED,0,04/06/2009 12:00:00 AM,04/01/2015 12:00:00 AM,03/31/2017 12:00:00 AM,186 JERRY BROWNE ROAD,MYSTIC,CT,06355,04/01/2016 12:00:00 AM,POINT (-71.949571 41.37512),8,1045,139,137
930333,"GREENS AT CANNONDALE, THE",LIMITED LIABILITY COMPANY,"GREENS AT CANNONDALE, THE","GREENS AT CANNONDALE, THE",ALSA.0AL0025,ALSA,AL0025,,Assisted Living Service Agency,ACTIVE,CURRENT,1,04/01/2008 12:00:00 AM,04/01/2020 12:00:00 AM,03/31/2022 12:00:00 AM,435 DANBURY RD,WILTON,CT,068972031,04/27/2020 12:00:00 AM,POINT (-73.430209 41.215492),9,1040,212,161
1692422,SUFFIELD BY THE RIVER,LIMITED LIABILITY COMPANY,SUFFIELD BY THE RIVER,SUFFIELD BY THE RIVER,ALSA.0000213,ALSA,213,,Assisted Living Service Agency,ACTIVE,CURRENT,1,09/18/2019 12:00:00 AM,08/30/2019 12:00:00 AM,06/30/2021 12:00:00 AM,7 CANAL RD,SUFFIELD,CT,060781970,09/18/2019 12:00:00 AM,POINT (-72.613305 41.985924),1,1041,115,139
929940,BROOKDALE LITCHFIELD HILLS,LIMITED LIABILITY COMPANY,BROOKDALE LITCHFIELD HILLS,BROOKDALE LITCHFIELD HILLS,ALSA.0000101,ALSA,101,,Assisted Living Service Agency,CLOSED,CLOSED,0,07/01/2008 12:00:00 AM,07/01/2016 12:00:00 AM,06/30/2018 12:00:00 AM,376 GOSHEN RD,TORRINGTON,CT,067902722,05/30/2018 12:00:00 AM,POINT (-73.15464 41.820838),6,1042,122,143
1317405,BRIDGES BY EPOCH AT TRUMBULL,LIMITED LIABILITY COMPANY,BRIDGES BY EPOCH AT TRUMBULL,BRIDGES BY EPOCH AT TRUMBULL,ALSA.0000175,ALSA,175,,Assisted Living Service Agency,ACTIVE,CURRENT,1,10/20/2015 12:00:00 AM,10/01/2019 12:00:00 AM,09/30/2021 12:00:00 AM,2415 RESERVOIR AVE,TRUMBULL,CT,066114752,12/17/2019 12:00:00 AM,POINT (-73.195757 41.233874),2,1040,76,144
929852,VISITING NURSE AND HEALTH SERVICES OF CT INC.,BUSINESS,VISITING NURSE AND HEALTH SERVICES OF CT INC.,"VISITING NURSE AND HEALTH SERVICES OF CT, INC.",ALSA.0000099,ALSA,99,,Assisted Living Service Agency,INACTIVE,INACTIVE,0,07/01/2008 12:00:00 AM,07/01/2010 12:00:00 AM,06/30/2012 12:00:00 AM,8 Keynote Drive,Vernon,CT,06066,05/17/2011 12:00:00 AM,POINT (-72.469004 41.833503),1,38,248,146
1267944,"RESIDENCE AT SOUTH WINDSOR FARMS, THE",LIMITED LIABILITY COMPANY,"RESIDENCE AT SOUTH WINDSOR FARMS, THE","RESIDENCE AT SOUTH WINDSOR FARMS, THE",ALSA.0000173,ALSA,173,,Assisted Living Service Agency,CLOSED,CLOSED,0,02/19/2015 12:00:00 AM,01/01/2017 12:00:00 AM,12/31/2018 12:00:00 AM,200 DEMING ST,SOUTH WINDSOR,CT,060743759,10/15/2018 12:00:00 AM,POINT (-72.552788 41.820807),1,1041,89,132
928987,BENCHMARK NIANTIC SENIOR HOUSING,BUSINESS,BENCHMARK NIANTIC SENIOR HOUSING,"BENCHMARK ASSISTED LIVING, LLC",ALSA.0000095,ALSA,95,,Assisted Living Service Agency,INACTIVE,,0,11/07/2003 12:00:00 AM,11/07/2003 12:00:00 AM,09/30/2005 12:00:00 AM,417 Main Street,Niantic,CT,06333,05/18/2010 12:00:00 AM,POINT (-72.199095 41.322286),8,1045,31,45
929757,OLSL STAMFORD LLC,BUSINESS,OLSL STAMFORD LLC,ATRIA STAMFORD,ALSA.0000120,ALSA,120,,Assisted Living Service Agency,CLOSED,CLOSED,0,07/01/2009 12:00:00 AM,07/01/2009 12:00:00 AM,06/30/2011 12:00:00 AM,77 Third Street,Stamford,CT,06905,07/24/2012 12:00:00 AM,POINT (-73.538768 41.065308),9,1040,84,135
929577,AVON CARE LLC,BUSINESS,AVON CARE LLC,LAUREL GARDENS OF AVON,ALSA.0000081,ALSA,81,,Assisted Living Service Agency,INACTIVE,,0,07/01/2004 12:00:00 AM,07/01/2004 12:00:00 AM,06/30/2006 12:00:00 AM,101 Bickford Ext.,Avon,CT,06001,05/18/2010 12:00:00 AM,POINT (-72.842518 41.812096),1,1041,46,4
930716,BROOKDALE ROCKY HILL,CORPORATION,BROOKDALE ROCKY HILL,BROOKDALE ROCKY HILL,ALSA.0AL0012,ALSA,AL0012,,Assisted Living Service Agency,CLOSED,CLOSED,0,04/01/2009 12:00:00 AM,04/01/2019 12:00:00 AM,03/31/2021 12:00:00 AM,60 COLD SPRING RD,ROCKY HILL,CT,060673175,10/07/2019 12:00:00 AM,POINT (-72.678712 41.644186),1,1041,189,119
1676004,MAPLEWOOD AT SOUTHPORT,LIMITED LIABILITY COMPANY,MAPLEWOOD AT SOUTHPORT,MAPLEWOOD AT SOUTHPORT,ALSA.0000212,ALSA,212,,Assisted Living Service Agency,ACTIVE,CURRENT,1,07/16/2019 12:00:00 AM,07/15/2019 12:00:00 AM,06/30/2021 12:00:00 AM,917 MILL HILL TER,SOUTHPORT,CT,068901262,07/16/2019 12:00:00 AM,POINT (-73.286844 41.144245),2,1040,151,51
929797,DORAN ASSOCIATES LLC,BUSINESS,DORAN ASSOCIATES LLC,GARDENSIDE TERRACE,ALSA.0000047,ALSA,47,,Assisted Living Service Agency,INACTIVE,,0,10/01/2003 12:00:00 AM,10/01/2003 12:00:00 AM,09/30/2005 12:00:00 AM,173 Alps Road,Branford,CT,06405,05/18/2010 12:00:00 AM,POINT (-72.845346 41.265411),7,1044,170,14
1361748,"WATERMARK AT EAST HILL WOODS, THE",LIMITED LIABILITY COMPANY,"WATERMARK AT EAST HILL WOODS, THE","WATERMARK AT EAST HILL WOODS, THE",ALSA.0000181,ALSA,181,,Assisted Living Service Agency,ACTIVE IN RENEWAL,CURRENT,1,06/20/2016 12:00:00 AM,04/01/2018 12:00:00 AM,03/31/2020 12:00:00 AM,611 EAST HILL ROAD,SOUTHBURY,CT,06488,01/28/2020 12:00:00 AM,POINT (-73.241049 41.485015),4,1044,99,130
929658,MERCY COMMUNITY HOME CARE SERVICES INC.,BUSINESS,MERCY COMMUNITY HOME CARE SERVICES INC.,"MERCY COMMUNITY HOME CARE SERVICES, INC.",ALSA.0000117,ALSA,117,,Assisted Living Service Agency,CLOSED,CLOSED,0,01/01/2009 12:00:00 AM,01/01/2009 12:00:00 AM,12/31/2010 12:00:00 AM,275 Steele Road,West Hartford,CT,06107,04/18/2012 12:00:00 AM,POINT (-72.724347 41.783653),1,1041,181,155
929718,SENIORS' CHOICE AT LAKE WHITNEY,BUSINESS,SENIORS' CHOICE AT LAKE WHITNEY,SENIORS' CHOICE AT LAKE WHITNEY,ALSA.0AL0040,ALSA,AL0040,,Assisted Living Service Agency,INACTIVE,,0,01/01/2001 12:00:00 AM,01/01/2001 12:00:00 AM,12/31/2002 12:00:00 AM,1450 WHITNEY AVENUE,HAMDEN,CT,06517,05/18/2010 12:00:00 AM,POINT (-72.913115 41.353404),7,1044,198,62
1791336,THE RESIDENCE AT FERRY PARK,LIMITED LIABILITY COMPANY,THE RESIDENCE AT FERRY PARK,THE RESIDENCE AT FERRY PARK,ALSA.0000214,ALSA,214,,Assisted Living Service Agency,ACTIVE,CURRENT,1,10/04/2019 12:00:00 AM,10/01/2019 12:00:00 AM,09/30/2021 12:00:00 AM,60 COLD SPRING RD,ROCKY HILL,CT,060673175,10/04/2019 12:00:00 AM,POINT (-72.678712 41.644186),1,1041,189,119
1620379,BRANDYWINE LIVING AT LITCHFIELD,LIMITED LIABILITY COMPANY,BRANDYWINE LIVING AT LITCHFIELD,BRANDYWINE LIVING AT LITCHFIELD,ALSA.0000207,ALSA,207,,Assisted Living Service Agency,ACTIVE,CURRENT,1,12/13/2018 12:00:00 AM,11/01/2018 12:00:00 AM,09/30/2020 12:00:00 AM,19 CONSTITUTION WAY,LITCHFIELD,CT,067593428,01/10/2019 12:00:00 AM,POINT (-73.2049 41.743708),6,1042,264,74
930086,CEDAR MOUNTAIN COMMONS,CORPORATION,CEDAR MOUNTAIN COMMONS,CEDAR MOUNTAIN COMMONS,ALSA.0000096,ALSA,96,,Assisted Living Service Agency,CLOSED,CLOSED,0,01/01/2010 12:00:00 AM,01/01/2016 12:00:00 AM,12/31/2017 12:00:00 AM,3 JOHN H STEWART DR,NEWINGTON,CT,061113165,12/19/2017 12:00:00 AM,POINT (-72.714061 41.696009),1,1041,86,94
930332,EAST HILL WOODS INC.,BUSINESS,EAST HILL WOODS INC.,"EAST HILL WOODS, INC.",ALSA.0AL0004,ALSA,AL0004,,Assisted Living Service Agency,INACTIVE,,0,01/01/2006 12:00:00 AM,01/01/2006 12:00:00 AM,12/31/2007 12:00:00 AM,611 EAST HILL ROAD,SOUTHBURY,CT,06488,05/18/2010 12:00:00 AM,POINT (-73.241049 41.485015),4,1044,99,130
930304,"GREENS AT GREENWICH, THE",LIMITED LIABILITY COMPANY,"GREENS AT GREENWICH, THE","GREENS AT GREENWICH, THE",ALSA.0000073,ALSA,73,,Assisted Living Service Agency,ACTIVE,CURRENT,1,10/01/2009 12:00:00 AM,10/01/2019 12:00:00 AM,09/30/2021 12:00:00 AM,1155 KING ST,GREENWICH,CT,068313246,12/02/2019 12:00:00 AM,POINT (-73.693756 41.058793),9,2185,215,57
929096,ADEL R. COCCOMO RESIDENTIAL CENTER LLC,BUSINESS,ADEL R. COCCOMO RESIDENTIAL CENTER LLC,ADEL R. COCCOMO RESIDENTIAL CENTER,ALSA.0000127,ALSA,127,,Assisted Living Service Agency,INACTIVE,,0,10/15/2008 12:00:00 AM,10/15/2008 12:00:00 AM,09/30/2010 12:00:00 AM,1556 Saybrook Road,Haddam,CT,06438,05/18/2010 12:00:00 AM,POINT (-72.478024 41.450938),3,1043,164,61
930302,HEARTH MANAGEMENT LLC,LIMITED LIABILITY COMPANY,HEARTH MANAGEMENT LLC,"HEARTH MANAGEMENT, LLC",ALSA.0000072,ALSA,72,,Assisted Living Service Agency,ACTIVE,CURRENT,1,10/01/2009 12:00:00 AM,10/01/2019 12:00:00 AM,09/30/2021 12:00:00 AM,100 BRADLEY RD,MADISON,CT,064432688,12/17/2019 12:00:00 AM,POINT (-72.596605 41.283097),7,1044,134,76
929714,MILLER MEMORIAL COMMUNITY INC.,BUSINESS,MILLER MEMORIAL COMMUNITY INC.,"MILLER MEMORIAL COMMUNITY, INC.",ALSA.AL-0056,ALSA,AL-0056,,Assisted Living Service Agency,INACTIVE,,0,07/01/2002 12:00:00 AM,07/01/2002 12:00:00 AM,06/30/2004 12:00:00 AM,360 BROAD STREET,MERIDEN,CT,06450,05/18/2010 12:00:00 AM,POINT (-72.795275 41.530336),7,1044,199,80
930839,MANCHESTER MANOR ASSISTED LIVING SERVICES AGENCY,LIMITED LIABILITY PARTNERSHIP,MANCHESTER MANOR ASSISTED LIVING SERVICES AGENCY,MANCHESTER MANOR ASSISTED LIVING SERVICES AGENCY,ALSA.0AL0055,ALSA,AL0055,,Assisted Living Service Agency,ACTIVE,CURRENT,1,07/01/2009 12:00:00 AM,07/01/2019 12:00:00 AM,06/30/2021 12:00:00 AM,385 W CENTER ST,MANCHESTER,CT,060404738,03/03/2020 12:00:00 AM,POINT (-72.552621 41.769734),1,1041,263,77
1607006,RESIDENCE AT BROOKSIDE THE,LIMITED LIABILITY COMPANY,RESIDENCE AT BROOKSIDE THE,RESIDENCE AT BROOKSIDE THE,ALSA.0000203,ALSA,203,,Assisted Living Service Agency,ACTIVE,CURRENT,1,10/11/2018 12:00:00 AM,09/27/2018 12:00:00 AM,09/30/2020 12:00:00 AM,117 SIMSBURY ROAD,AVON,CT,06001,10/11/2018 12:00:00 AM,POINT (-72.829948 41.817597),1,1041,46,4
930029,MASONICARE AT ASHLAR VILLAGE/POND RIDGE,CORPORATION,MASONICARE AT ASHLAR VILLAGE/POND RIDGE,MASONICARE AT ASHLAR VILLAGE/POND RIDGE,ALSA.0000087,ALSA,87,,Assisted Living Service Agency,ACTIVE,CURRENT,1,10/01/2008 12:00:00 AM,10/01/2018 12:00:00 AM,09/30/2020 12:00:00 AM,CHESHIRE RD,WALLINGFORD,CT,064923065,10/17/2018 12:00:00 AM,,,,,
929528,ATRIA ASSISTED LIVING TOWN CENTER LLC,BUSINESS,ATRIA ASSISTED LIVING TOWN CENTER LLC,"ATRIA ASSISTED LIVING, TOWN CENTER",ALSA.0000078,ALSA,78,,Assisted Living Service Agency,INACTIVE,,0,07/11/2002 12:00:00 AM,07/11/2002 12:00:00 AM,06/30/2004 12:00:00 AM,26 Mill River Street,STAMFORD,CT,06902,05/18/2010 12:00:00 AM,POINT (-73.546297 41.053398),9,1040,7,135
1798927,ANTHOLOGY OF FARMINGTON,LIMITED LIABILITY COMPANY,ANTHOLOGY OF FARMINGTON,ANTHOLOGY OF FARMINGTON,ALSA.0000216,ALSA,216,,Assisted Living Service Agency,ACTIVE,CURRENT,1,10/18/2019 12:00:00 AM,10/24/2019 12:00:00 AM,09/30/2021 12:00:00 AM,1 BRIDGEWATER RD,FARMINGTON,CT,060322256,10/29/2019 12:00:00 AM,POINT (-72.852117 41.73951),1,1041,254,52
929880,OLSL GREENRIDGE PLACE LLC,BUSINESS,OLSL GREENRIDGE PLACE LLC,ATRIA GREENRIDGE PLACE,ALSA.0000110,ALSA,110,,Assisted Living Service Agency,CLOSED,CLOSED,0,10/01/2009 12:00:00 AM,10/01/2009 12:00:00 AM,09/30/2011 12:00:00 AM,One Elizabeth Court,Rocky Hill,CT,06067,07/24/2012 12:00:00 AM,,,,,
929126,BAL AVON LLC,LIMITED LIABILITY COMPANY,BAL AVON LLC,BAL AVON,ALSA.0000135,ALSA,135,,Assisted Living Service Agency,ACTIVE,CURRENT,1,12/01/2008 12:00:00 AM,10/01/2018 12:00:00 AM,09/30/2020 12:00:00 AM,101 BICKFORD EXT,AVON,CT,060013741,12/07/2018 12:00:00 AM,POINT (-72.842518 41.812096),1,1041,46,4
930720,UTOPIA ASSISTED LIVING SERVICES INC.,CORPORATION,UTOPIA ASSISTED LIVING SERVICES INC.,"UTOPIA ASSISTED LIVING SERVICES, INC.",ALSA.0000028,ALSA,28,,Assisted Living Service Agency,ACTIVE,CURRENT,1,07/01/2008 12:00:00 AM,07/01/2018 12:00:00 AM,06/30/2020 12:00:00 AM,444 FOXON RD,EAST HAVEN,CT,065132037,11/01/2018 12:00:00 AM,POINT (-72.841571 41.323984),7,1044,242,44
930467,SUNRISE OF STAMFORD,LIMITED LIABILITY COMPANY,SUNRISE OF STAMFORD,SUNRISE OF STAMFORD,ALSA.0000068,ALSA,68,,Assisted Living Service Agency,ACTIVE,CURRENT,1,04/01/2009 12:00:00 AM,04/01/2019 12:00:00 AM,03/31/2021 12:00:00 AM,251 TURN OF RIVER RD,STAMFORD,CT,069051320,11/20/2019 12:00:00 AM,POINT (-73.544443 41.110815),9,1040,84,135
1518502,ATRIA LITCHFIELD HILLS,LIMITED LIABILITY COMPANY,ATRIA LITCHFIELD HILLS,ATRIA LITCHFIELD HILLS,ALSA.0000193,ALSA,193,,Assisted Living Service Agency,INACTIVE,,0,,,,376 GOSHEN ROAD,TORRINGTON,CT,06790,05/29/2018 12:00:00 AM,POINT (-73.15464 41.820838),6,1042,122,143
930724,SUNRISE SENIOR LIVING SERVICES INC.,BUSINESS,SUNRISE SENIOR LIVING SERVICES INC.,BRIGHTON GARDENS OF WOODBRIDGE ASSISTED LIVING SERVICES AGENCY,ALSA.0AL0033,ALSA,AL0033,,Assisted Living Service Agency,INACTIVE,,0,10/01/2008 12:00:00 AM,10/01/2008 12:00:00 AM,09/30/2010 12:00:00 AM,330 AMITY ROAD,WOODBRIDGE,CT,06525,05/18/2010 12:00:00 AM,POINT (-72.988123 41.349764),7,1044,61,167
1248815,MAPLEWOOD AT DARIEN,LIMITED LIABILITY COMPANY,MAPLEWOOD AT DARIEN,MAPLEWOOD AT DARIEN,ALSA.0000171,ALSA,171,,Assisted Living Service Agency,ACTIVE,CURRENT,1,10/06/2014 12:00:00 AM,10/01/2018 12:00:00 AM,09/30/2020 12:00:00 AM,599 POST RD,DARIEN,CT,068203609,10/17/2018 12:00:00 AM,POINT (-73.465011 41.082315),9,1040,5,35
1026477,"MCAULEY CENTER, INC., THE",CORPORATION,"MCAULEY CENTER, INC., THE","THE MCAULEY CENTER, INC.",ALSA.0000164,ALSA,164,,Assisted Living Service Agency,ACTIVE,CURRENT,1,07/28/2011 12:00:00 AM,07/01/2019 12:00:00 AM,06/30/2021 12:00:00 AM,275 STEELE RD,WEST HARTFORD,CT,061172765,07/05/2019 12:00:00 AM,POINT (-72.724347 41.783653),1,1041,181,155
930007,SUNRISE WILTON ASSISTED LIVING L.L.C.,BUSINESS,SUNRISE WILTON ASSISTED LIVING L.L.C.,SUNRISE ASSISTED LIVING OF WILTON,ALSA.0000070,ALSA,70,,Assisted Living Service Agency,INACTIVE,,0,10/01/2007 12:00:00 AM,10/01/2007 12:00:00 AM,09/30/2009 12:00:00 AM,96 Danbury Road,Wilton,CT,06897,05/18/2010 12:00:00 AM,POINT (-73.416578 41.173046),9,1040,212,161
929217,CONVERSION DATA,BUSINESS,CONVERSION DATA,NEW ENGLAND ASSISTED LIVING SERVICES INC,ALSA.0AL0009,ALSA,AL0009,,Assisted Living Service Agency,INACTIVE,,0,,,12/31/1998 12:00:00 AM,665 FOXON ROAD,EAST HAVEN,CT,06512,05/18/2010 12:00:00 AM,POINT (-72.852473 41.32203),7,1044,242,44
1342722,AVALON HEALTH CARE CENTER AT STONERIDGE,LIMITED LIABILITY COMPANY,AVALON HEALTH CARE CENTER AT STONERIDGE,AVALON HEALTH CARE CENTER AT STONERIDGE,ALSA.0000179,ALSA,179,,Assisted Living Service Agency,ACTIVE,CURRENT,1,03/31/2016 12:00:00 AM,01/01/2020 12:00:00 AM,12/31/2021 12:00:00 AM,186 JERRY BROWNE RD,MYSTIC,CT,063554004,01/17/2020 12:00:00 AM,POINT (-71.949571 41.37512),8,1045,139,137
930155,ELIM PARK BAPTIST HOME INC.,CORPORATION,ELIM PARK BAPTIST HOME INC.,ELIM PARK BAPTIST HOME,ALSA.0000076,ALSA,76,,Assisted Living Service Agency,ACTIVE IN RENEWAL,CURRENT,1,04/01/2008 12:00:00 AM,04/01/2018 12:00:00 AM,03/31/2020 12:00:00 AM,140 COOK HILL RD,CHESHIRE,CT,064103736,03/30/2020 12:00:00 AM,POINT (-72.900936 41.466811),4,1044,63,25
1003737,ATRIA DARIEN,LIMITED LIABILITY COMPANY,ATRIA DARIEN,ATRIA DARIEN,ALSA.0000158,ALSA,158,,Assisted Living Service Agency,ACTIVE,CURRENT,1,06/22/2011 12:00:00 AM,04/01/2019 12:00:00 AM,03/31/2021 12:00:00 AM,50 LEDGE RD,DARIEN,CT,068204439,05/03/2019 12:00:00 AM,POINT (-73.484302 41.071484),9,1040,5,35
928945,SENIORS' CHOICE AT CROSS ROAD,BUSINESS,SENIORS' CHOICE AT CROSS ROAD,SENIORS' CHOICE AT CROSS ROAD,ALSA.AL-0051,ALSA,AL-0051,,Assisted Living Service Agency,INACTIVE,,0,04/07/2000 12:00:00 AM,04/07/2000 12:00:00 AM,03/31/2002 12:00:00 AM,1 Beechwood Drive,Waterford,CT,06385,05/18/2010 12:00:00 AM,POINT (-72.157421 41.366678),8,1045,140,152
1602830,BSL FAIRFIELD LLC,LIMITED LIABILITY COMPANY,BSL FAIRFIELD LLC,BSL FAIRFIELD LLC,ALSA.0000202,ALSA,202,,Assisted Living Service Agency,ACTIVE,CURRENT,1,09/20/2018 12:00:00 AM,09/19/2018 12:00:00 AM,06/30/2020 12:00:00 AM,448 MILL PLAN ROAD,FAIRFIELD,CT,06824,09/20/2018 12:00:00 AM,POINT (-73.266738 41.14644),2,1040,111,51
929123,BAL MERIDEN LLC,LIMITED LIABILITY COMPANY,BAL MERIDEN LLC,BAL MERIDEN,ALSA.0000134,ALSA,134,,Assisted Living Service Agency,ACTIVE,CURRENT,1,12/02/2008 12:00:00 AM,10/01/2018 12:00:00 AM,09/30/2020 12:00:00 AM,511 KENSINGTON AVE,MERIDEN,CT,064512062,12/07/2018 12:00:00 AM,POINT (-72.810164 41.553166),7,1044,226,80
929660,BRANDYWINE SENIOR LIVING AT LITCHFIELD,LIMITED LIABILITY COMPANY,BRANDYWINE SENIOR LIVING AT LITCHFIELD,BRANDYWINE SENIOR LIVING AT LITCHFIELD,ALSA.0000118,ALSA,118,,Assisted Living Service Agency,CLOSED,CLOSED,0,01/01/2009 12:00:00 AM,01/01/2017 12:00:00 AM,12/31/2018 12:00:00 AM,19 CONSTITUTION WAY,LITCHFIELD,CT,067593428,12/18/2018 12:00:00 AM,POINT (-73.2049 41.743708),6,1042,264,74
1457198,BRIDGES BY EPOCH AT NORWALK,LIMITED LIABILITY COMPANY,BRIDGES BY EPOCH AT NORWALK,BRIDGES BY EPOCH AT NORWALK,ALSA.0000190,ALSA,190,,Assisted Living Service Agency,ACTIVE,CURRENT,1,10/19/2017 12:00:00 AM,10/01/2019 12:00:00 AM,09/30/2021 12:00:00 AM,123 RICHARDS AVE,NORWALK,CT,068541611,12/13/2019 12:00:00 AM,POINT (-73.451794 41.097296),9,1040,155,103
929938,BROOKDALE FARMINGTON,LIMITED LIABILITY COMPANY,BROOKDALE FARMINGTON,BROOKDALE FARMINGTON,ALSA.0000102,ALSA,102,,Assisted Living Service Agency,ACTIVE,CURRENT,1,10/01/2008 12:00:00 AM,10/01/2018 12:00:00 AM,09/30/2020 12:00:00 AM,20 DEVONWOOD DR,FARMINGTON,CT,060321417,01/24/2019 12:00:00 AM,POINT (-72.842081 41.739985),1,1041,254,52
929579,MILFORD CARE LLC,BUSINESS,MILFORD CARE LLC,LAUREL GARDENS OF MILFORD,ALSA.0000083,ALSA,83,,Assisted Living Service Agency,INACTIVE,,0,07/01/2004 12:00:00 AM,07/01/2004 12:00:00 AM,06/30/2006 12:00:00 AM,77 Plains Road,Milford,CT,06460,05/18/2010 12:00:00 AM,POINT (-73.075329 41.222554),7,1044,28,84
930331,SEABURY,CORPORATION,SEABURY,SEABURY,ALSA.0AL0003,ALSA,AL0003,,Assisted Living Service Agency,ACTIVE,CURRENT,1,10/01/2007 12:00:00 AM,10/01/2019 12:00:00 AM,09/30/2021 12:00:00 AM,200 SEABURY DR,BLOOMFIELD,CT,060022650,12/17/2019 12:00:00 AM,POINT (-72.706488 41.833335),1,1041,224,11
930923,SHADY OAKS ASSISTED LIVING LLC,LIMITED LIABILITY COMPANY,SHADY OAKS ASSISTED LIVING LLC,SHADY OAKS ASSISTED LIVING LLC,ALSA.0AL0002,ALSA,AL0002,,Assisted Living Service Agency,ACTIVE,CURRENT,1,10/01/2009 12:00:00 AM,10/01/2019 12:00:00 AM,09/30/2021 12:00:00 AM,344 STEVENS ST,BRISTOL,CT,060102769,10/04/2019 12:00:00 AM,POINT (-72.915675 41.714199),4,1041,219,17
983602,OLSL GREENRIDGE PLACE LLC,BUSINESS,OLSL GREENRIDGE PLACE LLC,ATRIA GREENRIDGE PLACE,ALSA.0000153,ALSA,153,,Assisted Living Service Agency,INACTIVE,,0,,11/29/2012 12:00:00 AM,,One Elizabeth Court,Rocky Hill,CT,06067,11/29/2012 12:00:00 AM,,,,,
930482,CONTINUING CARE RETIREMENT COMMUNITY OF GREATER STAMFORD INC.,BUSINESS,CONTINUING CARE RETIREMENT COMMUNITY OF GREATER STAMFORD INC.,EDGEHILL HEALTH CENTER,ALSA.0000045,ALSA,45,,Assisted Living Service Agency,INACTIVE,LAPSED DUE TO NON-RENEWAL,0,07/01/2009 12:00:00 AM,11/14/2011 12:00:00 AM,06/30/2013 12:00:00 AM,122 Palmers Hill Road,STAMFORD,CT,06902,12/18/2018 12:00:00 AM,POINT (-73.565584 41.059385),9,1040,7,135
1362584,JEWISH SENIOR SERVICES,CORPORATION,JEWISH SENIOR SERVICES,JEWISH SENIOR SERVICES,ALSA.0000182,ALSA,182,,Assisted Living Service Agency,ACTIVE IN RENEWAL,CURRENT,1,06/23/2016 12:00:00 AM,04/01/2018 12:00:00 AM,03/31/2020 12:00:00 AM,4200 PARK AVENUE,BRIDGEPORT,CT,06604,01/27/2020 12:00:00 AM,POINT (-73.23149 41.212038),2,1040,172,15
994333,SPRING MEADOWS TRUMBULL,LIMITED LIABILITY COMPANY,SPRING MEADOWS TRUMBULL,SPRING MEADOWS TRUMBULL,ALSA.0000154,ALSA,154,,Assisted Living Service Agency,ACTIVE,CURRENT,1,04/20/2011 12:00:00 AM,04/01/2019 12:00:00 AM,03/31/2021 12:00:00 AM,6949 MAIN ST,TRUMBULL,CT,066116304,05/03/2019 12:00:00 AM,POINT (-73.240181 41.289161),2,1040,76,144
1525181,"ELLINGTON ASSISTED LIVING SERVICES, LLC",LIMITED LIABILITY COMPANY,"ELLINGTON ASSISTED LIVING SERVICES, LLC","ELLINGTON ASSISTED LIVING SERVICES, LLC",ALSA.0000199,ALSA,199,,Assisted Living Service Agency,ACTIVE,CURRENT,1,06/28/2018 12:00:00 AM,04/01/2020 12:00:00 AM,03/31/2022 12:00:00 AM,123 WEST RD,ELLINGTON,CT,060295729,04/27/2020 12:00:00 AM,POINT (-72.464188 41.884518),1,38,142,48
929061,PEREGRINE'S LANDING OF CLINTON CT LLC,BUSINESS,PEREGRINE'S LANDING OF CLINTON CT LLC,PEREGRINE'S LANDING ASSISTED LIVING,ALSA.0000126,ALSA,126,,Assisted Living Service Agency,CLOSED,CLOSED,0,06/23/2008 12:00:00 AM,06/03/2013 12:00:00 AM,03/31/2014 12:00:00 AM,91 East Main Street,Clinton,CT,06413,06/12/2013 12:00:00 AM,POINT (-72.520003 41.27723),3,1043,271,27
929156,VISITING NURSE ASSOCIATION OF RIDGEFIELD INC.,BUSINESS,VISITING NURSE ASSOCIATION OF RIDGEFIELD INC.,RIDGEFIELD VISITING NURSE ASSOCIATION,ALSA.0000146,ALSA,146,,Assisted Living Service Agency,INACTIVE,VOLUNTARILY AGREED NOT TO RENEW/REINSTATE,0,06/06/2009 12:00:00 AM,06/06/2009 12:00:00 AM,03/31/2011 12:00:00 AM,90 E RIDGE RD,RIDGEFIELD,CT,068774683,10/03/2011 12:00:00 AM,POINT (-73.494115 41.282391),9,1040,43,118
1662864,BRIGHTVIEW SHELTON,LIMITED LIABILITY COMPANY,BRIGHTVIEW SHELTON,BRIGHTVIEW SHELTON,ALSA.0000211,ALSA,211,,Assisted Living Service Agency,ACTIVE,CURRENT,1,05/28/2019 12:00:00 AM,05/21/2019 12:00:00 AM,03/31/2021 12:00:00 AM,30 BEARD SAWMILL ROAD,SHELTON,CT,06484,05/28/2019 12:00:00 AM,POINT (-73.115602 41.276975),4,1040,217,126
929881,OLSL HAMILTON HEIGHTS PLACE LLC,BUSINESS,OLSL HAMILTON HEIGHTS PLACE LLC,ATRIA HAMILTON HEIGHTS,ALSA.0000112,ALSA,112,,Assisted Living Service Agency,CLOSED,CLOSED,0,10/01/2009 12:00:00 AM,10/01/2009 12:00:00 AM,09/30/2011 12:00:00 AM,Fern Street at One Hamilton Heights Drive,West Hartford,CT,06119,07/24/2012 12:00:00 AM,POINT (-72.721722 41.770222),1,1041,251,155
929717,MASONIC HEALTHCARE CENTER,BUSINESS,MASONIC HEALTHCARE CENTER,"MASONIC GERIATRIC HEALTHCARE CENTER ""MGHC""",ALSA.0AL0031,ALSA,AL0031,,Assisted Living Service Agency,INACTIVE,,0,10/01/2000 12:00:00 AM,10/01/2000 12:00:00 AM,09/30/2002 12:00:00 AM,22 MASONIC AVENUE,WALLINGFORD,CT,06492,05/18/2010 12:00:00 AM,POINT (-72.836586 41.460698),7,1044,195,148
929115,BAL RIDGEFIELD LLC,LIMITED LIABILITY COMPANY,BAL RIDGEFIELD LLC,BAL RIDGEFIELD,ALSA.0000129,ALSA,129,,Assisted Living Service Agency,ACTIVE,CURRENT,1,12/01/2008 12:00:00 AM,10/01/2018 12:00:00 AM,09/30/2020 12:00:00 AM,640 DANBURY RD,RIDGEFIELD,CT,068772740,02/25/2019 12:00:00 AM,POINT (-73.474933 41.324173),9,1040,43,118
929695,ARDEN COURTS OF AVON CT LLC,LIMITED LIABILITY COMPANY,ARDEN COURTS OF AVON CT LLC,ARDEN COURTS OF AVON,ALSA.0000124,ALSA,124,,Assisted Living Service Agency,ACTIVE,CURRENT,1,10/01/2009 12:00:00 AM,10/01/2019 12:00:00 AM,09/30/2021 12:00:00 AM,100 FISHER DIRVE,AVON,CT,06001,10/16/2019 12:00:00 AM,,,,,
931909,MAPLEWOOD AT NEWTOWN,LIMITED LIABILITY COMPANY,MAPLEWOOD AT NEWTOWN,"MAPLEWOOD AT NEWTOWN ALSA, LLC",ALSA.0000152,ALSA,152,,Assisted Living Service Agency,ACTIVE IN RENEWAL,CURRENT,1,05/15/2010 12:00:00 AM,04/01/2018 12:00:00 AM,03/31/2020 12:00:00 AM,166 MOUNT PLEASANT RD,NEWTOWN,CT,064701456,02/13/2020 12:00:00 AM,POINT (-73.366622 41.415915),9,1040,153,97
929866,SHP II/CSL TRUMBULL LLC,BUSINESS,SHP II/CSL TRUMBULL LLC,SPRING MEADOWS TRUMBULL,ALSA.0000103,ALSA,103,,Assisted Living Service Agency,CLOSED,CLOSED,0,10/01/2008 12:00:00 AM,10/01/2008 12:00:00 AM,09/30/2010 12:00:00 AM,6949 Main Street,Trumbull,CT,06611,10/20/2011 12:00:00 AM,POINT (-73.240181 41.289161),2,1040,76,144
1615219,MAPLEWOOD AT STONY HILL,LIMITED LIABILITY COMPANY,MAPLEWOOD AT STONY HILL,MAPLEWOOD AT STONY HILL,ALSA.0000205,ALSA,205,,Assisted Living Service Agency,ACTIVE,CURRENT,1,11/16/2018 12:00:00 AM,11/16/2018 12:00:00 AM,09/30/2020 12:00:00 AM,46 STONY HILL RD,BETHEL,CT,068013034,11/16/2018 12:00:00 AM,POINT (-73.385072 41.415293),9,1040,77,9
1320361,THE LANDING OF FARMINGTON,LIMITED LIABILITY COMPANY,THE LANDING OF FARMINGTON,THE LANDING OF FARMINGTON,ALSA.0000176,ALSA,176,,Assisted Living Service Agency,INACTIVE,INACTIVE,0,11/10/2015 12:00:00 AM,10/28/2015 12:00:00 AM,09/30/2017 12:00:00 AM,111 SCOTT SWAMP RD,FARMINGTON,CT,060322805,05/05/2017 12:00:00 AM,POINT (-72.857734 41.704071),1,1041,254,52
930099,MCAULEY CENTER INC.,BUSINESS,MCAULEY CENTER INC.,"MCAULEY CENTER, INC.",ALSA.0AL0011,ALSA,AL0011,,Assisted Living Service Agency,INACTIVE,,0,04/01/2005 12:00:00 AM,04/01/2005 12:00:00 AM,03/31/2007 12:00:00 AM,275 STEELE ROAD,WEST HARTFORD,CT,06117,05/18/2010 12:00:00 AM,POINT (-72.724347 41.783653),1,1041,181,155
929133,BAL MILFORD LLC,LIMITED LIABILITY COMPANY,BAL MILFORD LLC,BAL MILFORD,ALSA.0000141,ALSA,141,,Assisted Living Service Agency,ACTIVE,CURRENT,1,12/02/2008 12:00:00 AM,10/01/2018 12:00:00 AM,09/30/2020 12:00:00 AM,77 PLAINS RD,MILFORD,CT,064612564,01/14/2019 12:00:00 AM,POINT (-73.075329 41.222554),7,1044,28,84
1168935,PEREGRINE'S LANDING AT THE SHORELINE,LIMITED LIABILITY COMPANY,PEREGRINE'S LANDING AT THE SHORELINE,PEREGRINE'S LANDING AT THE SHORELINE,ALSA.0000168,ALSA,168,,Assisted Living Service Agency,CLOSED,CLOSED,0,06/12/2013 12:00:00 AM,04/01/2015 12:00:00 AM,03/31/2017 12:00:00 AM,91 E MAIN ST,CLINTON,CT,064132139,08/04/2016 12:00:00 AM,POINT (-72.520003 41.27723),3,1043,271,27
928986,BENCHMARK ASSISTED LIVING LLC,BUSINESS,BENCHMARK ASSISTED LIVING LLC,"BENCHMARK ASSISTED LIVING, LLC",ALSA.0000094,ALSA,94,,Assisted Living Service Agency,INACTIVE,,0,10/06/2003 12:00:00 AM,10/06/2003 12:00:00 AM,09/30/2005 12:00:00 AM,3 John H. Stewart Drive,Newington,CT,06111,05/18/2010 12:00:00 AM,POINT (-72.714061 41.696009),1,1041,86,94
929682,MCLEAN AFFILATES INC.,CORPORATION,MCLEAN AFFILATES INC.,MCLEAN HEALTH CENTER,ALSA.0000119,ALSA,119,,Assisted Living Service Agency,ACTIVE,CURRENT,1,07/01/2009 12:00:00 AM,07/01/2019 12:00:00 AM,06/30/2021 12:00:00 AM,75 GREAT POND RD,SIMSBURY,CT,060701980,07/05/2019 12:00:00 AM,POINT (-72.824809 41.885251),1,1041,18,128
929941,BROOKDALE SOUTH WINDSOR,LIMITED LIABILITY COMPANY,BROOKDALE SOUTH WINDSOR,BROOKDALE SOUTH WINDSOR,ALSA.0000100,ALSA,100,,Assisted Living Service Agency,ACTIVE,CURRENT,1,07/01/2008 12:00:00 AM,07/01/2018 12:00:00 AM,06/30/2020 12:00:00 AM,1715 ELLINGTON RD,SOUTH WINDSOR,CT,060742707,07/20/2018 12:00:00 AM,POINT (-72.556214 41.826801),1,1041,89,132
