HouseOfWorship,StreetAddress,City,State,Postcode,EntryDate,PermitNumber,DateIssue,DateExpiry,PermitStatus,PermitType,Borough,Latitude,Longitude,Community Board,Council District,Census Tract,BIN,BBL,NTA,Location
/NYC_OD/OPEN_DATA/scripts/file_geocoder.sh: line 104: cd: /home/fmeserver: No such file or directory,,2020-05-03T07:00:03,,,,,,,,,,,,,,,,,,
Bronx Baptist Church,331 East 187TH Street,Bronx,NY,10458,05/02/2008,2019-5933,12/04/2019,12/31/2020,Active,Renew,2,40.859737,-73.895704,5,15,39902,2010996,2030220048,Bedford Park-Fordham North,POINT (-73.895704 40.859737)
Church of Saint Peter,3245 Kingsbridge Avenue,Bronx,NY,10463,05/23/2008,2019-5937,12/04/2019,12/31/2020,Active,Renew,2,40.882125,-73.904337,8,11,287,2083579,2057560235,Spuyten Duyvil-Kingsbridge,POINT (-73.904337 40.882125)
Congregation Yetev Lev D'Satmar,152-158 Rodney Street,Brooklyn,NY,11211,05/06/2008,2019-5944,12/04/2019,12/31/2020,Active,Renew,3,40.704722,-73.960431,1,33,535,3060123,3021930018,Williamsburg,POINT (-73.960431 40.704722)
Memorial Baptist Church,141 Bishop Preston R. Washington Sr. Pla,New York,NY,10026,07/18/2017,2019-5751,08/28/2019,08/31/2020,Active,Renew,,,,,,,,,,
St. Margaret Mary RC Church,9 -18  27th Avenue,Astoria,NY,11102,05/28/2008,2020-6064,02/03/2020,12/31/2020,Active,Renew,,,,,,,,,,
Church of St. Ann,101 Cromwell Avenue,Staten Island,NY,10304,02/17/2011,2020-6066,02/03/2020,02/28/2021,Active,Renew,5,40.591228,-74.098083,2,50,9602,5048632,5033010055,Old Town-Dongan Hills-South Beach,POINT (-74.098083 40.591228)
Iglesia Mision Cristiana Discipulos de Cristo de C,102-19 37th Avenue,Corona,NY,11368,01/05/2016,2020-6095,02/10/2020,01/31/2021,Active,Renew,4,40.753089,-73.865137,3,21,379,4000000,4017430027,North Corona,POINT (-73.865137 40.753089)
St. Ann's and St. Lucy Church,312 East 110th Street,New York,NY,10029,01/24/2013,2020-6104,02/20/2020,02/28/2021,Active,Renew,1,40.792946,-73.94001,11,8,180,1052848,1016810045,East Harlem North,POINT (-73.94001 40.792946)
New Tabernacle Baptist Church,992 East 181st Street,Bronx,NY,10460,09/05/2012,2019-5979,12/18/2019,11/30/2020,Active,Renew,2,40.844461,-73.879373,6,15,361,2013269,2031330022,East Tremont,POINT (-73.879373 40.844461)
John Hus Moravian Church,153 Ocean Avenue,Brooklyn,NY,11225,05/14/2008,2019-5951,12/04/2019,12/31/2020,Active,Renew,3,40.659277,-73.962606,9,40,79802,3114587,3050260020,Prospect Lefferts Gardens-Wingate,POINT (-73.962606 40.659277)
Saint Spyridon Greek Orthodox Church,124 Wadsworth Avenue,New York,NY,10033,10/26/2017,2019-5973,12/12/2019,01/31/2021,Active,Renew,1,40.848741,-73.935777,12,10,263,1081877,1021630041,Washington Heights South,POINT (-73.935777 40.848741)
Morning Star Full Gospel Assembly,464 East Tremont Avenue,Bronx,NY,10457,04/23/2010,2019-5980,12/18/2019,12/31/2020,Active,Renew,2,40.847084,-73.898377,6,15,395,2009536,2029090024,Claremont-Bathgate,POINT (-73.898377 40.847084)
St. Barnabas Episcopal Church,417 Elton Street,Brooklyn,NY,11208,05/23/2008,2019-5958,12/04/2019,12/31/2020,Active,Renew,3,40.672937,-73.88318,5,37,1166,3089241,3040180033,East New York,POINT (-73.88318 40.672937)
Kehal Bnei Torah,1454 Ocean Parkway,BROOKLYN,NY,11230,11/12/2019,2019-5982,12/18/2019,12/31/2020,Active,Renew,3,40.613257,-73.968416,12,44,440,3173774,3065870033,Ocean Parkway South,POINT (-73.968416 40.613257)
Corpus Christi Church,529 West 121st Street,New York,NY,10027,05/06/2008,2019-5946,12/04/2019,12/31/2020,Active,Renew,1,40.810419,-73.959678,9,7,203,1059650,1019760009,Morningside Heights,POINT (-73.959678 40.810419)
"Sea Of Galilee Pentecostal Temple, Inc.",166 Eldridge Street,New York,NY,10002,12/09/2014,2019-5956,12/04/2019,12/31/2020,Active,Renew,1,40.720066,-73.990978,3,1,18,1005480,1004150007,Chinatown,POINT (-73.990978 40.720066)
Congregation Khal Keser Yisroel Mordechai,2016 Avenue L,Brooklyn,NY,11210,10/07/2013,2019-5941,12/04/2019,12/31/2020,Active,Renew,3,40.620971,-73.955218,14,48,760,3209164,3076380046,Midwood,POINT (-73.955218 40.620971)
Bryant Memorial Zion Baptist Church,411 West 154th Street,New York,NY,10032,12/14/2015,2019-5967,12/09/2019,12/31/2020,Active,Renew,1,40.83033,-73.942061,9,7,23501,1061691,1020680061,Hamilton Heights,POINT (-73.942061 40.83033)
Chinese Evangel Mission Church,97 Madison Street,New York,NY,10002,06/17/2011,2019-5974,12/13/2019,08/31/2020,Active,Replace,1,40.712214,-73.995506,3,1,8,1003334,1002770012,Chinatown,POINT (-73.995506 40.712214)
St. Lukes's Episcopal Church,777 East 222nd Street,Bronx,NY,10467,12/19/2019,2019-5986,12/19/2019,12/31/2020,Active,New,2,40.885043,-73.859564,12,12,396,2087706,2048360007,Williamsbridge-Olinville,POINT (-73.859564 40.885043)
Beulah Baptist Church,125 West 130th Street,New York,NY,10027,05/01/2008,2019-5977,12/13/2019,12/31/2020,Active,Renew,1,40.81134,-73.94409,10,9,226,1058033,1019150018,Central Harlem North-Polo Grounds,POINT (-73.94409 40.81134)
Latin American Pentl Cog Inc Arch Of Refuge,213 Manhattan Avenue 2nd Fl.,New York,NY,10025,05/15/2008,2019-5966,12/09/2019,12/31/2020,Active,Renew,,,,,,,,,,
Rugby Deliverance Tabernacle,4901 Snyder Avenue,Brooklyn,NY,11203,05/28/2008,2019-5984,12/19/2019,12/31/2020,Active,Renew,3,40.650065,-73.93106,17,45,860,3102843,3046970039,East Flatbush-Farragut,POINT (-73.93106 40.650065)
Tian Fu United Methodist Church,4616 4th Ave,Brooklyn,NY,11220,11/25/2017,2019-5960,12/04/2019,12/31/2020,Active,Renew,3,40.648565,-74.010407,7,38,80,3011823,3007550045,Sunset Park West,POINT (-74.010407 40.648565)
Charity Baptist Church Of Christ Inc,1701 Townsend Avenue,Bronx,NY,10453,04/23/2010,2019-5983,12/19/2019,12/31/2020,Active,Renew,2,40.846381,-73.912156,5,14,22701,2008187,2028490040,Mount Hope,POINT (-73.912156 40.846381)
St. Mark AME Church,95 -18 Northern Blvd.,Jackson Heights,NY,11372,07/01/2011,2019-5666,07/09/2019,07/31/2020,Active,Renew,,,,,,,,,,
Manhattan Sephardic Congregation,325 East 75th Street,New York,NY,10021,02/09/2018,2020-6112,02/27/2020,02/28/2021,Active,Renew,1,40.770441,-73.956175,8,5,134,1045143,1014500015,Lenox Hill-Roosevelt Island,POINT (-73.956175 40.770441)
East End Temple,245 East 17th Street,New York,NY,10003,12/09/2014,2019-5975,12/13/2019,12/31/2020,Active,Renew,1,40.734525,-73.984149,6,2,48,1019566,1008980025,Gramercy,POINT (-73.984149 40.734525)
Christ & Saint Stephen's Church,122 West 69th Street,New York,NY,10023,11/03/2011,2019-5936,12/04/2019,12/31/2020,Active,Renew,1,40.77578,-73.980929,7,6,153,1028947,1011400041,Lincoln Square,POINT (-73.980929 40.77578)
Las Maravillas Del Exodo,302 Elton Street,Brooklyn,NY,11208,07/13/2016,2019-5968,12/11/2019,11/30/2020,Active,Renew,3,40.675836,-73.883943,5,37,1166,3088647,3039850020,East New York,POINT (-73.883943 40.675836)
Fellowship Baptist Church,1011 Faile Street,Bronx,NY,10459,10/26/2017,2019-5948,12/04/2019,12/31/2020,Active,Renew,2,40.823688,-73.889539,2,17,119,2006135,2027490056,Hunts Point,POINT (-73.889539 40.823688)
Rising Star Baptist Church,109-25 164th Street,Jamaica,NY,11433,12/04/2015,2019-5955,12/04/2019,12/31/2020,Active,Renew,4,40.694819,-73.788887,12,27,258,4216719,4101820018,South Jamaica,POINT (-73.788887 40.694819)
Congregation Erste Lutowiska Machzik Hadas,262 Delancey Street,New York,NY,10002,10/26/2017,2019-5940,12/04/2019,12/31/2020,Active,Renew,1,40.716288,-73.981065,3,2,2201,1004069,1003330010,Lower East Side,POINT (-73.981065 40.716288)
St. Eleftherios Greek Orthodox Church,359 W 24th Street,New York,NY,10011,12/12/2019,2019-5972,12/12/2019,12/31/2020,Active,New,1,40.74683,-74.000426,4,3,93,1013457,1007480005,Hudson Yards-Chelsea-Flatiron-Union Square,POINT (-74.000426 40.74683)
Corona Seventh Day Adventist Church,35-30 103rd Street,Corona,NY,11368,11/20/2015,2019-5965,12/06/2019,12/31/2020,Active,Renew,4,40.754481,-73.86503,3,21,379,4043320,4017430020,North Corona,POINT (-73.86503 40.754481)
Church of the Open Doors Inc,1374 Bedford Avenue,Brooklyn,NY,11216,05/02/2008,2019-5938,12/04/2019,12/31/2020,Active,Renew,3,40.676124,-73.953126,8,35,221,3030595,3012170043,Crown Heights North,POINT (-73.953126 40.676124)
Universal Temple Church Of God  Inc,1403 Eastern Parkway,Brooklyn,NY,11233,09/27/2013,2019-5987,12/19/2019,10/31/2020,Active,Renew,3,40.668863,-73.921481,16,41,361,3039550,3014750015,Ocean Hill,POINT (-73.921481 40.668863)
Brooklyn Chinese Baptist Church,5123 7th  Avenue,Brooklyn,NY,11220,04/23/2010,2019-5934,12/04/2019,12/31/2020,Active,Renew,3,40.641708,-74.006666,7,38,108,3013726,3008020001,Sunset Park East,POINT (-74.006666 40.641708)
Lincoln Square Synagogue,180 Amsterdam Avenue,New York,NY,10023,05/15/2008,2019-5931,12/03/2019,11/30/2020,Active,Renew,1,40.776146,-73.983438,7,6,155,1087453,1011580018,Lincoln Square,POINT (-73.983438 40.776146)
Little Mt. Zion Baptist Church Inc,324 Tompkins Avenue,Brooklyn,NY,11216,05/15/2008,2019-5952,12/04/2019,12/31/2020,Active,Renew,3,40.686622,-73.944576,3,36,265,3051173,3018140034,Bedford,POINT (-73.944576 40.686622)
Church of the Pilgrim Holiness,24 Arlington Place,Brooklyn,NY,11216,05/02/2008,2019-5939,12/04/2019,12/31/2020,Active,Renew,3,40.68105,-73.951215,3,36,245,3052973,3018420043,Bedford,POINT (-73.951215 40.68105)
Tomchei Torah of New York,1966 Ocean Ave,Brooklyn,NY,11230,10/14/2015,2019-5932,12/03/2019,11/30/2020,Active,Renew,3,40.61423,-73.954232,14,48,546,3181618,3067570045,Midwood,POINT (-73.954232 40.61423)
Greater Calvary Baptist Church,43-55 West 124th Street,New York,NY,10027,09/24/2012,2019-5949,12/04/2019,12/31/2020,Active,Renew,1,40.806515,-73.944574,10,9,200,1053454,1017220013,Central Harlem South,POINT (-73.944574 40.806515)
Yeshivat Mikdash Melech,1326 Ocean Parkway,Brooklyn,NY,11230,02/14/2014,2019-5962,12/05/2019,12/31/2020,Active,Renew,3,40.616203,-73.968969,12,44,444,3172885,3065680021,Ocean Parkway South,POINT (-73.968969 40.616203)
Pentecostal Church Christ Followers,3291 3rd Avenue,Bronx,NY,10454,05/21/2008,2019-5954,12/04/2019,12/31/2020,Active,Renew,2,40.825507,-73.908144,3,17,185,2001244,2023690040,Morrisania-Melrose,POINT (-73.908144 40.825507)
Leviticus Church of God In Christ Inc,114-12 Van Wyck Expressway,Jamaica,NY,11420,05/15/2008,2019-5985,12/19/2019,12/31/2020,Active,Renew,4,40.682387,-73.806024,10,28,174,4251940,4116610011,South Ozone Park,POINT (-73.806024 40.682387)
Eben-Ezer Haitian Baptist Church,1058-60 President Street,Brooklyn,NY,11225,11/18/2016,2019-5947,12/04/2019,12/31/2020,Active,Renew,3,40.66847,-73.956505,9,35,325,3033459,3012800036,Crown Heights South,POINT (-73.956505 40.66847)
Jesus Christ Family Church,915 Gates Avenue,Brooklyn,NY,11221,05/02/2008,2019-5950,12/04/2019,12/31/2020,Active,Renew,3,40.688697,-73.929102,3,36,387,3044566,3016320067,Stuyvesant Heights,POINT (-73.929102 40.688697)
Congregation Nachlas Yisroel,1530 51st St,Brooklyn,NY,11219,11/05/2015,2019-5943,12/04/2019,12/31/2020,Active,Renew,3,40.630756,-73.988082,12,44,236,3129602,3054650020,Borough Park,POINT (-73.988082 40.630756)
Chinese for Christ New York Church,142-21 Franklin Avenue,Flushing,NY,11355,04/29/2008,2019-5935,12/04/2019,12/31/2020,Active,Renew,4,40.756537,-73.823108,7,20,857,4441214,4051810056,Flushing,POINT (-73.823108 40.756537)
Congregation Givath Shoul,5102 11th Ave,Brooklyn,NY,11219,01/14/2020,2020-6106,02/21/2020,02/28/2021,Active,New,3,40.63648,-73.997791,12,44,220,3138281,3056530041,Borough Park,POINT (-73.997791 40.63648)
Hebrew Tabernacle Congregation,551 Fort Washington Ave.,Manhattan,NY,10033,12/06/2019,2019-5971,12/11/2019,12/31/2020,Active,Renew,1,40.853811,-73.937309,12,10,273,1064361,1021790229,Washington Heights North,POINT (-73.937309 40.853811)
Evangelical Church Mission And Seminary Internatio,"41-42 College Point Boulevard, Unit 2B",Flushing,NY,11354,09/19/2019,2019-5964,12/05/2019,12/31/2020,Active,New,4,40.755301,-73.833334,7,20,849,4607290,4050637501,Flushing,POINT (-73.833334 40.755301)
Congregation Mount Sinai,250 Cadman Plaza West,Brooklyn,NY,11201,08/19/2014,2019-5942,12/04/2019,12/31/2020,Active,Renew,3,40.696897,-73.991356,2,33,502,3319420,3002380035,Brooklyn Heights-Cobble Hill,POINT (-73.991356 40.696897)
East New York SDA Church,511 Elton Street,Brooklyn,NY,11208,11/07/2018,2019-5976,12/13/2019,11/30/2020,Active,Renew,3,40.670436,-73.882543,5,42,1164,3089787,3040500005,East New York,POINT (-73.882543 40.670436)
St. Peter's Episcopal Church,346 W. 20th St.,New York,NY,10011,11/24/2019,2019-5981,12/18/2019,12/31/2020,Active,New,1,40.74399,-74.001213,4,3,89,1013234,1007430072,Hudson Yards-Chelsea-Flatiron-Union Square,POINT (-74.001213 40.74399)
St. Frances de Chantal RC Church,1273 58th Street,Brooklyn,NY,11219,05/23/2008,2019-5959,12/04/2019,12/31/2020,Active,Renew,3,40.630438,-73.998091,12,44,216,3140390,3056970048,Borough Park,POINT (-73.998091 40.630438)
St. Thomas Protestant Episcopal Church,1405 Bushwick Avenue,Brooklyn,NY,11207,08/06/2014,2019-5969,12/11/2019,11/30/2020,Active,Renew,3,40.684665,-73.909632,4,37,403,3326473,3034390003,Bushwick South,POINT (-73.909632 40.684665)
Church of the Ascension,127 Kent Street,Brooklyn,NY,11222,05/02/2008,2019-5970,12/11/2019,12/31/2020,Active,Renew,3,40.730773,-73.955887,1,33,565,3064592,3025500062,Greenpoint,POINT (-73.955887 40.730773)
Lutheran Church of the Atonement,30 61 87th Street,Jackson Heights,NY,11369,05/15/2008,2019-5953,12/04/2019,12/31/2020,Active,Renew,4,40.760556,-73.881529,3,22,339,4033380,4013850040,Jackson Heights,POINT (-73.881529 40.760556)
Congregation Zemoch Zedek,241 East Broadway,New York,NY,10002,10/28/2014,2019-5945,12/04/2019,12/31/2020,Active,Renew,1,40.714362,-73.986458,3,1,201,1003729,1002860030,Lower East Side,POINT (-73.986458 40.714362)
Pure Land Center,128 Lafayette Street  # 303,New York,NY,10013,11/12/2010,2019-5963,12/05/2019,12/31/2020,Active,Renew,,,,,,,,,,
Greater Refuge Temple,2081 Adam Clayton Powell Jr. Blvd.,New York,NY,10027,12/17/2012,2020-6073,02/03/2020,02/28/2021,Active,Renew,1,40.808394,-73.948737,10,9,222,1057817,1019090001,Central Harlem South,POINT (-73.948737 40.808394)
Mariners' Temple Baptist Church,3 Henry Street,New York,NY,10038,01/30/2012,2020-6092,02/10/2020,02/28/2021,Active,Renew,1,40.712757,-73.997735,3,1,27,1003388,1002790069,Chinatown,POINT (-73.997735 40.712757)
La Pena de Horeb Inc. Iglesia Pentecostal Church,34 Morgan Avenue,Brooklyn,NY,11237,06/23/2014,2020-6093,02/10/2020,02/28/2021,Active,Renew,3,40.705065,-73.931526,1,34,453,3070687,3030080001,Bushwick North,POINT (-73.931526 40.705065)
Bethel Christian Temple Inc.,7 West 110th Street,New York,NY,10026,10/19/2012,2020-6084,02/04/2020,02/28/2021,Active,Renew,1,40.79732,-73.950248,10,9,186,1051398,1015940030,Central Harlem South,POINT (-73.950248 40.79732)
Korean Methodist Church Of Queens,95 - 01 32nd Avenue,East Elmhurst,NY,11369,05/15/2008,2020-6111,02/27/2020,02/28/2021,Active,Renew,4,40.758717,-73.873313,3,21,353,4034280,4014070040,East Elmhurst,POINT (-73.873313 40.758717)
Rabbinical Academy Mesivta Chaim Berlin,1585 Coney Island Avenue,Brooklyn,NY,11230,02/23/2017,2020-6079,02/03/2020,02/28/2021,Active,Renew,3,40.618888,-73.964048,14,44,768,3180580,3067310076,Midwood,POINT (-73.964048 40.618888)
Haitian Evangelical Missionary  Church,107 West 128th Street,New York,NY,10027,01/30/2012,2020-6070,02/03/2020,02/28/2021,Active,Renew,1,40.809941,-73.944651,10,9,224,1057943,1019130027,Central Harlem North-Polo Grounds,POINT (-73.944651 40.809941)
Chinese United Methodist Church,69 Madison Street,New York,NY,10002,04/29/2008,2020-6113,02/28/2020,01/31/2021,Active,Renew,1,40.712115,-73.996562,3,1,8,1079617,1002770056,Chinatown,POINT (-73.996562 40.712115)
Miracle Revival Temple,1555 Macombs Road,Bronx,NY,10452,01/24/2011,2020-6077,02/03/2020,02/28/2021,Active,Renew,2,40.844626,-73.917522,4,16,21302,2008720,2028720342,Highbridge,POINT (-73.917522 40.844626)
East 7th Baptist Ministry- Graffiti Inc,205 East 7th Street,New York,NY,10009,02/11/2010,2020-6061,02/03/2020,02/28/2021,Active,Renew,1,40.724547,-73.979937,3,2,2602,1087567,1003900052,Lower East Side,POINT (-73.979937 40.724547)
Refuge Church of Christ,254 Greene Ave,Brooklyn,NY,11238,02/01/2018,2020-6080,02/03/2020,02/28/2021,Active,Renew,3,40.687268,-73.960932,2,35,231,3056261,3019660026,Clinton Hill,POINT (-73.960932 40.687268)
Metropolitan African Methodist Episcopal Church,58 West 135th Street,New York,NY,10037,02/10/2012,2020-6076,02/03/2020,02/28/2021,Active,Renew,1,40.813707,-73.939933,10,9,212,1053896,1017300065,Central Harlem North-Polo Grounds,POINT (-73.939933 40.813707)
"Iglesia de Dios Mission Board, Inc.",195 East 7th Street,New York,NY,10009,08/22/2016,2020-6071,02/03/2020,02/28/2021,Active,Renew,1,40.724676,-73.980244,3,2,2602,1004727,1003900058,Lower East Side,POINT (-73.980244 40.724676)
The Seokwang Korean Presbyterian Church of New Yor,3705 54th Street,Woodside,NY,11377,08/31/2015,2020-6081,02/03/2020,02/28/2021,Active,Renew,4,40.750955,-73.907936,2,26,255,4027622,4012090001,Woodside,POINT (-73.907936 40.750955)
Congregation Shaari Tefilah of Kings Highway,1679 West 1 Street,Brooklyn,NY,11223,09/18/2014,2020-6100,02/14/2020,11/30/2020,Active,Renew,3,40.60708,-73.974693,11,44,424,3175854,3066310043,Bensonhurst East,POINT (-73.974693 40.60708)
Beth Chana,712 Bedford Avenue,Brooklyn,NY,11206,05/28/2013,2020-6065,02/03/2020,02/28/2021,Active,Renew,3,40.699547,-73.957145,1,33,537,3392365,3022620024,Williamsburg,POINT (-73.957145 40.699547)
St. Mary's Orthodox Church,8005 Ridge Boulevard,Brooklyn,NY,11209,05/28/2008,2020-6103,02/20/2020,01/31/2021,Active,Renew,3,40.62834,-74.031998,10,43,64,3151231,3059870008,Bay Ridge,POINT (-74.031998 40.62834)
"Bhavaannee Maa Mandir, Inc.",239 Mckinley Avenue,Brooklyn,NY,11208,04/23/2010,2020-6094,02/10/2020,02/28/2021,Active,Renew,3,40.680492,-73.867127,5,37,1186,3000000,3041740001,Cypress Hills-City Line,POINT (-73.867127 40.680492)
Congregation Kollel Bnei Yeshivas,2402 Ave P,Brooklyn,NY,11229,12/22/2011,2020-6110,02/27/2020,12/31/2020,Active,Replace,3,40.611381,-73.949627,15,48,548,3182688,3067870001,Madison,POINT (-73.949627 40.611381)
Church of Good Deeds,330 East 65th Street #1,New York,NY,10065,05/22/2017,2020-6109,02/25/2020,02/28/2021,Active,Renew,1,40.763995,-73.960753,8,5,118,1081496,1014397502,Lenox Hill-Roosevelt Island,POINT (-73.960753 40.763995)
Iglesia de Dios Pentecostal Puerta de Salvacion In,163 West 107 Street,New York,NY,10025,01/23/2019,2020-6074,02/03/2020,02/28/2021,Active,Renew,1,40.800633,-73.964054,7,7,193,1055989,1018620010,Morningside Heights,POINT (-73.964054 40.800633)
Hellenic Orth Community of Corona & Vicinity Trans,38-05 98th Street,Corona,NY,11368,12/26/2019,2020-6101,02/14/2020,02/28/2021,Active,Renew,4,40.750043,-73.86789,3,21,409,4044020,4017640001,North Corona,POINT (-73.86789 40.750043)
"True Vine Tabernacle of God, Inc.",193 Bradford Street,Brooklyn,NY,11207,11/04/2011,2020-6108,02/24/2020,02/28/2021,Active,Renew,3,40.674505,-73.892641,5,37,1152,3083725,3037080009,East New York,POINT (-73.892641 40.674505)
Congregation Talmud Torah Adereth El,133  East 29th Street,New York,NY,10016,05/06/2008,2020-6087,02/06/2020,02/28/2021,Active,Renew,1,40.743143,-73.9817,6,2,72,1018255,1008850031,Murray Hill-Kips Bay,POINT (-73.9817 40.743143)
Community Torah Centers Synagogue,646 West End Avenue,New York,NY,10025,02/17/2011,2020-6067,02/03/2020,02/28/2021,Active,Renew,1,40.792347,-73.975316,7,6,179,1033581,1012390004,Upper West Side,POINT (-73.975316 40.792347)
Russian Orthodox Cathedral,59-63 East 2nd Street,New York,NY,10003,05/28/2008,2020-6088,02/07/2020,02/28/2021,Active,Renew,1,40.724515,-73.989433,3,2,3602,1082819,1004430016,East Village,POINT (-73.989433 40.724515)
Community Baptist Church,46-19 206th Street,Bayside,NY,11361,10/17/2019,2020-6105,02/20/2020,02/28/2021,Active,Renew,4,40.755645,-73.775744,11,19,1447,4156758,4073080001,Bayside-Bayside Hills,POINT (-73.775744 40.755645)
Islamic Center of Jackson Heights Inc.,7804 31st avenue,Jackson Heights,NY,11370,11/14/2019,2020-6062,02/03/2020,02/28/2021,Active,New,4,40.758849,-73.889585,3,25,30903,4025707,4011490001,Jackson Heights,POINT (-73.889585 40.758849)
The Reform Temple of Forest HIlls,71-11 112th Street,Forest Hills,NY,11375,02/17/2011,2020-6090,02/10/2020,02/28/2021,Active,Renew,4,40.722669,-73.839152,6,29,75702,4052694,4022460031,Forest Hills,POINT (-73.839152 40.722669)
Union Temple of Brooklyn,17 Eastern Parkway,Brooklyn,NY,11238,04/30/2008,2020-6102,02/14/2020,05/31/2020,Active,Replace,3,40.673063,-73.968071,8,35,207,3259310,3011720006,Prospect Heights,POINT (-73.968071 40.673063)
Mount Lebanon Baptist Church,230 Decatur Street,Brooklyn,NY,11233,01/14/2016,2020-6078,02/03/2020,02/28/2021,Active,Renew,3,40.681376,-73.933948,3,36,297,3047407,3016800009,Crown Heights North,POINT (-73.933948 40.681376)
Yeshe Nyingpo Inc,19 West 16th Street,NewYork,NY,10011,05/30/2008,2020-6086,02/06/2020,02/28/2021,Active,Renew,1,40.737715,-73.993544,5,3,54,1015387,1008180024,Hudson Yards-Chelsea-Flatiron-Union Square,POINT (-73.993544 40.737715)
Evangelical Lutheran Emmaus Congregation,60-10 67th Avenue,Ridgewood,NY,11385,05/08/2008,2020-6069,02/03/2020,02/28/2021,Active,Renew,4,40.704773,-73.899982,5,30,585,4549124,4035120008,Ridgewood,POINT (-73.899982 40.704773)
Leverich Memorial Church of Corona,102-19 32nd Ave.,East Elmhurst,NY,11369,02/26/2019,2020-6096,02/11/2020,02/28/2021,Active,Renew,4,40.759418,-73.866655,3,21,365,4041778,4016890038,East Elmhurst,POINT (-73.866655 40.759418)
Evangelical Church of God in New York Inc.,806 Jennings Street,Bronx,NY,10459,04/18/2011,2020-6114,02/28/2020,02/28/2021,Active,Renew,2,40.832076,-73.895512,3,16,153,2010430,2029720032,Crotona Park East,POINT (-73.895512 40.832076)
Meor Hatorah,1069 38th Street,Brooklyn,NY,11219,11/22/2017,2020-6107,02/21/2020,02/28/2021,Active,Renew,3,40.644211,-73.990692,12,39,110,3341296,3052890059,Sunset Park East,POINT (-73.990692 40.644211)
"Iglesia Pentecostal De Jesucristo ""Cristo Viene"" I",2102 Mermaid Avenue,Brooklyn,NY,11224,07/10/2014,2020-6075,02/03/2020,02/28/2021,Active,Renew,3,40.576247,-73.988128,13,47,326,3189550,3070580012,Seagate-Coney Island,POINT (-73.988128 40.576247)
United Lubavitch Yeshivoth,841-853 Ocean Parkway,Brooklyn,NY,11230,04/30/2008,2020-6082,02/03/2020,02/28/2021,Active,Renew,3,40.628017,-73.971183,12,45,458,3170485,3065090064,Midwood,POINT (-73.971183 40.628017)
The Universal Church Inc.,612 West 180 St,New York,NY,10033,10/18/2017,2020-6085,02/05/2020,12/31/2020,Active,Renew,1,40.84882,-73.934718,12,10,263,1063897,1021620033,Washington Heights South,POINT (-73.934718 40.84882)
Brooklyn Heights Synagogue,131 Remsen Street,Brooklyn,NY,11201,01/08/2014,2020-6097,02/12/2020,02/28/2021,Active,Renew,3,40.693769,-73.993307,2,33,502,3002069,3002490006,Brooklyn Heights-Cobble Hill,POINT (-73.993307 40.693769)
Yeshivat Shaare Torah,1680 Coney Island Avenue,Brooklyn,NY,11230,05/30/2008,2020-6083,02/03/2020,02/28/2021,Active,Renew,3,40.616484,-73.963617,12,44,454,3173152,3065730025,Ocean Parkway South,POINT (-73.963617 40.616484)
Sephardic Congregation of Kew Gardens,141-41 72nd Avenue,Flushing,NY,11367,05/22/2008,2020-6098,02/13/2020,02/28/2021,Active,Renew,4,40.726465,-73.822604,8,24,77902,4143378,4066200041,Kew Gardens Hills,POINT (-73.822604 40.726465)
USA Pandit Parishad Inc.,197-07 Jamaica Avenue,Hollis,NY,11423,12/05/2017,2020-6099,02/14/2020,01/31/2021,Active,Renew,4,40.713396,-73.762626,12,23,484,4222519,4104660096,Hollis,POINT (-73.762626 40.713396)
Mt. Carmel Baptist Church,1376 Prospect Avenue,Bronx,NY,10459,05/23/2008,2020-6063,02/03/2020,11/30/2020,Active,Renew,2,40.83088,-73.896952,3,16,153,2010385,2029710008,Crotona Park East,POINT (-73.896952 40.83088)
Congregation Gvul Yaabetz,1580 Coney Island Avenue,Brooklyn,NY,11230,05/05/2008,2020-6068,02/03/2020,02/28/2021,Active,Renew,3,40.619009,-73.964091,12,44,454,3171998,3065460021,Ocean Parkway South,POINT (-73.964091 40.619009)
Ateret Torah Center,901 Quentin Road,Brooklyn,NY,11223,04/25/2008,2020-6115,03/02/2020,02/28/2021,Active,Renew,3,40.607654,-73.963755,15,44,420,3176271,3066410038,Homecrest,POINT (-73.963755 40.607654)
New Jerusalem Worship Center AKA New Jerusalem Bap,122-05 Smith Street,Jamaica,NY,11434,02/21/2017,2020-6091,02/10/2020,02/28/2021,Active,Renew,4,40.680008,-73.778612,12,27,284,4533226,4123810010,Baisley Park,POINT (-73.778612 40.680008)
Gospel Temple Church,1556 Minford Place,Bronx,NY,10460,03/09/2014,2020-6072,02/03/2020,02/28/2021,Active,Renew,2,40.835523,-73.889953,3,17,155,2124436,2029770142,Crotona Park East,POINT (-73.889953 40.835523)
City of Faith Church of God,3453 White Plains Road,Bronx,NY,10467,12/20/2016,2020-6005,01/03/2020,01/31/2021,Active,Renew,2,40.876244,-73.866999,12,12,374,2056964,2046280043,Williamsbridge-Olinville,POINT (-73.866999 40.876244)
Trinity Baptist Church,179 New York Avenue,Brooklyn,NY,11216,06/01/2012,2020-6052,01/28/2020,11/30/2020,Active,Renew,3,40.673923,-73.947323,8,36,341,3031284,3012350007,Crown Heights North,POINT (-73.947323 40.673923)
Pentecostal Church of Jesus Christ of Queens,128-05 Liberty Avenue,Richmond Hill,NY,11419,05/21/2008,2020-6014,01/03/2020,01/31/2021,Active,Renew,4,40.689045,-73.816956,10,28,15802,4203991,4095650037,South Ozone Park,POINT (-73.816956 40.689045)
Holy Ghost Pentecostal Faith Church,13-15 East 125th Street,New York,NY,10035,04/27/2010,2020-5990,01/02/2020,01/31/2021,Active,Renew,1,40.806184,-73.941692,11,9,198,1054027,1017500005,East Harlem North,POINT (-73.941692 40.806184)
Congregation K'Hall Machzeka Hadass,1636 49th Street,Brooklyn,NY,11204,05/05/2008,2020-6006,01/03/2020,01/31/2021,Active,Renew,3,40.630429,-73.984516,12,44,474,3129176,3054540024,Borough Park,POINT (-73.984516 40.630429)
Yeshivath Divrei Chaim,1214 43rd Street,Brooklyn,NY,11219,01/25/2010,2020-6043,01/17/2020,01/31/2021,Active,Renew,3,40.639378,-73.990279,12,39,224,3136137,3056040012,Borough Park,POINT (-73.990279 40.639378)
Our Lady Of Good Counsel Church,10 Austin Place,Staten Island,NY,10304,01/13/2017,2020-6042,01/17/2020,01/31/2021,Active,Renew,5,40.631913,-74.086708,1,49,33,5106887,5005800034,Grymes Hill-Clifton-Fox Hills,POINT (-74.086708 40.631913)
Shiv Shakti Peeth Inc,264-12 Hillside Ave.,Glen Oaks,NY,11004,10/10/2008,2020-5991,01/03/2020,12/31/2020,Active,Replace,4,40.738162,-73.704422,13,23,157903,4179985,4087940022,Glen Oaks-Floral Park-New Hyde Park,POINT (-73.704422 40.738162)
St. Columba's Catholic Church,343 West 25th Street,New York,NY,10001,04/23/2013,2020-6041,01/16/2020,05/31/2020,Active,Renew,1,40.747261,-73.999159,4,3,93,1068012,1007490015,Hudson Yards-Chelsea-Flatiron-Union Square,POINT (-73.999159 40.747261)
"Little Mt. Bethel Baptist Church, Inc.",1538 Longfellow Avenue,New York,NY,10460,06/14/2016,2020-6048,01/21/2020,08/31/2020,Active,Replace,2,40.833252,-73.885992,3,17,157,2010925,2030090008,Crotona Park East,POINT (-73.885992 40.833252)
Church of God Inc,3917 Church Avenue,Brooklyn,NY,11203,12/22/2014,2020-5998,01/03/2020,01/31/2021,Active,Renew,3,40.651251,-73.940714,17,41,814,3327748,3048760035,East Flatbush-Farragut,POINT (-73.940714 40.651251)
Refuge Church of God Inc.,595 Quincy St,Brooklyn,NY,11224,10/19/2011,2020-6040,01/16/2020,01/31/2021,Active,Renew,3,40.68875,-73.935178,3,36,291,3044290,3016250073,Stuyvesant Heights,POINT (-73.935178 40.68875)
Episcopal Church Of The Holy Spirit,8117 Bay Parkway,Brooklyn,NY,11214,05/07/2008,2020-6034,01/09/2020,01/31/2021,Active,Renew,3,40.604014,-73.991112,11,47,296,3163929,3063000001,Bensonhurst West,POINT (-73.991112 40.604014)
Second Canaan Baptist Church,12 Lenox Ave,New York,NY,10026,07/01/2011,2020-6028,01/09/2020,01/31/2021,Active,Renew,1,40.798696,-73.952104,10,9,186,1051406,1015940069,Central Harlem South,POINT (-73.952104 40.798696)
Islamic Center Of Brighton Beach,230 Neptune Avenue,Brooklyn,NY,11235,07/28/2014,2020-6053,01/28/2020,12/31/2020,Active,Replace,3,40.581567,-73.961749,13,48,364,3244501,3086670747,Brighton Beach,POINT (-73.961749 40.581567)
Grace Chinese Baptist Church,5224 6th Avenue,Brooklyn,NY,11220,11/14/2017,2020-5992,01/03/2020,11/30/2020,Active,Renew,3,40.642482,-74.009477,7,38,100,3013968,3008080041,Sunset Park East,POINT (-74.009477 40.642482)
"Sivananda Yoga Vedanta Center, Inc.",243 West 24th St,New York,NY,10011,11/17/2016,2020-6032,01/09/2020,01/31/2021,Active,Renew,1,40.745318,-73.996467,4,3,91,1014172,1007740014,Hudson Yards-Chelsea-Flatiron-Union Square,POINT (-73.996467 40.745318)
Unity East Church Center,1901 Beverly Road,Brooklyn,NY,11226,01/17/2014,2020-6023,01/03/2020,01/31/2021,Active,Renew,3,40.644751,-73.961036,14,40,51001,3117615,3051230047,Flatbush,POINT (-73.961036 40.644751)
Christ Church Riverdale,5030 Henry Hudson Pkwy East,Bronx,NY,10471,08/18/2015,2020-6030,01/09/2020,12/31/2020,Active,Renew,2,40.898219,-73.907483,8,11,335,2087590,2058334259,North Riverdale-Fieldston-Riverdale,POINT (-73.907483 40.898219)
Holy Ghost Christian Church,108 East 103rd Street,New York,NY,10029,01/09/2012,2020-6031,01/09/2020,01/31/2021,Active,Renew,1,40.790762,-73.948769,11,8,166,1088166,1016300070,East Harlem South,POINT (-73.948769 40.790762)
"Iglesia De Dios Pentecostal, Inc.",379 Atlantic Avenue,Brooklyn,NY,11217,12/29/2008,2020-6056,01/28/2020,01/31/2021,Active,Renew,3,40.68729,-73.985736,2,33,41,3000682,3001770043,DUMBO-Vinegar Hill-Downtown Brooklyn-Boerum Hill,POINT (-73.985736 40.68729)
Iglesia Evangelica MenonIta Eben-Ezer Inc.,1126 Sherman Ave,Bronx,NY,10456,09/04/2012,2020-6010,01/03/2020,01/31/2021,Active,Renew,2,40.831906,-73.916985,4,16,18101,2002647,2024520010,East Concourse-Concourse Village,POINT (-73.916985 40.831906)
Glory Of Christ Church,2137 Ellis Avenue,Bronx,NY,10462,05/09/2008,2020-6009,01/03/2020,01/31/2021,Active,Renew,2,40.832411,-73.853023,9,18,92,2026584,2038130066,Westchester-Unionport,POINT (-73.853023 40.832411)
Safe Haven United Church of Christ,601 Onderdonk Avenuie,Ridgewood,NY,11385,12/24/2019,2020-6025,01/07/2020,01/31/2021,Active,New,,,,,,,,,,
"Mt. Zion Congregation Church, Inc.,",984 Bedford Avenue,Brooklyn,NY,11205,05/23/2008,2020-6013,01/03/2020,01/31/2021,Active,Renew,3,40.691441,-73.955527,3,33,235,3055259,3019280066,Clinton Hill,POINT (-73.955527 40.691441)
Universal Church Of God Inc,109-34 Guy R Brewer Blvd,Jamaica,NY,11433,04/30/2008,2020-5995,01/03/2020,01/31/2021,Active,Renew,4,40.694356,-73.789642,12,28,260,4263377,4121520053,South Jamaica,POINT (-73.789642 40.694356)
"Little Flock of Jesus Christ, Inc",1513 Nostrand Avenue,Brooklyn,NY,11226,01/03/2011,2020-6045,01/21/2020,01/31/2021,Active,Renew,3,40.649317,-73.949404,17,40,824,3109262,3048840043,Erasmus,POINT (-73.949404 40.649317)
Pentecostal Church Of The Garden Of Eden,870 Fairmount Place,Bronx,NY,10460,01/26/2017,2020-5996,01/03/2020,01/31/2021,Active,Renew,2,40.841614,-73.886849,6,17,36502,2010148,2029590043,East Tremont,POINT (-73.886849 40.841614)
Church of Our Saviour,59 Park Avenue,New York,NY,10016,11/02/2017,2020-5993,01/03/2020,12/31/2020,Active,Renew,1,40.749346,-73.979681,6,4,80,1019119,1008930092,Murray Hill-Kips Bay,POINT (-73.979681 40.749346)
Rabbi Israel Meyer Hacohen Rabbinical Seminary Of,76.01 147th Street,Flushing,NY,11367,01/26/2017,2020-6038,01/16/2020,01/31/2021,Active,Renew,,,,,,,,,,
Rego Park Jewish Center,97-30 Queens Blvd.,Rego Park,NY,11374,02/08/2016,2020-6015,01/03/2020,01/31/2021,Active,Renew,4,40.728991,-73.859284,6,29,69701,4072142,4030840014,Rego Park,POINT (-73.859284 40.728991)
Theotokos Unexpected Joy Church At St. Markella Ca,2268 26th Street,Astoria,NY,11105,12/10/2015,2020-6022,01/03/2020,01/31/2021,Active,Renew,4,40.776901,-73.915468,1,22,101,4432126,4008660059,Steinway,POINT (-73.915468 40.776901)
St. Catherine of Genoa Church,506 West 153rd Street,New York,NY,10031,05/23/2008,2020-6020,01/03/2020,01/31/2021,Active,Renew,1,40.830485,-73.944457,9,7,237,1062236,1020840039,Hamilton Heights,POINT (-73.944457 40.830485)
Eternal Love Baptist Church,54-07 99th Street,Corona,NY,11368,03/23/2011,2020-6007,01/03/2020,01/31/2021,Active,Renew,4,40.739448,-73.860618,4,21,44301,4047218,4019090032,Corona,POINT (-73.860618 40.739448)
Congregation Ohab Zedek,118 West 95th Street,New York,NY,10025,05/05/2008,2020-6044,01/17/2020,08/31/2020,Active,Renew,1,40.792512,-73.968815,7,6,181,1032564,1012250041,Upper West Side,POINT (-73.968815 40.792512)
Samadhi Chan Monastery Happy Buddhist Association,88-17 Justice Ave,Elmhurst,NY,11373,12/13/2015,2020-6016,01/03/2020,01/31/2021,Active,Renew,4,40.736871,-73.874985,4,25,473,4045394,4018400047,Elmhurst,POINT (-73.874985 40.736871)
Faith Assembly,120-13 101st Avenue,Richmond Hill,NY,11419,05/07/2008,2020-6059,01/30/2020,01/31/2021,Active,Renew,4,40.690325,-73.824719,9,28,154,4199736,4094600028,Richmond Hill,POINT (-73.824719 40.690325)
Convent Avenue Baptist Church,420 West 145th Street,New York,NY,10031,10/18/2010,2020-5989,01/02/2020,07/31/2020,Active,Renew,1,40.824436,-73.945733,9,7,227,1060948,1020500042,Hamilton Heights,POINT (-73.945733 40.824436)
Yeshiva Zichron Meilech,510 Dahill Road,Brooklyn,NY,11218,05/30/2008,2020-6026,01/07/2020,01/31/2021,Active,Renew,3,40.635064,-73.979052,12,39,478,3328435,3053820024,Borough Park,POINT (-73.979052 40.635064)
Bethenia Baptist Church,720 Hancock Street,Brooklyn,NY,11233,05/01/2008,2020-6004,01/03/2020,01/31/2021,Active,Renew,3,40.68522,-73.926596,3,36,383,3330960,3016620044,Stuyvesant Heights,POINT (-73.926596 40.68522)
First Jerusalem Baptist Church,1098 Fulton Street,Brooklyn,NY,11238,05/08/2008,2020-6027,01/07/2020,01/31/2021,Active,Renew,3,40.681368,-73.956832,3,36,227,3057710,3020160027,Clinton Hill,POINT (-73.956832 40.681368)
YTTL LUBAVITCHER YESHIVA,570 CROWN STREET,BROOKLYN,NY,11213,12/26/2019,2020-6049,01/22/2020,01/31/2021,Active,New,3,40.665652,-73.939237,9,35,333,3393264,3014170007,Crown Heights South,POINT (-73.939237 40.665652)
John Wesley United Methodist Church,260 Quincy Street,Brooklyn,NY,11216,05/14/2008,2020-6057,01/30/2020,11/30/2020,Active,Renew,3,40.686861,-73.951431,3,36,243,3050841,3018070048,Bedford,POINT (-73.951431 40.686861)
Evangelical Lutheran Church Of Our Saviour,90-04 175th Street,Jamaica,NY,11432,05/08/2008,2020-6036,01/13/2020,01/31/2021,Active,Renew,4,40.709765,-73.786654,12,27,462,4209889,4098100001,Jamaica,POINT (-73.786654 40.709765)
Faith Apostolic Tabernacle United Pentecostal Chur,5011 Avenue M,Brooklyn,NY,11234,01/20/2015,2020-6060,01/30/2020,01/31/2021,Active,Renew,3,40.621379,-73.926911,18,46,680,3218581,3078480005,Flatlands,POINT (-73.926911 40.621379)
First Union Baptist Church,2064 Grand Concourse,Bronx,NY,10457,01/22/2010,2020-6055,01/28/2020,01/31/2021,Active,Renew,2,40.852961,-73.903157,5,15,23502,2013630,2031560007,Mount Hope,POINT (-73.903157 40.852961)
Congregation Beth El Of Flatbush,2181 East 3rd Street,Brooklyn,NY,11223,06/28/2013,2020-6039,01/16/2020,01/31/2021,Active,New,3,40.596764,-73.968557,15,47,396,3192914,3071300171,Homecrest,POINT (-73.968557 40.596764)
"Jehovah Jireh House of Prayer, Inc.",143 -06 107th Avenue,Jamaica,NY,11435,01/18/2019,2020-5994,01/03/2020,01/31/2021,Active,Renew,,,,,,,,,,
Fountain Christian Center Inc,11 Marcus Garvey,Brooklyn,NY,11206,05/08/2008,2020-6008,01/03/2020,01/31/2021,Active,Renew,,,,,,,,,,
Shaw African Methodist Episcopal Zion Church,100-05 34th Avenue,Corona,NY,11368,12/31/2012,2020-6017,01/03/2020,01/31/2021,Active,Renew,4,40.755532,-73.86797,3,21,377,4042528,4017150045,North Corona,POINT (-73.86797 40.755532)
Bosansko Hercegovacki Islamic Center of NY,37-46 Crescent Street,Long Island Cit,NY,11101,11/17/2016,2020-6001,01/03/2020,01/31/2021,Active,Renew,4,40.756397,-73.935199,1,26,33,4004447,4003670042,Queensbridge-Ravenswood-Long Island City,POINT (-73.935199 40.756397)
Marble Collegiate Church,1 West 29th Street,New York,NY,10001,05/20/2008,2020-6037,01/13/2020,12/31/2020,Active,Renew,1,40.745419,-73.987102,5,4,76,1015764,1008310033,Midtown-Midtown South,POINT (-73.987102 40.745419)
Mesivta Yeshiva Chaim Berlin,1585 Coney Island Avenue,Brooklyn,NY,11230,10/07/2013,2020-6029,01/09/2020,12/31/2020,Active,Renew,3,40.618888,-73.964048,14,44,768,3180580,3067310076,Midwood,POINT (-73.964048 40.618888)
Bethel Assembly Of God,77 Eldridge Street,New York,NY,10002,04/30/2008,2020-6002,01/03/2020,01/31/2021,Active,Renew,1,40.716989,-73.992572,3,1,16,1003966,1003060030,Chinatown,POINT (-73.992572 40.716989)
St. Charles Borromeo Church,1 Aitken Place,Brooklyn,NY,11201,05/23/2008,2020-6051,01/24/2020,01/31/2021,Active,Renew,3,40.692402,-73.994306,2,33,7,3002531,3002640001,Brooklyn Heights-Cobble Hill,POINT (-73.994306 40.692402)
Staten Island Chinese Christian Church,159 Schmidts Lane,Staten Island,NY,10314,05/29/2008,2020-6021,01/03/2020,01/31/2021,Active,Renew,5,40.609174,-74.11821,2,49,177,5017908,5007070161,Todt Hill-Emerson Hill-Heartland Village-Lighthouse Hill,POINT (-74.11821 40.609174)
Bethany Christian Church,133 East 103 Street,New York,NY,10029,04/29/2008,2020-6033,01/09/2020,01/31/2021,Active,Renew,1,40.790551,-73.948224,11,8,166,1051908,1016310011,East Harlem South,POINT (-73.948224 40.790551)
Greenpoint Reformed Church,138 Milton Street,Brooklyn,NY,11222,01/22/2010,2020-6024,01/06/2020,02/28/2021,Active,Renew,3,40.729382,-73.955163,1,33,565,3064901,3025660032,Greenpoint,POINT (-73.955163 40.729382)
Assafa Islamic Center Inc .,172 Eldridge Street,New York,NY,10002,10/02/2016,2020-6003,01/03/2020,01/31/2021,Active,Renew,1,40.720211,-73.990902,3,1,18,1089458,1004150010,Chinatown,POINT (-73.990902 40.720211)
Faithful and True International Ministries Inc.,113-53 Springfield Boulevard,Queens Village,NY,11429,12/10/2014,2020-5997,01/03/2020,12/31/2020,Active,Renew,4,40.702554,-73.740812,13,27,590,4532740,4112330010,Cambria Heights,POINT (-73.740812 40.702554)
Gita Temple Ashram Inc.,92-09 Corona Ave,Elmhurst,NY,11373,06/29/2012,2020-6046,01/21/2020,06/30/2020,Active,Replace,4,40.742453,-73.872174,4,25,463,4039968,4016000099,Elmhurst,POINT (-73.872174 40.742453)
Kings Church of Christ,1371 Rogers Ave.,Brooklyn,NY,11210,08/13/2018,2020-6050,01/22/2020,11/30/2020,Active,Renew,3,40.636689,-73.950966,14,45,788,3120928,3052290007,Flatbush,POINT (-73.950966 40.636689)
Trinity Tabernacle of Gravesend,121 Gravesend Neck Road,Brooklyn,NY,11223,02/23/2009,2020-6058,01/30/2020,01/31/2021,Active,Renew,3,40.595049,-73.971003,15,47,396,3342631,3071270028,Homecrest,POINT (-73.971003 40.595049)
Sephardic Institute Synagogue,511 Avenue R,Brooklyn,NY,11223,01/22/2010,2020-5999,01/03/2020,01/31/2021,Active,Renew,3,40.604671,-73.967923,15,44,41402,3253638,3066810394,Homecrest,POINT (-73.967923 40.604671)
Church of The Blessed Sacrament,30 Manor Road,Staten Island,NY,10310,10/22/2009,2020-6047,01/21/2020,01/31/2021,Active,Renew,5,40.627557,-74.125239,1,49,141,5106713,5002340001,West New Brighton-New Brighton-St. George,POINT (-74.125239 40.627557)
Evangelical Lutheran Church Of The Advent,2504 Broadway,New York,NY,10025,05/08/2008,2020-6054,01/28/2020,01/31/2021,Active,Renew,1,40.792909,-73.97304,7,6,179,1033646,1012410020,Upper West Side,POINT (-73.97304 40.792909)
Chinese Conservative Baptist Church,103 Madison Street,New York,NY,10002,04/29/2008,2020-6000,01/03/2020,01/31/2021,Active,Renew,1,40.712233,-73.995278,3,1,8,1003335,1002770015,Chinatown,POINT (-73.995278 40.712233)
"Maha Lakshmi Mandir Inc.,",121-15 101st Ave,Richmond Hill,NY,11419,05/19/2008,2020-6011,01/03/2020,01/31/2021,Active,Renew,4,40.690598,-73.823752,9,28,154,4199764,4094610027,Richmond Hill,POINT (-73.823752 40.690598)
Most Precious Blood RC Church,32-23 36th Street,Long Island Cit,NY,11106,01/22/2010,2020-6012,01/03/2020,01/31/2021,Active,Renew,4,40.759718,-73.921691,1,22,59,4009738,4006470028,Astoria,POINT (-73.921691 40.759718)
Temple Sholom of Flatbush,2075 East 68th Street,Brooklyn,NY,11234,10/13/2014,2020-6144,03/04/2020,03/31/2021,Active,Renew,3,40.618864,-73.910226,18,46,69602,3237201,3084090001,Georgetown-Marine Park-Bergen Beach-Mill Basin,POINT (-73.910226 40.618864)
Chinese Missionary Baptist Church of New York Inc.,136 Henry Street,New York,NY,10002,12/20/2011,2020-6120,03/04/2020,03/31/2021,Active,Renew,1,40.713319,-73.990784,3,1,6,1003262,1002730031,Lower East Side,POINT (-73.990784 40.713319)
Concilio Estrellade Jacob Iglesia Cristiana Inc.,53 East 184th Street,Bronx,NY,10468,02/25/2014,2020-6122,03/04/2020,03/31/2021,Active,Renew,2,40.860167,-73.901318,5,14,239,2014017,2031840001,Fordham South,POINT (-73.901318 40.860167)
Iglesia Alianza Oasis Cristiana Y Misionera,141 Audubon Avenue,New York,NY,10032,05/18/2009,2020-6151,03/05/2020,02/28/2021,Active,Renew,1,40.842793,-73.936665,12,10,253,1063073,1021280035,Washington Heights South,POINT (-73.936665 40.842793)
Congregation Khal Chasidim Of Brooklyn,4820 15th Avenue,Brooklyn,NY,11219,10/30/2015,2020-6157,03/09/2020,12/31/2020,Active,Renew,3,40.632768,-73.987311,12,44,234,3137509,3056360042,Borough Park,POINT (-73.987311 40.632768)
Diocese of the Armenian Church,630 Second Avenue,New York,NY,10016,10/29/2018,2020-6154,03/06/2020,02/28/2021,Active,Renew,1,40.745082,-73.975647,6,2,78,1081682,1009400001,Murray Hill-Kips Bay,POINT (-73.975647 40.745082)
Xi Fang Temple,5101 8th Ave,Brooklyn,NY,11220,03/13/2012,2020-6146,03/04/2020,03/31/2021,Active,Renew,3,40.640468,-74.004374,12,38,108,3138136,3056510010,Sunset Park East,POINT (-74.004374 40.640468)
Grace United Methodist Church,33 7th Avenue,Brooklyn,NY,11217,05/13/2008,2020-6128,03/04/2020,03/31/2021,Active,Renew,3,40.676606,-73.973992,6,39,159,3024356,3010580001,Park Slope-Gowanus,POINT (-73.973992 40.676606)
The United Methodist Church of Richmond Hill,112-14 107th Avenue,South Richmond,NY,11419,03/01/2017,2020-6160,03/11/2020,03/31/2021,Active,Renew,4,40.682778,-73.828882,10,28,100,4203386,4095500001,South Ozone Park,POINT (-73.828882 40.682778)
First Baptist Church of Flushing,142-10 Sanford Avenue,Flushing,NY,11355,05/07/2008,2020-6124,03/04/2020,03/31/2021,Active,Renew,4,40.757761,-73.824737,7,20,857,4438161,4051810017,Flushing,POINT (-73.824737 40.757761)
Knesseth Bais Yaakov,1720 Avenue J,Brooklyn,NY,11230,05/15/2008,2020-6130,03/04/2020,03/31/2021,Active,Renew,3,40.625411,-73.959217,14,44,532,3180104,3067190037,Midwood,POINT (-73.959217 40.625411)
Fenimore Street United Methodist Church,276 Fenimore Street,Brooklyn,NY,11225,10/25/2011,2020-6126,03/04/2020,03/31/2021,Active,Renew,3,40.658475,-73.953808,9,40,802,3115569,3050430048,Prospect Lefferts Gardens-Wingate,POINT (-73.953808 40.658475)
Pentecostal Evangelist Church Inc,415 53rd Street,Brooklyn,NY,11220,03/08/2018,2020-6137,03/04/2020,03/31/2021,Active,Renew,3,40.644428,-74.013708,7,38,76,3013935,3008070074,Sunset Park West,POINT (-74.013708 40.644428)
Astoria Center of Israel,27-35 Crescent Street,Astoria,NY,11102,04/22/2010,2020-6118,03/04/2020,03/31/2021,Active,Renew,4,40.770207,-73.923798,1,22,71,4006862,4005740042,Old Astoria,POINT (-73.923798 40.770207)
Steinway Reformed Church,41-01 Ditmars Ave,Astoria,NY,11105,12/15/2014,2020-6159,03/11/2020,03/31/2021,Active,Renew,,,,,,,,,,
Congregation Bet Shmuel,1914 East 8th Street,Brooklyn,NY,11223,10/21/2014,2020-6123,03/04/2020,03/31/2021,Active,Renew,3,40.60215,-73.963808,15,47,416,3190519,3070890014,Homecrest,POINT (-73.963808 40.60215)
Anglican Church Of The Pentecost International,1240-50 Edward L. Grant Highway,Bronx,NY,10452,12/15/2011,2020-6147,03/05/2020,12/31/2020,Active,Renew,2,40.836799,-73.922305,4,16,219,2008638,2028710002,Highbridge,POINT (-73.922305 40.836799)
Rehoboth Open Bible Church,5102 Avenue D,Brooklyn,NY,11203,05/27/2008,2020-6139,03/04/2020,03/31/2021,Active,Renew,3,40.642197,-73.928193,17,45,846,3222020,3079270040,Rugby-Remsen Village,POINT (-73.928193 40.642197)
Greater Emmanuel Baptist Church,325 East 118th Street,New York,NY,10035,01/22/2010,2020-6158,03/09/2020,03/31/2021,Active,Renew,1,40.797994,-73.936057,11,8,188,1054709,1017950012,East Harlem North,POINT (-73.936057 40.797994)
Faith Bible Inc,99-14 43rd Ave.,Corona,NY,11368,05/07/2008,2020-6125,03/04/2020,03/31/2021,Active,Renew,4,40.7466,-73.864707,4,21,409,4314511,4016280031,North Corona,POINT (-73.864707 40.7466)
Central Synagogue,652 Lexington Avenue,New York,NY,10022,04/23/2010,2020-6165,03/13/2020,02/28/2021,Active,Replace,1,40.759485,-73.970195,5,4,100,1036488,1013090056,Turtle Bay-East Midtown,POINT (-73.970195 40.759485)
St. Athanasius Church,2154 61st Street,Brooklyn,NY,11204,01/10/2020,2020-6164,03/13/2020,01/31/2021,Active,Renew,3,40.616743,-73.980099,11,47,246,3132668,3055290033,Borough Park,POINT (-73.980099 40.616743)
Williamsburg Spanish Seventh-dayAdventist Church,319 Grand Street,Brooklyn,NY,11211,03/12/2019,2020-6145,03/04/2020,03/31/2021,Active,Renew,3,40.712645,-73.956476,1,34,519,3062707,3023840038,North Side-South Side,POINT (-73.956476 40.712645)
Woodycrest United Methodist Church,89 West 166th Street-POB 60,Bronx,NY,10452,03/21/2017,2020-6150,03/05/2020,08/31/2020,Active,Renew,,,,,,,,,,
Jubilant Pentecostal Holiness Church,295 Gates Avenue,Brooklyn,NY,11216,05/14/2008,2020-6152,03/06/2020,03/31/2021,Active,Renew,3,40.685658,-73.955538,3,36,229,3056586,3019740046,Clinton Hill,POINT (-73.955538 40.685658)
Evangelical Lutheran Church in America,1205 WoodyCrest Avenue,Bronx,NY,10452,01/22/2010,2020-6163,03/13/2020,08/31/2020,Active,Renew,2,40.837258,-73.924448,4,16,199,2003293,2025150049,Highbridge,POINT (-73.924448 40.837258)
Pentecostal Church Of Jesus Christ,175 5th Avenue,Brooklyn,NY,11217,03/11/2013,2020-6166,03/17/2020,03/31/2021,Active,Renew,3,40.67734,-73.979818,6,39,131,3019586,3009500005,Park Slope-Gowanus,POINT (-73.979818 40.67734)
Agudath Israel Bais Binyomin,2913 Ave L,Brooklyn,NY,11230,02/18/2016,2020-6116,03/04/2020,03/31/2021,Active,Renew,3,40.62192,-73.946734,14,45,748,3208621,3076290001,Midwood,POINT (-73.946734 40.62192)
Shri Radhe Govinda Mandir,184-01 Jamaica Avenue,Hollis,NY,11423,02/25/2013,2020-6141,03/04/2020,03/31/2021,Active,Renew,4,40.709166,-73.775875,12,27,470,4211977,4099050033,Jamaica,POINT (-73.775875 40.709166)
Community Church of Astoria,14 42 Broadway,Astoria,NY,11106,05/02/2008,2020-6153,03/06/2020,02/28/2021,Active,Renew,4,40.765689,-73.932547,1,22,45,4005790,4005300006,Astoria,POINT (-73.932547 40.765689)
Mt. Horeb Baptist Church,109-20 34th Ave.,Corona,NY,11368,03/28/2019,2020-6132,03/04/2020,03/31/2021,Active,Renew,4,40.756414,-73.859449,3,21,381,4043646,4017530011,North Corona,POINT (-73.859449 40.756414)
Christ United Methodist Church,673 45th Street,Brooklyn,NY,11220,03/05/2012,2020-6121,03/04/2020,03/31/2021,Active,Renew,3,40.645699,-74.003733,7,38,96,3332045,3007400043,Sunset Park East,POINT (-74.003733 40.645699)
New Zion Pilgrim Baptist Church,1040 Washington Avenue,Bronx,NY,10456,05/20/2011,2020-6135,03/04/2020,03/31/2021,Active,Renew,2,40.827171,-73.909175,3,16,185,2001257,2023700001,Morrisania-Melrose,POINT (-73.909175 40.827171)
Shree Sundar Gopal Mandir Inc.,97-53 104th Street,Ozone Park,NY,11416,03/22/2017,2020-6161,03/11/2020,03/31/2021,Active,Renew,4,40.687649,-73.839737,9,28,116,4197792,4094060137,Richmond Hill,POINT (-73.839737 40.687649)
"Pentecostal Church Of Jesus Christ, Inc.",21 Marcus Garvey Boulevard,Brooklyn,NY,11206,07/18/2016,2020-6162,03/11/2020,07/31/2020,Active,Replace,3,40.699032,-73.941245,3,36,28501,3042825,3015790006,Bushwick South,POINT (-73.941245 40.699032)
Madison Jewish Center,2989 Nostrand Avenue,Brooklyn,NY,11229,05/16/2008,2020-6131,03/04/2020,03/31/2021,Active,Renew,3,40.611538,-73.943951,15,46,644,3182809,3067930009,Georgetown-Marine Park-Bergen Beach-Mill Basin,POINT (-73.943951 40.611538)
Williamsburgh Pentecostal Church,674 Metropolitan Avenue,Brooklyn,NY,11211,03/20/2018,2020-6148,03/05/2020,03/31/2021,Active,Renew,3,40.714309,-73.946653,1,34,503,3068844,3027630020,East Williamsburg,POINT (-73.946653 40.714309)
Iglesia Cristiana Manantial De Vida Inc,50 Bergen Street,Brooklyn,NY,11201,03/02/2011,2020-6127,03/04/2020,03/31/2021,Active,Renew,3,40.68709,-73.9914,2,33,69,3005736,3003840030,DUMBO-Vinegar Hill-Downtown Brooklyn-Boerum Hill,POINT (-73.9914 40.68709)
SOUTH BROOKLYN SDA CHURCH,42 PROSPECT PLACE,BROOKLYN,NY,11217,07/11/2011,2020-6142,03/04/2020,03/31/2021,Active,Renew,3,40.679754,-73.976421,6,39,12902,3018870,3009380026,Park Slope-Gowanus,POINT (-73.976421 40.679754)
Jamaica Muslim Center Inc.,85-37 168th Street,Jamaica,NY,11432,01/22/2010,2020-6129,03/04/2020,03/31/2021,Active,Renew,4,40.713247,-73.796339,8,24,454,4210720,4098510017,Briarwood-Jamaica Hills,POINT (-73.796339 40.713247)
St. Augustine Episcopal Church,290 Henry Street,New York,NY,10002,01/28/2013,2020-6143,03/04/2020,03/31/2021,Active,Renew,1,40.713991,-73.98319,3,2,202,1081962,1002670019,Lower East Side,POINT (-73.98319 40.713991)
Bibleway House Of Blessings,675 Franklin Avenue,Brooklyn,NY,11238,03/18/2016,2020-6119,03/04/2020,03/31/2021,Active,Renew,3,40.675464,-73.956223,8,35,221,3030860,3012240005,Crown Heights North,POINT (-73.956223 40.675464)
"New Covenant Church Of God, Inc.",104 28 Astoria Blvd,East Elmhurst,NY,11369,03/04/2015,2020-6133,03/04/2020,03/31/2021,Active,Renew,4,40.761235,-73.86494,3,21,365,4547962,4016910008,East Elmhurst,POINT (-73.86494 40.761235)
Pentecostal Church The Light Of World Inc.,185 South 9th Street,Brooklyn,NY,11211,03/14/2014,2020-6136,03/04/2020,03/31/2021,Active,Renew,3,40.708447,-73.961705,1,34,525,3059635,3021390037,North Side-South Side,POINT (-73.961705 40.708447)
Saint Angela Merici Church,917 Morris Avenue,Bronx,NY,10451,02/24/2016,2020-6140,03/04/2020,03/31/2021,Active,Renew,2,40.826827,-73.917779,4,16,18302,2002474,2024450046,East Concourse-Concourse Village,POINT (-73.917779 40.826827)
Prospect Park Jewish Center,1609 Ave R,Brooklyn,NY,11229,05/21/2008,2020-6156,03/06/2020,03/31/2021,Active,Renew,3,40.605933,-73.956596,15,48,552,3256839,3067990046,Madison,POINT (-73.956596 40.605933)
Antioch Baptist Church,107-14 Pinegrove Street,Jamaica,NY,11435,03/03/2011,2020-6117,03/04/2020,03/31/2021,Active,Renew,4,40.690143,-73.805374,12,28,198,4448845,4100720010,South Jamaica,POINT (-73.805374 40.690143)
Bible Faith Tabernacle Church,1368 St. Johns Place,Brooklyn,NY,11213,05/02/2008,2020-6149,03/05/2020,03/31/2021,Active,Renew,3,40.670677,-73.932838,8,35,351,3037059,3013840016,Crown Heights North,POINT (-73.932838 40.670677)
Mt Hebron Baptist Church,"732 East 233rd St., PO BOX 859",Bronx,NY,10466,02/20/2011,2020-6167,03/18/2020,03/31/2021,Active,Renew,2,40.893023,-73.856205,12,12,422,2063714,2048460059,Williamsbridge-Olinville,POINT (-73.856205 40.893023)
Pilgrim Congregational Church,102 -35 89th Avenue,Richmond Hill,NY,11418,03/06/2014,2020-6138,03/04/2020,03/31/2021,Active,Renew,,,,,,,,,,
New Life Apostolic Church,97 - 45 - 92nd Street,Ozone Park,NY,11416,02/22/2013,2020-6134,03/04/2020,03/31/2021,Active,Renew,4,40.684961,-73.849227,9,32,38,4188551,4090660040,Woodhaven,POINT (-73.849227 40.684961)
United Methodist City Society- St. Paul NYC,14 -50 31st Road,Astoria,NY,11106,10/06/2017,2019-5872,10/29/2019,10/31/2020,Active,Renew,,,,,,,,,,
Congregation Sons Of Israel Of The Bronx,2521 Croger Ave.,Bronx,NY,10467,10/26/2011,2019-5930,11/27/2019,10/30/2020,Active,Renew,,,,,,,,,,
Bethany Baptist Church,460 Marcus Garvey Blvd.,Brooklyn,NY,11216,09/25/2018,2019-5733,08/07/2019,08/31/2020,Active,New,3,40.681137,-73.937687,3,36,273,3053589,3018560041,Stuyvesant Heights,POINT (-73.937687 40.681137)
First Church of Christ Holiness,1935 Madison Ave.,New york,NY,10035,04/03/2012,2019-5705,08/01/2019,08/31/2020,Active,Renew,1,40.805256,-73.941006,11,9,198,1054007,1017490022,East Harlem North,POINT (-73.941006 40.805256)
Chinese Promise Baptist Church,842 41st Street,Brooklyn,NY,11232,07/10/2014,2019-5646,07/09/2019,07/31/2020,Active,Renew,3,40.645554,-73.997481,12,38,92,3018229,3009230024,Sunset Park East,POINT (-73.997481 40.645554)
Good Neighbor Presbyterian Church,115 East 106th Street,New York,NY,10029,05/09/2008,2019-5897,11/06/2019,11/30/2020,Active,Renew,1,40.792631,-73.947168,11,8,172,1081389,1016340009,East Harlem South,POINT (-73.947168 40.792631)
First Baptist Church Of Crown Heights Inc.,450 Eastern Parkway,Brooklyn,NY,11225,06/29/2011,2019-5873,11/01/2019,07/31/2020,Active,Renew,3,40.670028,-73.953728,9,35,323,3032891,3012670027,Crown Heights South,POINT (-73.953728 40.670028)
Wakefield Grace United Methodist Church,4750 White Plains Road,Bronx,NY,10470,01/25/2010,2019-5919,11/13/2019,11/30/2020,Active,Renew,2,40.904834,-73.849625,12,11,442,2071870,2051130031,Woodlawn-Wakefield,POINT (-73.849625 40.904834)
Rock Of Holiness Deliverance Faith Ministry Inc,2096 Nostrand Avenue,Brooklyn,NY,11210,05/27/2008,2019-5904,11/06/2019,11/30/2020,Active,Renew,3,40.634585,-73.947848,14,45,786,3121744,3052520070,Flatbush,POINT (-73.947848 40.634585)
Garden Of Prayer International Inc.,3911 Fort Hamilton Parkway,Brooklyn,NY,11218,07/15/2013,2019-5690,07/26/2019,07/31/2020,Active,Renew,3,40.643053,-73.990649,12,39,224,3135280,3055850006,Borough Park,POINT (-73.990649 40.643053)
Hillcrest Jewish Center,183-02 Union Turnpike,Fresh Meadows,NY,11366,02/22/2016,2019-5596,06/10/2019,06/30/2020,Active,Renew,4,40.727782,-73.7855,8,24,1277,4155927,4072480015,Jamaica Estates-Holliswood,POINT (-73.7855 40.727782)
Primera Iglesia Getsemani,193 Graham Avenue,Brooklyn,NY,11206,08/12/2015,2019-5712,08/01/2019,08/31/2020,Active,Renew,3,40.708675,-73.943433,1,34,505,3070976,3030430019,East Williamsburg,POINT (-73.943433 40.708675)
St. Paul & St. Andrew United Methodist Church,263 W 86th St,New York,NY,10024,07/11/2018,2019-5724,08/01/2019,08/31/2020,Active,Renew,1,40.788672,-73.977332,7,6,175,1033195,1012347502,Upper West Side,POINT (-73.977332 40.788672)
Chinese Christian Herald Crusades,156-03 Horace Harding Expy.,Flushing,NY,11367,04/28/2008,2019-5802,09/23/2019,10/31/2020,Active,Renew,4,40.738948,-73.812113,7,20,1215,4146290,4067340001,Queensboro Hill,POINT (-73.812113 40.738948)
International Christian Church the Savior,1696 Weeks Avenue,Bronx,NY,10457,05/13/2008,2019-5620,06/13/2019,06/30/2020,Active,Renew,2,40.84438,-73.907583,4,15,22902,2007367,2027920036,Mount Hope,POINT (-73.907583 40.84438)
Wake-Eden Community Baptist Church,2074 Strang Avenue,Bronx,NY,10466,01/25/2010,2019-5722,08/01/2019,08/31/2020,Active,Renew,2,40.890773,-73.839801,12,12,426,2066715,2049580032,Woodlawn-Wakefield,POINT (-73.839801 40.890773)
Queens Tabernacle,86 03 96th Street,Woodhaven,NY,11421,04/22/2014,2019-5566,05/09/2019,05/31/2020,Active,Renew,4,40.69574,-73.849393,9,32,22,4182675,4088920090,Woodhaven,POINT (-73.849393 40.69574)
The Christian Community,309 West 74th Street,New York,NY,10023,04/29/2008,2019-5853,10/15/2019,10/31/2020,Active,Renew,1,40.781273,-73.983841,7,6,163,1031004,1011840071,Upper West Side,POINT (-73.983841 40.781273)
Christ Apostolic Church WOSEM,442 East 183rd Street,Bronx,NY,10458,04/07/2015,2019-5509,04/16/2019,04/30/2020,Active,Renew,2,40.85566,-73.894152,6,15,385,2011334,2030380016,Claremont-Bathgate,POINT (-73.894152 40.85566)
American Society of Buddhist Studies,214 Centre Street,New York,NY,10013,04/25/2008,2019-5829,09/26/2019,09/30/2020,Active,Renew,1,40.719323,-73.998889,2,1,41,1003061,1002350008,SoHo-TriBeCa-Civic Center-Little Italy,POINT (-73.998889 40.719323)
New Song Community Church,2230 8th Avenue,New York,NY,10027,06/27/2012,2019-5696,07/29/2019,07/31/2020,Active,Renew,1,40.807117,-73.953387,10,9,220,1058460,1019260001,Central Harlem South,POINT (-73.953387 40.807117)
Vineyard International Christian Ministries,1140 Teller Avenue,Bronx,NY,10456,07/21/2011,2019-5518,04/18/2019,04/30/2020,Active,Renew,2,40.830748,-73.912495,4,16,175,2002143,2024290015,East Concourse-Concourse Village,POINT (-73.912495 40.830748)
St. Bartholomew's Church,1227 Pacific Street,Brooklyn,NY,11216,05/23/2008,2019-5556,05/06/2019,05/31/2020,Active,Renew,3,40.677803,-73.95205,8,36,315,3029757,3012000016,Crown Heights North,POINT (-73.95205 40.677803)
"Congregation Ahavas Moishe, Inc.",612 Maple Street,Brooklyn,NY,11203,10/06/2015,2019-5855,10/15/2019,10/31/2020,Active,Renew,3,40.661437,-73.940687,9,41,806,3106824,3047990034,Prospect Lefferts Gardens-Wingate,POINT (-73.940687 40.661437)
German Evangelical Lutheran Church of St Paul's in,315 W 22nd Street/PO Box 1971,New York,NY,10113,01/22/2010,2019-5745,08/27/2019,07/31/2020,Active,Renew,,,,,,,,,,
Nurudeen Islamic Charity Organization of NY,3391 3rd Avenue,Bronx,NY,10456,10/09/2009,2019-5660,07/09/2019,07/31/2020,Active,Renew,2,40.828054,-73.907132,3,16,185,2124689,2023710057,Morrisania-Melrose,POINT (-73.907132 40.828054)
St. Mark's United Methodist Church,2017 Beverly Road,Brooklyn,NY,11226,08/24/2016,2019-5825,09/25/2019,10/31/2020,Active,Renew,3,40.644891,-73.959742,14,40,51001,3117629,3051240057,Flatbush,POINT (-73.959742 40.644891)
First Presbyterian Church of Flushing,150-20 Barclay Ave,Flushing,NY,11355,10/11/2012,2019-5808,09/23/2019,10/31/2020,Active,Renew,4,40.761784,-73.813348,7,20,1167,4438142,4050590016,Murray Hill,POINT (-73.813348 40.761784)
Mesivta Nachlas Yakov of Adas Yereim,185 Wilson Street,Brooklyn,NY,11211,05/28/2015,2019-5917,11/12/2019,11/30/2020,Active,Renew,3,40.70675,-73.960354,1,33,535,3059912,3021780006,Williamsburg,POINT (-73.960354 40.70675)
Congregation Beit Hillel Of Flatlands,2164 Ralph Avenue,Brooklyn,NY,11234,07/11/2011,2019-5612,06/10/2019,06/30/2020,Active,Renew,3,40.625065,-73.917858,18,46,692,3218178,3078390001,Flatlands,POINT (-73.917858 40.625065)
Evangel Temple Inc.,227-10 Merrick Blvd.,Laurelton,NY,11413,06/06/2016,2019-5726,08/01/2019,08/31/2020,Active,Renew,4,40.67692,-73.742887,13,31,632,4281526,4131080027,Laurelton,POINT (-73.742887 40.67692)
Faith Christian Missionary Church of God Inc,968 Clarkson Avenue,Brooklyn,NY,11203,05/07/2008,2019-5583,05/30/2019,05/31/2020,Active,Renew,3,40.656956,-73.925405,17,41,864,3100967,3046420007,Rugby-Remsen Village,POINT (-73.925405 40.656956)
Saints Peter and Paul - Epiphany Church,71 South 3rd Street,Brooklyn,NY,11249,02/28/2018,2019-5554,05/06/2019,05/31/2020,Active,Renew,3,40.71329,-73.964787,1,34,551,3063078,3024160034,North Side-South Side,POINT (-73.964787 40.71329)
The Bethelship Norwegian United Methodist Church,5523 4th Avenue,Brooklyn,NY,11220,08/02/2017,2019-5718,08/01/2019,08/31/2020,Active,Renew,3,40.643492,-74.01566,7,38,76,3014934,3008310001,Sunset Park West,POINT (-74.01566 40.643492)
Christ Temple Of The Apostolic Faith Inc.,13-17 West 128th Street,New York,NY,10027,04/22/2016,2019-5613,06/10/2019,06/30/2020,Active,Renew,1,40.808655,-73.941592,10,9,208,1076429,1017260044,Central Harlem North-Polo Grounds,POINT (-73.941592 40.808655)
Congregation Shomrei Emunah,5202 14th Avenue,Brooklyn,NY,11219,01/22/2010,2019-5645,07/09/2019,07/31/2020,Active,Renew,3,40.631929,-73.991768,12,44,238,3138738,3056630035,Borough Park,POINT (-73.991768 40.631929)
Park Slope Baptist Church,251 12th Street,Brooklyn,NY,11215,10/30/2017,2019-5563,05/07/2019,05/31/2020,Active,New,3,40.667965,-73.988998,6,39,139,3332168,3010220066,Park Slope-Gowanus,POINT (-73.988998 40.667965)
Church of the Good Shepherd,96 - 07 103rd Avenue,Ozone Park,NY,11416,05/02/2008,2019-5806,09/23/2019,10/31/2020,Active,Renew,4,40.682585,-73.843928,9,32,4001,4189351,4091030034,Woodhaven,POINT (-73.843928 40.682585)
House of Grace,31-55 92nd Street,East Elmhurst,NY,11369,06/06/2019,2019-5589,06/06/2019,06/30/2020,Active,New,4,40.759382,-73.876578,3,21,351,4034126,4014040045,Jackson Heights,POINT (-73.876578 40.759382)
United Nations Pentecostal Church,1494 Ocean Ave,Brooklyn,NY,11230,05/17/2018,2019-5697,08/01/2019,06/30/2020,Active,Renew,3,40.625372,-73.956335,14,45,762,3180181,3067217501,Midwood,POINT (-73.956335 40.625372)
"Masjid:""Omar Ben Abdel-Aziz""",88-29 161st Street,Jamaica,NY,11432,05/20/2008,2019-5603,06/10/2019,06/30/2020,Active,Renew,4,40.707567,-73.800677,12,24,44602,4209002,4097670019,Jamaica,POINT (-73.800677 40.707567)
Mt. Olivet Gospel Church,33-27 97th Street,Corona,NY,11368,08/14/2019,2019-5778,09/03/2019,09/30/2020,Active,Renew,4,40.756436,-73.871206,3,21,377,4307613,4017120019,North Corona,POINT (-73.871206 40.756436)
International Revival Tabernacle,2260 Pacific Street,Brooklyn,NY,11233,03/30/2015,2019-5502,04/10/2019,04/30/2020,Active,Renew,3,40.675453,-73.909598,16,37,36501,3038744,3014420032,Ocean Hill,POINT (-73.909598 40.675453)
Fellowship Missionary Baptist Church,509 Van Siclen Ave.,Brooklyn,NY,11207,10/28/2011,2019-5894,11/06/2019,11/30/2020,Active,Renew,3,40.667354,-73.88894,5,42,1160,3090004,3040580041,East New York,POINT (-73.88894 40.667354)
Christian Church of the Valley,843 East 156th Street,Bronx,NY,10455,05/15/2017,2019-5574,05/15/2019,05/31/2020,Active,Renew,2,40.817439,-73.902873,1,17,79,2005001,2026760083,Melrose South-Mott Haven North,POINT (-73.902873 40.817439)
The Church of St. Edward the Martyr,14 East 109th Street,New York,NY,10029,09/11/2018,2019-5784,09/10/2019,09/30/2020,Active,Renew,1,40.795958,-73.949108,11,9,17401,1051593,1016140064,East Harlem South,POINT (-73.949108 40.795958)
Grand Concourse Seventh Day Adventist Church,1275 Grand Concourse,Bronx,NY,10452,05/13/2008,2019-5565,05/09/2019,05/31/2020,Active,Renew,2,40.836092,-73.916181,4,16,22102,2002861,2024660026,West Concourse,POINT (-73.916181 40.836092)
"Church Of God In Christ Jesus ND, Inc.",476 Kosciuszko Street,Brooklyn,NY,11221,04/23/2010,2019-5800,09/23/2019,10/31/2020,Active,Renew,3,40.69248,-73.935163,3,36,289,3043404,3016060028,Stuyvesant Heights,POINT (-73.935163 40.69248)
Sunnyside Congregation of Jehovah's Witnesses,48-18 69th Street,Woodside,NY,11377,12/30/2017,2019-5505,04/10/2019,04/30/2020,Active,Renew,4,40.738157,-73.89592,2,30,243,4056263,4024290054,Elmhurst-Maspeth,POINT (-73.89592 40.738157)
Emmanuel Baptist Church,279 Lafayette Avenue,Brooklyn,NY,11238,09/11/2015,2019-5782,09/05/2019,08/31/2020,Active,Renew,3,40.688279,-73.965287,2,35,197,3055373,3019320042,Clinton Hill,POINT (-73.965287 40.688279)
El Shaddai Ministries Inc.,146-42 Guy R. Brewer Blvd,Jamaica,NY,11434,05/16/2016,2019-5857,10/16/2019,08/31/2020,Active,Renew,4,40.662196,-73.768269,13,31,320,4285469,4133100084,Springfield Gardens South-Brookville,POINT (-73.768269 40.662196)
"Jewish Center Of Kew Gardens Hills, Inc.",71-25 Main Street,Flushing,NY,11367,05/14/2010,2019-5655,07/09/2019,07/31/2020,Active,Renew,4,40.727194,-73.822075,8,24,77906,4144021,4066580003,Kew Gardens Hills,POINT (-73.822075 40.727194)
Holy Archangels Michael & Gab Rom Orth Church,75-27 67th Drive,Middle Village,NY,11379,05/12/2008,2019-5708,08/01/2019,08/31/2020,Active,Renew,4,40.711464,-73.877042,5,30,619,4091478,4037740048,Middle Village,POINT (-73.877042 40.711464)
Elohim Christian Church,87-47 111th Street,Richmond Hill,NY,11418,05/06/2008,2019-5748,08/27/2019,06/30/2020,Active,Renew,4,40.696475,-73.836964,9,28,124,4440557,4093010024,Richmond Hill,POINT (-73.836964 40.696475)
St. George's Church (Episcopal),135-32 38th Avenue,Flushing,NY,11354,05/27/2008,2019-5664,07/09/2019,07/31/2020,Active,Renew,4,40.760399,-73.831899,7,20,871,4112307,4049750001,Flushing,POINT (-73.831899 40.760399)
Jesus the Good Shepherd United Reformed Episcopal,599 Washington Avenue,Brooklyn,NY,11238,05/07/2012,2019-5544,05/03/2019,05/31/2020,Active,Renew,3,40.679779,-73.964134,8,35,203,3027688,3011320004,Prospect Heights,POINT (-73.964134 40.679779)
First Central Baptist Church,117 Wright Street,Staten Island,NY,10304,05/07/2008,2019-5540,05/03/2019,05/31/2020,Active,Renew,5,40.62799,-74.079862,1,49,21,5013690,5005210079,Stapleton-Rosebank,POINT (-74.079862 40.62799)
St. Peter's Episcopal Church,137-28 244th Street,Rosedale,NY,11422,10/25/2018,2019-5909,11/06/2019,11/30/2020,Active,Renew,4,40.667955,-73.733041,13,31,638,4284509,4132410043,Rosedale,POINT (-73.733041 40.667955)
Our Lady Of Lebanon Maronite Catholic Cathedral,113 Remsen Street,Brooklyn,NY,11201,10/19/2015,2019-5486,04/03/2019,04/30/2020,Active,Renew,3,40.693909,-73.993823,2,33,502,3002075,3002490015,Brooklyn Heights-Cobble Hill,POINT (-73.993823 40.693909)
Shore Park Jewish Center,2959 Avenue Y,Brooklyn,NY,11235,05/22/2008,2019-5905,11/06/2019,11/30/2020,Active,Renew,3,40.591847,-73.938808,15,48,596,3203616,3074230038,Sheepshead Bay-Gerritsen Beach-Manhattan Beach,POINT (-73.938808 40.591847)
The Good Shepherd Spiritual Baptist Church Inc,2050 Nostrand Avenue,Brooklyn,NY,11210,11/18/2011,2019-5910,11/06/2019,11/30/2020,Active,Renew,3,40.635398,-73.947934,14,45,786,3121733,3052520050,Flatbush,POINT (-73.947934 40.635398)
Jewish Center Inc.,131 West 86th Street,New York,NY,10024,05/14/2008,2019-5654,07/09/2019,07/31/2020,Active,Renew,1,40.786931,-73.973202,7,6,173,1032193,1012170018,Upper West Side,POINT (-73.973202 40.786931)
Grace Chinese Alliance Church Of C& M A,5623 7th Avenue,Brooklyn,NY,11220,07/11/2014,2019-5785,09/10/2019,08/31/2020,Active,Renew,3,40.638909,-74.009577,7,38,104,3015501,3008420001,Sunset Park East,POINT (-74.009577 40.638909)
"New Covenant Faith and Miracle Arena, Inc",1175 Boston Road,Bronx,NY,10456,06/22/2011,2019-5854,10/15/2019,10/31/2020,Active,Renew,2,40.828887,-73.903066,3,16,185,2004287,2026140043,Morrisania-Melrose,POINT (-73.903066 40.828887)
Salvation & Deliverance Church,37 West 116th Street,New York,NY,10026,05/17/2017,2019-5662,07/09/2019,07/31/2020,Active,Renew,1,40.801447,-73.948291,10,9,190,1051428,1016000015,Central Harlem South,POINT (-73.948291 40.801447)
Kingsway Jewish Center,2810 Nostrand Avenue,Brooklyn,NY,11229,05/15/2008,2019-5735,08/07/2019,06/30/2020,Active,Renew,3,40.615724,-73.944776,15,45,642,3211291,3076900051,Madison,POINT (-73.944776 40.615724)
Congregation Yeshuos Chaim,1167 East 13th Street,Brooklyn,NY,11230,05/06/2008,2019-5536,05/03/2019,05/31/2020,Active,Renew,3,40.6211,-73.962501,14,44,534,3180329,3067240060,Midwood,POINT (-73.962501 40.6211)
New Hope Pentecostal Church,659 Ralph Avenue,Brooklyn,NY,11212,05/19/2008,2019-5723,08/01/2019,07/31/2020,Active,Renew,3,40.666764,-73.922659,16,41,900,3080805,3035090022,Brownsville,POINT (-73.922659 40.666764)
"Pentecostal Church ""El Eden""",105 Montrose Ave,Brooklyn,NY,11206,04/24/2014,2019-5869,10/25/2019,06/30/2020,Active,Renew,3,40.70712,-73.945501,1,34,505,3071095,3030510025,East Williamsburg,POINT (-73.945501 40.70712)
Manhattan Beach Jewish Center,60 West End Avenue,Brooklyn,NY,11235,04/05/2017,2019-5484,04/03/2019,04/30/2020,Active,Renew,3,40.580394,-73.953567,15,48,61004,3326901,3087130077,Brighton Beach,POINT (-73.953567 40.580394)
Central Brooklyn Spanish Seventh-Day Adventist Chu,130 Boerum Street,Brooklyn,NY,11206,07/17/2015,2019-5880,11/04/2019,11/30/2020,Active,New,3,40.705818,-73.943677,1,34,505,3071338,3030790016,East Williamsburg,POINT (-73.943677 40.705818)
Bnei Aram Soba,1616 Ocean Parkway,Brooklyn,NY,11223,04/01/2011,2019-5477,04/03/2019,04/30/2020,Active,Renew,3,40.609151,-73.967647,15,44,422,3176091,3066370012,Homecrest,POINT (-73.967647 40.609151)
"The Central Islamic Organization of New York, Inc.",130-08 Rockaway Blvd.,South Ozone Par,NY,11420,03/03/2016,2019-5743,08/27/2019,08/31/2020,Active,Renew,4,40.674969,-73.80831,10,28,818,4254932,4117540052,South Ozone Park,POINT (-73.80831 40.674969)
Netivot Israel,1617 Ocean Parkway,Brooklyn,NY,11223,05/19/2008,2019-5902,11/06/2019,11/30/2020,Active,Renew,3,40.608983,-73.967593,15,44,420,3176157,3066380073,Homecrest,POINT (-73.967593 40.608983)
Redemption Church Of Christ Inc.,1252-54 Bedford Avenue,Brooklyn,NY,11216,05/27/2008,2019-5826,09/26/2019,09/30/2020,Active,Renew,3,40.681122,-73.953476,3,36,227,3057462,3020000031,Clinton Hill,POINT (-73.953476 40.681122)
St. Paul's United Methodist,3714 Avenue D,Brooklyn,NY,11203,05/28/2008,2019-5667,07/09/2019,07/31/2020,Active,Renew,3,40.641373,-73.941548,17,45,832,3112489,3049710005,East Flatbush-Farragut,POINT (-73.941548 40.641373)
Mt. Horeb Holiness Church Of God Inc.,2105 5th Avenue,New York,NY,10035,05/23/2008,2019-5789,09/16/2019,09/30/2020,Active,Renew,1,40.80923,-73.940194,11,9,206,1054219,1017540003,Central Harlem North-Polo Grounds,POINT (-73.940194 40.80923)
Church of the Sacred Heart of Jesus,457 West 51st Street,New York,NY,10019,04/24/2018,2019-5480,04/03/2019,04/30/2020,Active,Renew,1,40.764778,-73.990051,4,3,133,1026715,1010610007,Clinton,POINT (-73.990051 40.764778)
Congregation Emanu -EI of the City of New York,1 East 65th Street,New York,NY,10003,07/30/2018,2019-5689,07/25/2019,07/31/2020,Active,Renew,1,40.767928,-73.970036,8,4,122,1081210,1013800001,Upper East Side-Carnegie Hill,POINT (-73.970036 40.767928)
United Temple of Park Slope,315 8th Street,Brooklyn,NY,11215,07/18/2016,2019-5833,10/01/2019,08/31/2020,Active,Replace,3,40.669243,-73.984658,6,39,137,3021923,3009990059,Park Slope-Gowanus,POINT (-73.984658 40.669243)
Harvest Fields Community Church,2626 East Tremont Avenue,Bronx,NY,10461,01/22/2010,2019-5595,06/10/2019,06/30/2020,Active,Renew,2,40.842975,-73.846291,10,13,200,2042413,2040020051,Van Nest-Morris Park-Westchester Square,POINT (-73.846291 40.842975)
Harvest Christian Fellowship,336 West 37th Street,New York,NY,10018,05/12/2008,2019-5765,09/03/2019,09/30/2020,Active,Renew,1,40.754573,-73.99324,4,3,111,1013604,1007600063,Hudson Yards-Chelsea-Flatiron-Union Square,POINT (-73.99324 40.754573)
St. Rose of Lima Church,510 West 165th Street,New York,NY,10032,01/22/2010,2019-5627,06/24/2019,05/31/2020,Active,Renew,1,40.838186,-73.93912,12,7,24301,1062894,1021210029,Washington Heights South,POINT (-73.93912 40.838186)
Young Israel of Holliswood,86-25 Francis Lewis Blvd,Holliswood,NY,11427,05/30/2008,2019-5560,05/06/2019,05/31/2020,Active,Renew,4,40.724948,-73.765107,8,23,492,4226088,4106000019,Jamaica Estates-Holliswood,POINT (-73.765107 40.724948)
The Evangelical Lutheran Church Of The Resurrectio,189-20 114th Road,St. Albans,NY,11412,05/29/2013,2019-5632,06/26/2019,06/30/2020,Active,Renew,4,40.697533,-73.763645,12,27,400,4221225,4103940007,St. Albans,POINT (-73.763645 40.697533)
Yeshivas Novominsk,1690 60TH ST,Brooklyn,NY,11204,09/06/2018,2019-5912,11/06/2019,11/30/2020,Active,Renew,3,40.623672,-73.990004,12,44,242,3328510,3055170039,Borough Park,POINT (-73.990004 40.623672)
St. Kevin RC Church,4521 194th Street,Flushing,NY,11358,10/23/2013,2019-5819,09/23/2019,10/31/2020,Active,Renew,4,40.755222,-73.787256,11,19,145101,4125018,4055360001,Auburndale,POINT (-73.787256 40.755222)
Congregation Shaare Zion,2030 Ocean Parkway,Brooklyn,NY,11223,05/06/2008,2019-5588,06/06/2019,05/31/2020,Active,Renew,3,40.599264,-73.965762,15,47,394,3191944,3071080018,Homecrest,POINT (-73.965762 40.599264)
"Iglesia Carismatica Casa De Oracion, Inc",4609 8th Avenue,Brooklyn,NY,11220,05/13/2008,2019-5500,04/10/2019,04/30/2020,Active,Renew,3,40.643237,-74.001492,12,38,94,3012099,3007600005,Sunset Park East,POINT (-74.001492 40.643237)
Powerhouse Ministries Inc.,1161 Boston Road,Bronx,NY,10456,03/28/2016,2019-5551,05/06/2019,05/31/2020,Active,Renew,2,40.828701,-73.903283,3,16,185,2004290,2026140052,Morrisania-Melrose,POINT (-73.903283 40.828701)
CityLight Church,121 E 7th Street,New York,NY,10009,08/26/2014,2019-5876,11/01/2019,10/31/2020,Active,Renew,1,40.726441,-73.984436,3,2,32,1066657,1004350042,East Village,POINT (-73.984436 40.726441)
Full Gospel Tabernacle Of Faith Church Inc.,1212 East New York Avenue,Brooklyn,NY,11212,09/16/2015,2019-5856,10/16/2019,10/31/2020,Active,Renew,3,40.667256,-73.922373,16,41,900,3080807,3035090034,Brownsville,POINT (-73.922373 40.667256)
Vishnu Mandir,1216 Noble Avenue,Bronx,NY,10472,05/31/2017,2019-5685,07/22/2019,07/31/2020,Active,Renew,2,40.830049,-73.869816,9,18,68,2024577,2037600018,Soundview-Bruckner,POINT (-73.869816 40.830049)
The Full Gospel First Church of NY,41- 15 150 Street,Flushing,NY,11355,08/28/2019,2019-5913,11/07/2019,08/31/2020,Active,Renew,4,40.762284,-73.813765,7,20,1167,4114915,4050580013,Murray Hill,POINT (-73.813765 40.762284)
"Three Angels Gospel Adventist Ministries, Inc",599 Hageman Avenue,Brooklyn,NY,11208,06/03/2013,2019-5608,06/10/2019,06/30/2020,Active,Renew,,,,,,,,,,
Young Israel Beth-El of Borough Park,4802 15th Avenue,Brooklyn,NY,11219,05/30/2008,2019-5777,09/03/2019,09/30/2020,Active,Renew,3,40.632839,-73.987235,12,44,234,3137508,3056360036,Borough Park,POINT (-73.987235 40.632839)
Congregation Bnei Shlomo,1610 52nd Street,Brooklyn,NY,11204,05/22/2016,2019-5757,08/29/2019,06/30/2020,Active,Renew,3,40.629021,-73.986721,12,44,472,3256723,3054727501,Borough Park,POINT (-73.986721 40.629021)
Congregation Ahavas Yisroel,147-02 73rd Avenue,Kew Gardens,NY,11367,05/05/2008,2019-5861,10/21/2019,10/31/2020,Active,Renew,4,40.725358,-73.818411,8,24,77907,4144466,4066820001,Kew Gardens Hills,POINT (-73.818411 40.725358)
Church Of Christ Hollis,214-11 Jamaica Avenue,Queens Village,NY,11428,11/09/2014,2019-5643,07/09/2019,07/31/2020,Active,Renew,4,40.716479,-73.743442,13,23,542,4226194,4106040030,Queens Village,POINT (-73.743442 40.716479)
St. Mary Magdalen Orthodox Church,70 West 107th Street,New York,NY,10025,05/28/2008,2019-5677,07/15/2019,07/31/2020,Active,Renew,1,40.799622,-73.961704,7,7,193,1087196,1018427503,Morningside Heights,POINT (-73.961704 40.799622)
Ebenezer Gospel Tabernacle Christian Mission USA,223-25 Lenox Avenue,New York,NY,10027,01/26/2015,2019-5843,10/04/2019,09/30/2020,Active,Renew,1,40.805358,-73.947259,10,9,220,1057685,1019060029,Central Harlem South,POINT (-73.947259 40.805358)
Pentecostal Rescue House of Prayer For All Nations,2415 Pitkins Avenue,Brooklyn,NY,11208,05/21/2008,2019-5815,09/23/2019,10/31/2020,Active,Renew,3,40.673785,-73.883164,5,37,1166,3088942,3040020032,East New York,POINT (-73.883164 40.673785)
Yeshivat Or Hatorah,2959 Avenue Y,Brooklyn,NY,11235,08/17/2016,2019-5799,09/20/2019,09/30/2020,Active,Renew,3,40.591847,-73.938808,15,48,596,3203616,3074230038,Sheepshead Bay-Gerritsen Beach-Manhattan Beach,POINT (-73.938808 40.591847)
St. George's Episcopal Church,800 Marcy Avenue,Brooklyn,NY,11216,05/27/2008,2019-5906,11/06/2019,11/30/2020,Active,Renew,3,40.68634,-73.947421,3,36,251,3051119,3018130041,Bedford,POINT (-73.947421 40.68634)
Homecrest Presbyterian Church,1413 Avenue T,Brooklyn,NY,11229,05/12/2008,2019-5766,09/03/2019,09/30/2020,Active,Renew,3,40.60102,-73.957543,15,48,556,3196793,3072930043,Homecrest,POINT (-73.957543 40.60102)
Congregation Beth Elohim,274 Garfield Place,Brooklyn,NY,11215,11/22/2013,2019-5871,10/29/2019,10/31/2020,Active,Renew,3,40.670905,-73.974157,6,39,165,3025118,3010750005,Park Slope-Gowanus,POINT (-73.974157 40.670905)
United Community Baptist Church,545 Utica Avenue,Brooklyn,NY,11203,04/30/2008,2019-5916,11/12/2019,11/30/2020,Active,Renew,3,40.659971,-73.931252,17,41,878,3099656,3046040075,Prospect Lefferts Gardens-Wingate,POINT (-73.931252 40.659971)
Spirit of Brotherhood Church/Iglesia  Carismatica,167 South 1st Street,Brooklyn,NY,11211,03/22/2016,2019-5850,10/10/2019,10/31/2020,Active,Renew,3,40.71364,-73.960945,1,34,551,3330012,3023930019,North Side-South Side,POINT (-73.960945 40.71364)
Church of St. Frances of Rome,4307 Barnes Avenue,Bronx,NY,10466,05/01/2008,2019-5862,10/21/2019,10/31/2020,Active,Renew,2,40.895125,-73.853036,12,11,434,2097002,2050450085,Woodlawn-Wakefield,POINT (-73.853036 40.895125)
Bais Hamedrash of Flatbush,1485 East 29th Street,Brooklyn,NY,11229,06/17/2019,2019-5623,06/17/2019,06/30/2020,Active,New,3,40.614314,-73.945526,15,45,642,3340100,3076900051,Madison,POINT (-73.945526 40.614314)
Holy Family Church,366 Watchogue Road,Staten Island,NY,10314,05/12/2008,2019-5598,06/10/2019,06/30/2020,Active,Renew,5,40.616507,-74.141546,1,50,18901,5095191,5004720164,Westerleigh,POINT (-74.141546 40.616507)
Church Of Promise In Christ Inc.,474 Kosciuszko Street,Brooklyn,NY,11221,08/29/2011,2019-5805,09/23/2019,10/31/2020,Active,Renew,3,40.692471,-73.935225,3,36,289,3043403,3016060026,Stuyvesant Heights,POINT (-73.935225 40.692471)
Congregation Adath Yeshurun,3416 Avenue N,Brooklyn,NY,11234,07/08/2012,2019-5754,08/29/2019,08/31/2020,Active,Renew,3,40.617543,-73.941993,18,45,646,3211708,3076960056,Georgetown-Marine Park-Bergen Beach-Mill Basin,POINT (-73.941993 40.617543)
Praise Tabernacle Inc.,108-11 Sutphin Blvd,Jamaica,NY,11435,08/31/2017,2019-5773,09/03/2019,09/30/2020,Active,Renew,4,40.69271,-73.799056,12,28,254,4216052,4101410054,South Jamaica,POINT (-73.799056 40.69271)
"Yeshivat Hechal Shemuel, Inc.",1532 E 10th Street,Brooklyn,NY,11230,07/05/2016,2019-5671,07/09/2019,07/31/2020,Active,Renew,3,40.611502,-73.963688,12,44,420,3175145,3066160019,Homecrest,POINT (-73.963688 40.611502)
First Moravian Church,154 Lexington Avenue.,New York,NY,10016,08/12/2011,2019-5706,08/01/2019,08/31/2020,Active,Renew,1,40.743695,-73.981707,5,2,72,1018279,1008850071,Murray Hill-Kips Bay,POINT (-73.981707 40.743695)
Salvation Tabernacle Inc.,138-19 101 Avenue,Jamaica,NY,11435,03/24/2011,2019-5491,04/04/2019,04/30/2020,Active,Renew,4,40.694422,-73.810295,12,28,206,4214196,4100100024,Jamaica,POINT (-73.810295 40.694422)
"The Church Bethesda, Inc.",1257 Gates Avenue,Brooklyn,NY,11221,11/04/2017,2019-5720,08/01/2019,08/31/2020,Active,Renew,3,40.693336,-73.918308,4,34,417,3076273,3033320046,Bushwick South,POINT (-73.918308 40.693336)
Iglesia Pentecostal Esmirna Inc.,1115 Blake Avenue,Brooklyn,NY,11208,05/18/2015,2019-5577,05/20/2019,05/31/2020,Active,Renew,3,40.670518,-73.876678,5,42,1194,3089948,3040560053,East New York,POINT (-73.876678 40.670518)
God's Battalion Of Prayer Church,661 Linden Boulevard,Brooklyn,NY,11203,05/09/2008,2019-5650,07/09/2019,07/31/2020,Active,Renew,3,40.653599,-73.93403,17,41,870,3108481,3048670025,East Flatbush-Farragut,POINT (-73.93403 40.653599)
Emmanuel Temple,51-53 Rogers Avenue,Brooklyn,NY,11216,05/07/2008,2019-5860,10/16/2019,10/31/2020,Active,Renew,3,40.675871,-73.952711,8,36,315,3030639,3012190002,Crown Heights North,POINT (-73.952711 40.675871)
St. Mary Protectress,97-06 87th Street,Ozone Park,NY,11416,01/22/2010,2019-5562,05/06/2019,05/31/2020,Active,Renew,4,40.683726,-73.85352,9,32,42,4188321,4090580005,Woodhaven,POINT (-73.85352 40.683726)
United Methodist  Parish In Bushwick,1139 Bushwick Avenue,Brooklyn,NY,11221,12/21/2017,2019-5510,04/16/2019,04/30/2020,Active,Renew,3,40.689389,-73.91793,4,34,399,3076964,3033670004,Bushwick South,POINT (-73.91793 40.689389)
Bethel Assembly Of God,128 - 18  115th Avenue,S. Ozone Park,NY,11420,04/30/2008,2019-5885,11/06/2019,11/30/2020,Active,Renew,4,40.679292,-73.811549,10,28,176,4574874,4116720008,South Ozone Park,POINT (-73.811549 40.679292)
Merkos L'Inyonei Chinuch,784 Eastern Parkway,Brooklyn,NY,11213,05/21/2008,2019-5823,09/23/2019,09/30/2020,Active,Renew,3,40.669422,-73.942705,9,35,337,3033034,3012710035,Crown Heights North,POINT (-73.942705 40.669422)
Faith Life Ministries,285 Buffalo Avenue,Brooklyn,NY,11213,05/07/2008,2019-5781,09/05/2019,08/31/2020,Active,Renew,3,40.669157,-73.925511,8,41,359,3037415,3013930007,Crown Heights North,POINT (-73.925511 40.669157)
"Eight Church Of Christ, Scientist",103 East 77TH Street,New York,NY,10021,09/07/2010,2019-5788,09/13/2019,09/30/2020,Active,Renew,1,40.774164,-73.961072,8,4,140,1043185,1014120005,Upper East Side-Carnegie Hill,POINT (-73.961072 40.774164)
Jewish Center Of Kings Highway,1202 Avenue P,Brooklyn,NY,11229,08/16/2010,2019-5738,08/08/2019,08/31/2020,Active,Renew,3,40.610107,-73.961218,15,48,554,3182326,3067750001,Homecrest,POINT (-73.961218 40.610107)
"New Beginnings Christian Life Center, Inc.",658 Hancock Street,Brooklyn,NY,11233,04/21/2017,2019-5547,05/06/2019,05/31/2020,Active,Renew,3,40.684944,-73.929012,3,36,383,3046207,3016620011,Stuyvesant Heights,POINT (-73.929012 40.684944)
Covenant Church,23-17 Francis Lewis Boulevard,Whitestone,NY,11357,05/19/2008,2019-5742,08/27/2019,08/31/2020,Active,Renew,4,40.776544,-73.799756,7,19,1017,4129168,4057590023,Ft. Totten-Bay Terrace-Clearview,POINT (-73.799756 40.776544)
Jesus' Witness Church,90-53 210th Street,Queens Village,NY,11428,05/14/2008,2019-5769,09/03/2019,09/30/2020,Active,Renew,4,40.718759,-73.753314,13,23,496,4225217,4105630001,Queens Village,POINT (-73.753314 40.718759)
Christian Church John 3:16,102-07 43rd Avenue,Corona,NY,11368,04/29/2008,2019-5889,11/06/2019,11/30/2020,Active,Renew,4,40.747267,-73.862518,4,21,405,4048572,4019770004,North Corona,POINT (-73.862518 40.747267)
Purpose Life Church,4021 Flatlands Ave,Brooklyn,NY,11234,05/09/2017,2019-5816,09/23/2019,10/31/2020,Active,Renew,3,40.622405,-73.933574,18,45,736,3217295,3078220001,Flatlands,POINT (-73.933574 40.622405)
The New Move of God Pentecostal Church,327 Bolton Avenue,Bronx,NY,10473,04/11/2018,2019-5523,04/26/2019,04/30/2020,Active,Renew,2,40.812152,-73.857005,9,18,2,2020480,2034730049,Soundview-Castle Hill-Clason Point-Harding Park,POINT (-73.857005 40.812152)
Pentecostal Christian Church John 3:16,85 Forbell Street,Brooklyn,NY,11208,12/27/2016,2019-5814,09/23/2019,10/31/2020,Active,Renew,3,40.681283,-73.864771,5,37,1186,3093888,3041790001,Cypress Hills-City Line,POINT (-73.864771 40.681283)
St. John's Evangelical Lutheran Church,"155 Milton Street, P O Box 72",Brooklyn,NY,11222,09/16/2015,2019-5849,10/09/2019,10/31/2020,Active,Renew,,,,,,,,,,
Cypress Hills Assembly of God,197-199 Highland Place,Brooklyn,NY,11208,06/20/2012,2019-5647,07/09/2019,07/31/2020,Active,Renew,3,40.680326,-73.880907,5,37,1174,3088177,3039590012,Cypress Hills-City Line,POINT (-73.880907 40.680326)
Mt. Zion AME,1765 Madison Avenue,New York,NY,10029,05/23/2008,2019-5901,11/06/2019,11/30/2020,Active,Renew,1,40.799876,-73.944915,11,8,184,1051651,1016210050,East Harlem North,POINT (-73.944915 40.799876)
St. Nicholas Antiochian Orthodox Cathedral,355 State Street,Brooklyn,NY,11217,05/28/2008,2019-5908,11/06/2019,11/30/2020,Active,Renew,3,40.68779,-73.984953,2,33,41,3000543,3001710039,DUMBO-Vinegar Hill-Downtown Brooklyn-Boerum Hill,POINT (-73.984953 40.68779)
Greek Orthodox Church Of St. John The Baptist,143 East 17th Street,New York,NY,10003,07/03/2012,2019-5691,07/26/2019,07/31/2020,Active,Renew,1,40.735645,-73.986815,6,2,50,1017852,1008730032,Gramercy,POINT (-73.986815 40.735645)
St. Demetrios Greek Orthodox Church,84-35 152nd Street,Jamaica,NY,11432,05/23/2008,2019-5493,04/04/2019,04/30/2020,Active,Renew,4,40.713072,-73.807973,8,24,230,4208741,4097490036,Briarwood-Jamaica Hills,POINT (-73.807973 40.713072)
Jewish Center Torath Emeth,78-15 Parsons Boulevard,Flushing,NY,11366,04/01/2011,2019-5599,06/10/2019,06/30/2020,Active,Renew,4,40.721959,-73.809697,8,24,1257,4147910,4068290001,Kew Gardens Hills,POINT (-73.809697 40.721959)
St. John-St. Matthew-Emanuel Lutheran Church,283 Prospect Ave.,Brooklyn,NY,11215,04/13/2015,2019-5503,04/10/2019,04/30/2020,Active,Renew,3,40.663323,-73.989165,7,39,141,3337801,3010530073,Park Slope-Gowanus,POINT (-73.989165 40.663323)
Fordham Evangelical Lutheran Church,2430 Walton Avenue,Bronx,NY,10468,05/08/2008,2019-5585,06/03/2019,05/31/2020,Active,Renew,2,40.861624,-73.900791,5,14,239,2014022,2031840030,Fordham South,POINT (-73.900791 40.861624)
Islamic Guidance Center,543 Atlantic Avenue,Brooklyn,NY,11217,05/13/2008,2019-5812,09/23/2019,10/31/2020,Active,Renew,3,40.684893,-73.97957,2,33,39,3000803,3001800050,DUMBO-Vinegar Hill-Downtown Brooklyn-Boerum Hill,POINT (-73.97957 40.684893)
Jewish Center Nachlath Zion,2201 East 23rd Street,Brooklyn,NY,11229,05/14/2008,2019-5526,04/29/2019,04/30/2020,Active,Renew,3,40.597223,-73.948043,15,48,59401,3336728,3073820001,Sheepshead Bay-Gerritsen Beach-Manhattan Beach,POINT (-73.948043 40.597223)
Neighborhood Church of Greenwich Village,269 Bleecker Street,New York,NY,10014,05/19/2008,2019-5659,07/09/2019,07/31/2020,Active,Renew,1,40.731421,-74.003099,2,3,67,1010131,1005900007,West Village,POINT (-74.003099 40.731421)
Long Island City Gospel Church,12-11 40th avenue,Long Island Cit,NY,11101,11/18/2016,2019-5900,11/06/2019,11/30/2020,Active,Renew,4,40.755973,-73.942645,1,26,85,4005332,4004720624,Queensbridge-Ravenswood-Long Island City,POINT (-73.942645 40.755973)
Havurat Yisrael,106-20 70th Avenue,Forest Hills,NY,11375,06/06/2019,2019-5780,09/04/2019,09/30/2020,Active,New,4,40.721224,-73.846785,6,29,711,4439623,4032387503,Forest Hills,POINT (-73.846785 40.721224)
Congregation Bnai Jeshurun,257 West 88th Street,New York,NY,10024,06/17/2013,2019-5592,06/10/2019,06/30/2020,Active,Renew,1,40.789945,-73.976302,7,6,175,1033290,1012360005,Upper West Side,POINT (-73.976302 40.789945)
Metropolitan Koryo United Methodist Church,150 East 62nd Street,New York,NY,10065,05/01/2013,2019-5581,05/30/2019,05/31/2020,Active,Renew,1,40.763881,-73.966298,8,4,11402,1041990,1013960044,Upper East Side-Carnegie Hill,POINT (-73.966298 40.763881)
Dewitt Reformed Church,280 Rivington Street,New York,NY,10002,04/26/2010,2019-5648,07/09/2019,07/31/2020,Active,Renew,1,40.717468,-73.979726,3,2,1002,1004060,1003230073,Lower East Side,POINT (-73.979726 40.717468)
Jubilee Baptist Church  Inc.,3306 White Plains Road,Bronx,NY,10467,05/09/2018,2019-5545,05/03/2019,05/31/2020,Active,Renew,2,40.873486,-73.867077,12,12,374,2056303,2046000003,Williamsbridge-Olinville,POINT (-73.867077 40.873486)
Battalion Pentecostal Assembly,454 Beach 67th Street,Arverne,NY,11692,04/28/2008,2019-5924,11/18/2019,08/31/2020,Active,Renew,4,40.593999,-73.796263,14,31,964,4438906,4160400024,Hammels-Arverne-Edgemere,POINT (-73.796263 40.593999)
Solid Rock Baptist Church,120 Tompkins Avenue,Brooklyn,NY,11206,03/04/2014,2019-5619,06/13/2019,05/31/2020,Active,Renew,3,40.695189,-73.946279,3,36,25901,3048647,3017550046,Bedford,POINT (-73.946279 40.695189)
Crossroads SDA Church,410 West 45th Street,New York,NY,10036,07/01/2011,2019-5728,08/02/2019,07/31/2020,Active,Renew,1,40.760601,-73.991835,4,3,121,1026422,1010540039,Clinton,POINT (-73.991835 40.760601)
Templo De La Fe Viva. Inc.,4221 Park Avenue,Bronx,NY,10457,03/21/2016,2019-5668,07/09/2019,07/31/2020,Active,Renew,2,40.847984,-73.899156,6,15,379,2011095,2030270041,Mount Hope,POINT (-73.899156 40.847984)
Apostolic Faith Church Mission,265 Lafayette Avenue,Brooklyn,NY,11238,10/02/2010,2019-5915,11/08/2019,10/31/2020,Active,Renew,3,40.688236,-73.965669,2,35,197,3055341,3019320001,Clinton Hill,POINT (-73.965669 40.688236)
Oversea Chinese Mission,154 Hester Street,New York,NY,10013,05/20/2008,2019-5772,09/03/2019,09/30/2020,Active,Renew,1,40.717656,-73.996526,2,1,41,1002618,1002040016,SoHo-TriBeCa-Civic Center-Little Italy,POINT (-73.996526 40.717656)
Holy Cross Greek Orthodox Church,150-05 12th Avenue,Whitestone,NY,11357,07/24/2008,2019-5597,06/10/2019,06/30/2020,Active,Renew,4,40.790835,-73.814155,7,19,981,4541690,4045160001,Whitestone,POINT (-73.814155 40.790835)
St. Stephen's Lutheran Church,2806 Newkirk Avenue,New York,NY,11226,04/28/2015,2019-5511,04/16/2019,04/30/2020,Active,Renew,3,40.639872,-73.950135,17,45,828,3120497,3052150037,Erasmus,POINT (-73.950135 40.639872)
Islamic Mission of America,143 State Street,Brooklyn,NY,11201,05/13/2008,2019-5899,11/06/2019,11/30/2020,Active,Renew,3,40.69073,-73.993408,2,33,9,3002669,3002700019,Brooklyn Heights-Cobble Hill,POINT (-73.993408 40.69073)
ReHoboth Cathedral International,55 Macdougal Street,Brooklyn,NY,11233,09/21/2011,2019-5817,09/23/2019,10/31/2020,Active,Renew,3,40.679238,-73.920117,3,41,379,3041441,3015240041,Stuyvesant Heights,POINT (-73.920117 40.679238)
"Missionary Church Of Christ, Inc.",937 Teller Avenue,Bronx,NY,10451,08/24/2015,2019-5771,09/03/2019,09/30/2020,Active,Renew,2,40.82612,-73.915561,4,17,173,2001966,2024220035,East Concourse-Concourse Village,POINT (-73.915561 40.82612)
Holy Innocents Church,128 West 37th Street,New York,NY,10018,12/23/2014,2019-5579,05/29/2019,05/31/2020,Active,Renew,1,40.752339,-73.987938,5,3,109,1015251,1008120161,Midtown-Midtown South,POINT (-73.987938 40.752339)
Iglesia Nueva Vida,33- 66 54th Street,Woodside,NY,11377,02/16/2019,2019-5834,10/02/2019,10/31/2020,Active,New,4,40.751863,-73.907552,2,26,255,4027257,4011920088,Woodside,POINT (-73.907552 40.751863)
First United Methodist Church of Corona,42-15 104th St.,Corona,NY,11368,07/13/2017,2019-5809,09/23/2019,10/31/2020,Active,Renew,4,40.748193,-73.860824,4,21,403,4437337,4019860078,North Corona,POINT (-73.860824 40.748193)
Thessalonica Christian Church,313 Saint Ann's Avenue,Bronx,NY,10454,10/17/2016,2019-5914,11/07/2019,11/30/2020,Active,Renew,2,40.808963,-73.916089,1,8,41,2000099,2022680048,Mott Haven-Port Morris,POINT (-73.916089 40.808963)
First Roumanian American Congregation,89 Rivington Street,New York,NY,10002,05/08/2008,2019-5541,05/03/2019,05/31/2020,Active,Renew,1,40.72022,-73.988849,3,1,18,1079695,1004100013,Chinatown,POINT (-73.988849 40.72022)
Congregation Ohr Shraga D'veretzky,1102 Avenue L,Brooklyn,NY,11230,06/08/2016,2019-5703,08/01/2019,08/31/2020,Active,Renew,3,40.619994,-73.964101,14,44,768,3329237,3067310001,Midwood,POINT (-73.964101 40.619994)
Merkaz Hatefillah,1898 Bay Avenue,Brooklyn,NY,11230,05/21/2008,2019-5636,07/08/2019,06/30/2020,Active,Renew,3,40.617961,-73.956239,14,48,538,3329246,3067470015,Midwood,POINT (-73.956239 40.617961)
Church of the Holy Apostles,296 Ninth Avenue,New York,NY,10001,06/24/2019,2019-5634,07/08/2019,07/31/2020,Active,New,1,40.74912,-73.999401,4,3,97,1013463,1007510076,Hudson Yards-Chelsea-Flatiron-Union Square,POINT (-73.999401 40.74912)
Apostolic Gospel Church of Christ Inc,99-105 Chester Street,Brooklyn,NY,11212,01/20/2010,2019-5590,06/10/2019,06/30/2020,Active,Renew,3,40.669032,-73.911521,16,41,924,3326591,3035210033,Brownsville,POINT (-73.911521 40.669032)
Congregation Kehilath Jeshurum,117 East 85th Street,New York,NY,10028,05/05/2008,2019-5535,05/03/2019,05/31/2020,Active,Renew,1,40.779183,-73.956935,8,4,14801,1047929,1015140013,Upper East Side-Carnegie Hill,POINT (-73.956935 40.779183)
Knickerbocker United Methodist Church,484 Knickerbocker Avenue,Brooklyn,NY,11237,05/15/2008,2019-5709,08/01/2019,08/31/2020,Active,Renew,3,40.698381,-73.917616,4,37,433,3075669,3033070034,Bushwick North,POINT (-73.917616 40.698381)
New York  Bethzatha Church of God,208 - 01  43rd Ave,Bayside,NY,11361,09/01/2015,2019-5615,06/12/2019,06/30/2020,Active,Renew,4,40.75987,-73.775975,11,19,1467,4138097,4062720037,Bayside-Bayside Hills,POINT (-73.775975 40.75987)
"Adonijah Fellowship, Inc",549 Gates Avenue,Brooklyn,NY,11216,04/03/2013,2019-5499,04/10/2019,04/30/2020,Active,Renew,3,40.68688,-73.944922,3,36,265,3050964,3018090045,Bedford,POINT (-73.944922 40.68688)
Brooklyn Miracle Temple,333 Rogers Avenue,Brooklyn,NY,11225,05/05/2008,2019-5760,09/03/2019,09/30/2020,Active,Renew,3,40.665112,-73.953717,9,35,321,3330690,3013050005,Crown Heights South,POINT (-73.953717 40.665112)
Calvary Assembly of God,102-07 Rockaway Boulevard,Ozone Park,NY,11417,04/28/2008,2019-5888,11/06/2019,11/30/2020,Active,Renew,4,40.679703,-73.837608,10,32,94,4438644,4095250040,South Ozone Park,POINT (-73.837608 40.679703)
Unity Church Of New York,225 West 99th Street,New York,NY,10025,11/18/2014,2019-5920,11/14/2019,11/30/2020,Active,Renew,1,40.796259,-73.969564,7,7,187,1084035,1018710029,Upper West Side,POINT (-73.969564 40.796259)
"Beulah Church Of God In Christ Jesus, Inc.",956 Marcy Avenue,Brooklyn,NY,11216,11/12/2010,2019-5886,11/06/2019,11/30/2020,Active,Renew,3,40.680642,-73.946297,3,36,249,3329701,3018500032,Bedford,POINT (-73.946297 40.680642)
Immaculate Heart of Mary Roman Catholic Church,2805 Fort Hamilton Parkway,Brooklyn,NY,11218,05/13/2008,2019-5653,07/09/2019,07/31/2020,Active,Renew,3,40.649125,-73.976771,7,39,500,3122827,3052830061,Windsor Terrace,POINT (-73.976771 40.649125)
Christian Heritage Church,740 40th Street,Brooklyn,NY,11232,08/22/2017,2019-5746,08/27/2019,09/30/2020,Active,Renew,3,40.647462,-73.999132,7,38,90,3018068,3009190016,Sunset Park East,POINT (-73.999132 40.647462)
Evangelical Immanuel Lutheran Church,149-40 11th Avenue,Whitestone,NY,11357,07/24/2008,2019-5694,07/26/2019,07/31/2020,Active,Renew,4,40.791217,-73.815963,7,19,981,4102411,4045030021,Whitestone,POINT (-73.815963 40.791217)
Vision Pentecostal Church Inc,1050 Utica Avenue,Brooklyn,NY,11203,01/25/2010,2019-5922,11/15/2019,09/30/2020,Active,Renew,3,40.64727,-73.929914,17,45,850,3104298,3047340019,East Flatbush-Farragut,POINT (-73.929914 40.64727)
Agudath Israel of Madison,2122 Avenue S,Brooklyn,NY,11229,04/25/2008,2019-5883,11/06/2019,11/30/2020,Active,Renew,3,40.604163,-73.950969,15,48,560,3254097,3073000008,Madison,POINT (-73.950969 40.604163)
Church of God - Remsen Avenue,627-29 Remsen Avenue,Brooklyn,NY,11236,04/29/2008,2019-5844,10/04/2019,09/30/2020,Active,Renew,3,40.651657,-73.918683,17,42,888,3103338,3047110012,Rugby-Remsen Village,POINT (-73.918683 40.651657)
Ridgewood Presbyterian Church,59-14 70 Avenue,Ridgewood,NY,11385,11/22/2011,2019-5490,04/04/2019,04/30/2020,Active,Renew,4,40.701191,-73.900024,5,30,583,4084122,4035080009,Ridgewood,POINT (-73.900024 40.701191)
Saint Paul Tabernacle Inc,2239 Pitkin Ave,Brooklyn,NY,11207,02/23/2018,2019-5553,05/06/2019,05/31/2020,Active,Renew,3,40.672801,-73.889785,5,37,1152,3088790,3039940031,East New York,POINT (-73.889785 40.672801)
Congregation Anshei Breslov,204 Lee Avenue,Brooklyn,NY,11206,05/05/2008,2019-5591,06/10/2019,06/30/2020,Active,Renew,3,40.701723,-73.955488,1,33,531,3061122,3022310038,Bedford,POINT (-73.955488 40.701723)
Congregation And Yeshiva Heichal Moshe,303 West 91st Street,New York,NY,10024,05/03/2013,2019-5750,08/27/2019,08/31/2020,Active,Renew,1,40.792185,-73.975785,7,6,179,1034100,1012510053,Upper West Side,POINT (-73.975785 40.792185)
Hebron Baptist Church,450 Fountain Avenue,Brooklyn,NY,11208,05/12/2008,2019-5651,07/09/2019,07/31/2020,Active,Renew,3,40.668823,-73.873426,5,42,1118,3327469,3044580030,East New York,POINT (-73.873426 40.668823)
Almarwa Center,24-30 Steinway Street,Astoria,NY,11103,07/19/2017,2019-5673,07/10/2019,07/31/2020,Active,Renew,4,40.768584,-73.911179,1,22,143,4010273,4006540056,Astoria,POINT (-73.911179 40.768584)
New Life Ministries Inc,347 East 49th Street,Brooklyn,NY,11203,05/19/2008,2019-5828,09/26/2019,08/31/2020,Active,Renew,3,40.653285,-73.931547,17,41,868,3102073,3046750001,Rugby-Remsen Village,POINT (-73.931547 40.653285)
Agape Christian Center,59-02 SummerField Street,Ridgewood,NY,11385,04/25/2008,2019-5639,07/09/2019,07/31/2020,Active,Renew,4,40.699452,-73.897837,5,34,557,4086718,4035890001,Ridgewood,POINT (-73.897837 40.699452)
Church of St. Lucy,833 Mace Avenue,Bronx,NY,10467,11/02/2018,2019-5891,11/06/2019,11/30/2020,Active,Renew,2,40.86313,-73.862427,11,13,328,2051535,2044410005,Bronxdale,POINT (-73.862427 40.86313)
Trinity Evangelical Lutheran Church,2125 Watson Avenue,Bronx,NY,10472,05/11/2018,2019-5721,08/01/2019,08/31/2020,Active,Renew,2,40.829501,-73.852614,9,18,78,2026420,2038090018,Westchester-Unionport,POINT (-73.852614 40.829501)
Christian Church Of Christ The King Is Coming,2414 Valentine Avenue,Bronx,NY,10458,04/07/2015,2019-5858,10/16/2019,10/31/2020,Active,Renew,2,40.859639,-73.896984,5,15,39902,2013455,2031470016,Bedford Park-Fordham North,POINT (-73.896984 40.859639)
St. Barbara Greek Orthodox Church,27 Forsyth Street,New York,NY,10002,01/22/2010,2019-5631,06/26/2019,06/30/2020,Active,Renew,1,40.715397,-73.994391,3,1,16,1003758,1002920008,Chinatown,POINT (-73.994391 40.715397)
Church of God of Prophecy,1243 Bushwick Avenue,Brooklyn,NY,11221,05/01/2008,2019-5761,09/03/2019,09/30/2020,Active,Renew,3,40.687578,-73.914749,4,37,399,3078191,3033950001,Bushwick South,POINT (-73.914749 40.687578)
Mikdash Eliyahu,400 Avenue U,Brooklyn,NY,11223,07/19/2017,2019-5710,08/01/2019,08/31/2020,Active,Renew,3,40.597404,-73.969313,15,47,396,3192819,3071297501,Homecrest,POINT (-73.969313 40.597404)
Grace United Methodist Church,200-08 Murdock Avenue,St. Albans,NY,11412,08/15/2014,2019-5734,08/07/2019,08/31/2020,Active,Renew,4,40.700045,-73.754501,12,27,520,4236681,4110170001,St. Albans,POINT (-73.754501 40.700045)
St. Matthew's Baptist Church,43 Macombs Place,New York,NY,10039,10/21/2013,2019-5878,11/01/2019,10/31/2020,Active,Renew,1,40.826406,-73.938332,10,9,236,1060605,1020370005,Central Harlem North-Polo Grounds,POINT (-73.938332 40.826406)
Hollis Hills Bayside Jewish Center,210-10 Union Turnpike,Flushing,NY,11364,05/12/2008,2019-5898,11/06/2019,11/30/2020,Active,Renew,4,40.733374,-73.760595,11,23,129102,4164607,4077840045,Oakland Gardens,POINT (-73.760595 40.733374)
Hungarian Baptist Church,225 East 80th Street,New York,NY,10075,05/12/2008,2019-5570,05/13/2019,05/31/2020,Active,Renew,1,40.77467,-73.956071,8,5,138,1048527,1015260012,Yorkville,POINT (-73.956071 40.77467)
Church of St. Teresa,141 Henry Street,New York,NY,10002,05/02/2008,2019-5702,08/01/2019,08/31/2020,Active,Renew,1,40.713344,-73.990683,3,1,6,1003566,1002830017,Lower East Side,POINT (-73.990683 40.713344)
Ling Liang Worldwide Evangelistic Mission Inc,177 East Broadway,New York,NY,10002,05/15/2008,2019-5730,08/05/2019,08/31/2020,Active,Renew,1,40.714107,-73.989539,3,1,6,1003622,1002840022,Lower East Side,POINT (-73.989539 40.714107)
East Midwood Jewish Center,1625 Ocean Avenue,Brooklyn,NY,11230,05/06/2008,2019-5739,08/08/2019,05/31/2020,Active,Renew,3,40.622341,-73.955743,14,45,760,3208316,3076200025,Midwood,POINT (-73.955743 40.622341)
The Remnant Presbyterian Church,206 East 29TH Street,New York,NY,10016,10/13/2011,2019-5820,09/23/2019,10/31/2020,Active,Renew,1,40.742399,-73.979986,6,2,66,1019909,1009090050,Murray Hill-Kips Bay,POINT (-73.979986 40.742399)
Congregation Toras Emes of Staten Island,3151 Hylan Boulevard,Staten Island,NY,10306,05/06/2008,2019-5747,08/27/2019,08/31/2020,Active,Renew,5,40.559269,-74.125125,3,50,13204,5063411,5047140001,Oakwood-Oakwood Beach,POINT (-74.125125 40.559269)
The Riverside Church In The City Of New York,490 Riverside Drive,New York,NY,10027,03/11/2013,2019-5506,04/10/2019,04/30/2020,Active,Renew,1,40.812319,-73.963268,9,7,205,1081792,1019910032,Morningside Heights,POINT (-73.963268 40.812319)
United Christian Baptist Church,713 East 222nd Street,Bronx,NY,10467,10/31/2019,2019-5879,11/01/2019,11/30/2020,Active,New,2,40.885448,-73.860844,12,12,396,2063318,2048360040,Williamsbridge-Olinville,POINT (-73.860844 40.885448)
Emmanuel Episcopal Church,2635 East 23rd Street,Brooklyn,NY,11235,05/06/2008,2019-5791,09/16/2019,09/30/2020,Active,Renew,3,40.587769,-73.946725,15,48,600,3205176,3074680080,Sheepshead Bay-Gerritsen Beach-Manhattan Beach,POINT (-73.946725 40.587769)
Fellowship Moravian Church,1950 Bedford Avenue,Brooklyn,NY,11225,04/22/2019,2019-5569,05/10/2019,05/31/2020,Active,New,3,40.65734,-73.956559,9,40,79601,3115676,3050450051,Prospect Lefferts Gardens-Wingate,POINT (-73.956559 40.65734)
Antioch Baptist Church,828 Greene Avenue,Brooklyn,NY,11221,04/25/2008,2019-5532,05/03/2019,05/31/2020,Active,Renew,3,40.690248,-73.935032,3,36,291,3044038,3016200025,Stuyvesant Heights,POINT (-73.935032 40.690248)
Gustavus Adolphus Lutheran Church,155 E 22nd St.,New York,NY,10010,09/19/2019,2019-5838,10/02/2019,10/31/2020,Active,New,1,40.738579,-73.984592,6,2,68,1018018,1008780034,Gramercy,POINT (-73.984592 40.738579)
Trinity Baptist Church,808 Rev Dr Nathaniel Tyler Lloyd Pl,Bronx,NY,10466,10/26/2015,2019-5870,10/29/2019,10/31/2020,Active,Renew,,,,,,,,,,
Latin American Pentecostal Church of God Inc,115-125 East 125th Street,New York,NY,10035,07/24/2008,2019-5600,06/10/2019,06/30/2020,Active,Renew,1,40.80475,-73.938287,11,9,196,1054477,1017740009,East Harlem North,POINT (-73.938287 40.80475)
Riverdale Temple,4545 Independence Ave,Riverdale,NY,10471,02/10/2012,2019-5903,11/06/2019,11/30/2020,Active,Renew,2,40.891762,-73.912208,8,11,309,2088698,2059200456,North Riverdale-Fieldston-Riverdale,POINT (-73.912208 40.891762)
St. Dumitru Romanian Orthodox Church,50 West 89th Street,New York,NY,10024,05/23/2008,2019-5841,10/03/2019,10/31/2020,Active,Renew,1,40.787943,-73.969662,7,6,173,1031527,1012020052,Upper West Side,POINT (-73.969662 40.787943)
Ma Yoga Shakti International Mission,114-41 Lefferts Blvd,South Ozone Par,NY,11420,04/30/2018,2019-5601,06/10/2019,06/30/2020,Active,Renew,4,40.677991,-73.820115,10,28,166,4251274,4116460041,South Ozone Park,POINT (-73.820115 40.677991)
Magen David Yeshiva,2130 McDonald Ave,Brooklyn,NY,11223,03/16/2015,2019-5512,04/16/2019,04/30/2020,Active,Renew,3,40.600594,-73.972743,11,47,410,3190438,3070870076,Bensonhurst East,POINT (-73.972743 40.600594)
Nativity of the Blessed Virgin Mary R.C. Church,101-41 91st Street,Ozone Park,NY,11416,05/23/2008,2019-5658,07/09/2019,07/31/2020,Active,Renew,4,40.683015,-73.849274,9,32,4001,4189187,4090980042,Woodhaven,POINT (-73.849274 40.683015)
Gethsemane Garden Baptist Church,223 E. 7th Street,New York,NY,10009,03/12/2019,2019-5564,05/07/2019,05/31/2020,Active,New,1,40.724316,-73.979389,3,2,2602,1088352,1003907502,Lower East Side,POINT (-73.979389 40.724316)
St. Luke Christian Church,26 Rockaway Avenue,Brooklyn,NY,11233,05/27/2008,2019-5907,11/06/2019,11/30/2020,Active,Renew,3,40.682841,-73.911755,16,41,373,3040954,3015110036,Ocean Hill,POINT (-73.911755 40.682841)
Central Presbyterian Church,593 Park Avenue,New York,NY,10021,04/28/2008,2019-5929,11/25/2019,11/30/2020,Active,Renew,1,40.765795,-73.967683,8,4,120,1042124,1013980072,Upper East Side-Carnegie Hill,POINT (-73.967683 40.765795)
Hindu Learning Foundation Inc.,81-43 Liberty Avenue,Ozone Park,NY,11417,05/10/2018,2019-5582,05/30/2019,05/31/2020,Active,Renew,4,40.679581,-73.85579,9,32,52,4188919,4090830041,Woodhaven,POINT (-73.85579 40.679581)
The Universal Church Inc,68-03 Roosevelt Avenue,Woodsid,NY,11377,05/02/2018,2019-5559,05/06/2019,05/31/2020,Active,Renew,4,40.746323,-73.896517,2,26,263,4458806,4012230001,Woodside,POINT (-73.896517 40.746323)
"Pentecostal Tabernacle, Inc.",660 E 180th Street,Bronx,NY,10457,07/27/2017,2019-5622,06/14/2019,06/30/2020,Active,New,2,40.84853,-73.88966,6,15,373,2012340,2030800083,East Tremont,POINT (-73.88966 40.84853)
Gita Temple Ashram,34-63 56th Street,Woodside,NY,11377,06/13/2018,2019-5637,07/08/2019,06/30/2020,Active,Renew,4,40.752232,-73.905386,2,26,257,4027288,4011950007,Woodside,POINT (-73.905386 40.752232)
Mision Asamblea Pentecostal,118 Bushwick Avenue,Brooklyn,NY,11206,05/13/2008,2019-5711,08/01/2019,08/31/2020,Active,Renew,3,40.711331,-73.940451,1,34,495,3069643,3027900029,East Williamsburg,POINT (-73.940451 40.711331)
Fordham Manor Reformed Church,2705 Reservoir Avenue,Bronx,NY,10468,01/24/2011,2019-5864,10/22/2019,10/31/2020,Active,New,2,40.868921,-73.899529,8,14,26701,2094707,2032480240,Van Cortlandt Village,POINT (-73.899529 40.868921)
Bethany French Baptist Church,471 Elmont Rd.,Elmont,NY,11003,04/29/2008,2019-5683,07/18/2019,07/31/2020,Active,Renew,,,,,,,,,,
Highland Church,160-20 Highland Avenue,Jamaica,NY,11432,07/12/2010,2019-5787,09/13/2019,08/31/2020,Active,Renew,4,40.709347,-73.801689,8,24,44602,4209075,4097700024,Jamaica,POINT (-73.801689 40.709347)
Wayside Baptist Church,1746-60 Broadway,Brooklyn,NY,11207,06/25/2012,2019-5670,07/09/2019,07/31/2020,Active,Renew,3,40.682939,-73.910522,16,37,369,3040992,3015120022,Ocean Hill,POINT (-73.910522 40.682939)
Emmaus Bible Chapel Inc.,1250 East Gun Hill Road,Bronx,NY,10469,08/16/2011,2019-5783,09/10/2019,09/30/2020,Active,Renew,2,40.872343,-73.850657,11,12,348,2056810,2046190017,Allerton-Pelham Gardens,POINT (-73.850657 40.872343)
Immaculate Conception Church,414 E 14th Street,New York,NY,10009,08/13/2013,2019-5725,08/01/2019,08/31/2020,Active,Renew,1,40.731049,-73.981819,3,2,34,1006013,1004410012,East Village,POINT (-73.981819 40.731049)
Yeshivat Or Hatorah,2119 Homecrest Avenue,Brooklyn,NY,11229,05/30/2008,2019-5628,06/24/2019,06/30/2020,Active,Renew,3,40.597936,-73.959061,15,48,582,3199477,3073450070,Homecrest,POINT (-73.959061 40.597936)
Calvary Pentecostal Church Inc,151 Woodruff Ave,Brooklyn,NY,11226,05/12/2016,2019-5701,08/01/2019,08/31/2020,Active,Renew,3,40.654328,-73.961131,14,40,50803,3115939,3050540062,Flatbush,POINT (-73.961131 40.654328)
Second Evangelical Free Church,5201 8th Avenue,Brooklyn,NY,11220,05/22/2008,2019-5605,06/10/2019,06/30/2020,Active,Renew,3,40.639908,-74.004954,12,38,106,3138446,3056580008,Sunset Park East,POINT (-74.004954 40.639908)
Congregation Ahavath Chesed,309 West 89th St.,New York,NY,10024,03/09/2016,2019-5727,08/02/2019,08/31/2020,Active,Renew,1,40.791016,-73.976905,7,6,175,1034044,1012500086,Upper West Side,POINT (-73.976905 40.791016)
Saint Albans Baptist Church,196-02 119th Avenue,Saint Albans,NY,11412,07/21/2016,2019-5749,08/27/2019,08/31/2020,Active,Renew,4,40.690738,-73.754568,12,27,376,4272690,4126520004,St. Albans,POINT (-73.754568 40.690738)
"Emmanuel Full Gospel Assemblies, Inc.",87-34-85th Street,Woodhaven,NY,11421,11/08/2012,2019-5893,11/06/2019,11/30/2020,Active,Renew,,,,,,,,,,
Our Saviour Lutheran Church,414 80th Street,Brooklyn,NY,11209,05/24/2013,2019-5755,08/29/2019,08/31/2020,Active,New,3,40.626829,-74.025967,10,43,138,3151309,3059890006,Bay Ridge,POINT (-74.025967 40.626829)
City Light Community Church,54-12 253rd Street,Little Neck,NY,11362,09/29/2017,2019-5797,09/17/2019,09/30/2020,Active,Renew,4,40.764325,-73.727951,11,19,150702,4171480,4082540024,Douglas Manor-Douglaston-Little Neck,POINT (-73.727951 40.764325)
St. Mark's Episcopal Church,33-50 82nd Street,Jackson Heights,NY,11372,08/22/2011,2019-5714,08/01/2019,08/31/2020,Active,Renew,4,40.754645,-73.885213,3,25,283,4028776,4012540032,Jackson Heights,POINT (-73.885213 40.754645)
Durga Shiva Mandir Inc,1120 Beach Ave,Bronx,NY,10472,06/17/2014,2019-5704,08/01/2019,08/31/2020,Active,Renew,2,40.828427,-73.865552,9,18,70,2092826,2037540016,Soundview-Bruckner,POINT (-73.865552 40.828427)
Nour Foundation Inc,322 West 108th Street,New York,NY,10025,05/20/2008,2019-5863,10/21/2019,10/31/2020,Active,Renew,1,40.803145,-73.968131,7,6,195,1057288,1018920059,Morningside Heights,POINT (-73.968131 40.803145)
Redeemer Assembly of God,315 8th Street,Brooklyn,NY,11215,09/21/2017,2019-5830,10/01/2019,09/30/2020,Active,Renew,3,40.669243,-73.984658,6,39,137,3021923,3009990059,Park Slope-Gowanus,POINT (-73.984658 40.669243)
Alpha Omega Christian Church,1829 Bathgate Avenue,Bronx,NY,10457,04/25/2008,2019-5793,09/16/2019,09/30/2020,Active,Renew,2,40.844929,-73.898116,6,15,395,2009571,2029170037,Claremont-Bathgate,POINT (-73.898116 40.844929)
Church of God of Prophecy All Nations,856 Clarkson Avenue,Brooklyn,NY,11203,05/01/2008,2019-5762,09/03/2019,09/30/2020,Active,Renew,3,40.656687,-73.929695,17,41,868,3100851,3046380002,Rugby-Remsen Village,POINT (-73.929695 40.656687)
Second St Paul Church of Christ Disciples of Chris,1048 Sutter Ave,Brooklyn,NY,11208,04/27/2019,2019-5688,07/23/2019,07/31/2020,Active,Renew,3,40.671608,-73.880036,5,42,1164,3089852,3040530020,East New York,POINT (-73.880036 40.671608)
St. Paul's Church Of The Nazarene,304 Monroe Street,Brooklyn,NY,11216,05/28/2008,2019-5717,08/01/2019,08/31/2020,Active,Renew,3,40.685926,-73.946553,3,36,265,3051456,3018190012,Bedford,POINT (-73.946553 40.685926)
Gethsemane Baptist Church,771 Fairmount Place,Bronx,NY,10460,10/16/2019,2019-5925,11/19/2019,11/30/2020,Active,New,2,40.842956,-73.889532,6,17,36502,2115661,2029550001,East Tremont,POINT (-73.889532 40.842956)
Grace Church of God,35 Blake Avenue,Brooklyn,NY,11212,04/14/2009,2019-5866,10/25/2019,10/31/2020,Active,Renew,3,40.664108,-73.919983,16,41,900,3081206,3035330010,Brownsville,POINT (-73.919983 40.664108)
Eglise Baptiste De La Communion Fraternelle Inc.,2549 Church Avenue,Brooklyn,NY,11226,05/06/2008,2019-5928,11/22/2019,09/30/2020,Active,Replace,3,40.650647,-73.953313,17,40,822,3116923,3050900061,Prospect Lefferts Gardens-Wingate,POINT (-73.953313 40.650647)
St. Brigid & St. Emeric Church,119 Avenue B,New York,NY,10009,05/23/2008,2019-5557,05/06/2019,05/31/2020,Active,Renew,1,40.725406,-73.980958,3,2,2602,1004732,1003900105,Lower East Side,POINT (-73.980958 40.725406)
Our Lady of Mercy Roman Catholic Church,70-01 Kessel Street,Forest Hills,NY,11375,05/20/2008,2019-5549,05/06/2019,05/31/2020,Active,Renew,4,40.713984,-73.850964,6,29,729,4077259,4032250001,Forest Hills,POINT (-73.850964 40.713984)
Paradise Baptist Church,23 Fort Washington Avenue,New York,NY,10032,05/21/2008,2019-5661,07/09/2019,07/31/2020,Active,Renew,1,40.835936,-73.944683,12,7,247,1063317,1021360053,Washington Heights South,POINT (-73.944683 40.835936)
Full Gospel Assembly,836 Franklin Avenue,Brooklyn,NY,11225,05/08/2008,2019-5896,11/06/2019,11/30/2020,Active,Renew,3,40.669382,-73.958448,9,35,213,3029692,3011870053,Crown Heights South,POINT (-73.958448 40.669382)
Saint Nicholas Romanian Orthodox Church,45-03 48th Avenue,Woodside,NY,11377,09/16/2016,2019-5786,09/10/2019,09/30/2020,Active,Renew,4,40.739408,-73.920239,2,26,18502,4002055,4001700061,Hunters Point-Sunnyside-West Maspeth,POINT (-73.920239 40.739408)
Grace Presbyterian Church,201-03 29th Avenue,Bayside,NY,11360,10/02/2010,2019-5810,09/23/2019,10/31/2020,Active,Renew,4,40.771321,-73.788962,11,19,1085,4443990,4059760037,Bayside-Bayside Hills,POINT (-73.788962 40.771321)
First Church of God In Christ,181 Clove Road,Staten Island,NY,10310,05/08/2008,2019-5538,05/03/2019,05/31/2020,Active,Renew,5,40.635801,-74.126468,1,49,13302,5005396,5002010009,West New Brighton-New Brighton-St. George,POINT (-74.126468 40.635801)
Church Of God,836 Classon Ave,Brooklyn,NY,11238,10/11/2011,2019-5890,11/06/2019,11/30/2020,Active,Renew,3,40.672378,-73.960994,8,35,215,3029560,3011770038,Prospect Heights,POINT (-73.960994 40.672378)
Life Together Fellowship,4102 East Tremont Avenue,Bronx,NY,10465,04/17/2013,2019-5672,07/10/2019,07/31/2020,Active,Renew,2,40.818803,-73.817101,10,13,132,2080749,2055890005,Schuylerville-Throgs Neck-Edgewater Park,POINT (-73.817101 40.818803)
Community Church of New York Unitarian Universalis,40 East 35th Street,New York,NY,10016,05/02/2008,2019-5796,09/17/2019,06/30/2020,Active,Replace,1,40.748212,-73.981973,6,2,74,1017107,1008640047,Midtown-Midtown South,POINT (-73.981973 40.748212)
Queens Chinese Presbyterian Church,"9854 Horace Harding Expy, 2nd Floor",New York,NY,11374,03/01/2019,2019-5729,08/05/2019,08/31/2020,Active,Renew,4,40.735151,-73.85961,6,29,71702,4050486,4020930040,Rego Park,POINT (-73.85961 40.735151)
St. Demetrios Cathedral,30-11 30th Drive,Astoria,NY,11102,05/23/2008,2019-5611,06/10/2019,06/30/2020,Active,Renew,4,40.765527,-73.923356,1,22,63,4441083,4005930001,Astoria,POINT (-73.923356 40.765527)
"Korean Evangelical Church Of NY, Inc",88-28 Corona Avenue,Elmhurst,NY,11373,04/09/2014,2019-5531,05/03/2019,05/31/2020,Active,Renew,4,40.740739,-73.876046,4,25,471,4440584,4018340021,Elmhurst,POINT (-73.876046 40.740739)
Masilas Bais Yaakov,420 19th Street,Brooklyn,NY,11215,07/25/2013,2019-5779,09/04/2019,08/31/2020,Active,Renew,3,40.658278,-73.985313,7,38,1502,3017296,3008880007,Windsor Terrace,POINT (-73.985313 40.658278)
Triumphant Full Gospel Assembly,892-900 Rutland Road,Brooklyn,NY,11203,06/03/2008,2019-5497,04/05/2019,04/30/2020,Active,Renew,3,40.660681,-73.929824,17,41,878,3099663,3046050006,Prospect Lefferts Gardens-Wingate,POINT (-73.929824 40.660681)
Iglesia Cristian Lirio De Los Valles,214-46 42nd Avenue,Bayside,NY,11361,07/21/2015,2019-5768,09/03/2019,09/30/2020,Active,Renew,4,40.762935,-73.768915,11,19,1467,4138343,4062990021,Bayside-Bayside Hills,POINT (-73.768915 40.762935)
Fort George Presbyterian Church,1525 St Nicholas Avenue,New York,NY,10033,05/08/2008,2019-5542,05/03/2019,05/31/2020,Active,Renew,1,40.85263,-73.931324,12,10,271,1063981,1021660082,Washington Heights North,POINT (-73.931324 40.85263)
No Limit Beulah Sabbath Pentecostal Church,5417 Avenue N,Brooklyn,NY,11234,10/30/2018,2019-5882,11/04/2019,10/31/2020,Active,Renew,3,40.619217,-73.922764,18,46,690,3345797,3078790003,Flatlands,POINT (-73.922764 40.619217)
Beth Hamedrash Shaarei Yosher,4102 16th Ave,Brooklyn,NY,11204,02/08/2010,2019-5798,09/18/2019,06/30/2020,Active,Renew,3,40.635449,-73.98093,12,39,230,3125720,3053630042,Borough Park,POINT (-73.98093 40.635449)
Queens Herald Church C&MA,65-15 164th Street,Fresh Meadows,NY,11365,01/22/2010,2019-5552,05/06/2019,05/31/2020,Active,Renew,4,40.736482,-73.804751,8,24,122701,4149115,4069050023,Pomonok-Flushing Heights-Hillcrest,POINT (-73.804751 40.736482)
Congregation Beth Israel-West Side Jewish Center,347 West 34th Street,New York,NY,10001,07/27/2010,2019-5763,09/03/2019,09/30/2020,Active,Renew,1,40.75277,-73.994817,4,3,111,1013557,1007580014,Hudson Yards-Chelsea-Flatiron-Union Square,POINT (-73.994817 40.75277)
Mesivta and Yeshiva Gedolah Of Manhattan Beach,59 West End Avenue,Brooklyn,NY,11235,02/24/2016,2019-5485,04/03/2019,04/30/2020,Active,Renew,3,40.580416,-73.953549,15,48,612,3245815,3087260062,Sheepshead Bay-Gerritsen Beach-Manhattan Beach,POINT (-73.953549 40.580416)
Church of Notre Dame,405 West 114th Street,New York,NY,10025,09/22/2011,2019-5804,09/23/2019,10/31/2020,Active,Renew,1,40.804858,-73.960415,9,7,20101,1056038,1018670014,Morningside Heights,POINT (-73.960415 40.804858)
Fifth Avenue Synagogue,5 East 62nd Street,New York,NY,10065,04/27/2010,2019-5874,11/01/2019,10/31/2020,Active,Renew,1,40.765963,-73.971196,8,4,11401,1040886,1013770007,Upper East Side-Carnegie Hill,POINT (-73.971196 40.765963)
Greater Metropolitan Baptist Church,147 West 123rd Street,New York,NY,10027,05/13/2008,2019-5865,11/13/2019,11/30/2020,Active,Renew,1,40.807049,-73.947785,10,9,222,1057779,1019080009,Central Harlem South,POINT (-73.947785 40.807049)
RCCG International Chapel Queens,155-08 Tuskegee Airmen Way,Jamaica,NY,11433,03/30/2011,2019-5792,09/16/2019,09/30/2020,Active,New,4,40.69706,-73.798967,12,28,254,4215717,4101230003,South Jamaica,POINT (-73.798967 40.69706)
"Pentecostal Church Of God IM Love, Power & Grace",563 West 187th Street,New York,NY,10033,10/26/2016,2019-5832,10/01/2019,08/31/2020,Active,Renew,1,40.852748,-73.930225,12,10,269,1063818,1021580032,Washington Heights North,POINT (-73.930225 40.852748)
St. John Baptist Church,74-05 Rockaway Beach Blvd.,Arverne,NY,11692,08/03/2018,2019-5715,08/01/2019,08/31/2020,Active,Renew,4,40.588816,-73.802155,14,32,94203,4303593,4161280050,Hammels-Arverne-Edgemere,POINT (-73.802155 40.588816)
Miracle Church Of Christ Community Dev. Corp.,1487 Saint John's Place,Brooklyn,NY,11213,09/26/2011,2019-5657,07/09/2019,07/31/2020,Active,Renew,3,40.670493,-73.929172,8,36,349,3036873,3013790052,Crown Heights North,POINT (-73.929172 40.670493)
Sunset Park Community Church/Salem Gospel Tabernac,5324 4th Avenue,Brooklyn,NY,11220,01/22/2010,2019-5840,10/03/2019,10/31/2020,Active,Renew,3,40.644614,-74.014518,7,38,76,3014205,3008140045,Sunset Park West,POINT (-74.014518 40.644614)
Sikh Cultural Society,9530 118th Street,Richmond Hill,NY,11419,04/27/2015,2019-5630,06/26/2019,06/30/2020,Active,Renew,,40.691927,-73.827953,9,28,120,,,Richmond Hill,POINT (-73.827953 40.691927)
Sutton Place Synagogue,225 East 51st Street,New York,NY,10022,01/22/2010,2019-5606,06/10/2019,06/30/2020,Active,Renew,1,40.756156,-73.969586,6,4,98,1038467,1013250015,Turtle Bay-East Midtown,POINT (-73.969586 40.756156)
Pentecostal Temple of the Living God,1921 Walton Avenue,Bronx,NY,10453,05/21/2008,2019-5693,07/26/2019,07/31/2020,Active,Renew,2,40.850468,-73.908991,5,14,23301,2008256,2028530041,Mount Hope,POINT (-73.908991 40.850468)
Temple Beth Emeth Vohr Progressive Shaari Zedek,83 Marlborough Rd.,Brooklyn,NY,11226,02/07/2012,2019-5679,07/17/2019,06/30/2020,Active,Renew,3,40.647986,-73.965697,14,40,1522,3117046,3050960001,Flatbush,POINT (-73.965697 40.647986)
The Cham Presbyterian Church of New York,199-03 32nd Ave,Bayside,NY,11358,11/15/2019,2019-5927,11/20/2019,11/30/2020,Active,New,4,40.7695,-73.790044,11,19,1085,4134013,4060220022,Bayside-Bayside Hills,POINT (-73.790044 40.7695)
Congregation Bais Medrash Avreichim,1114 Avenue O,Brooklyn,NY,11230,05/05/2008,2019-5534,05/03/2019,05/31/2020,Active,Renew,3,40.612569,-73.962607,14,48,542,3000000,3067580006,Midwood,POINT (-73.962607 40.612569)
Congregation Bnai Yosef,1616 Ocean Parkway,Brooklyn,NY,11223,06/05/2017,2019-5593,06/10/2019,06/30/2020,Active,Renew,3,40.609151,-73.967647,15,44,422,3176091,3066370012,Homecrest,POINT (-73.967647 40.609151)
United American Muslim Association Inc,5911 8th Avenue,Brooklyn,NY,11220,11/04/2013,2019-5911,11/06/2019,11/30/2020,Active,Renew,3,40.635941,-74.00908,12,38,104,3140841,3057070001,Sunset Park East,POINT (-74.00908 40.635941)
St. Marks Holy Tabernacle,901 East Tremont Avenue,Bronx,NY,10460,08/24/2015,2019-5846,10/08/2019,06/30/2020,Active,Renew,2,40.84221,-73.884611,6,17,363,2113796,2031210033,East Tremont,POINT (-73.884611 40.84221)
Elmhurst Christian Gospel Church,90-41 Corona Avenue,Elmhurst,NY,11373,04/29/2008,2019-5537,05/03/2019,05/31/2020,Active,Renew,4,40.742109,-73.874189,4,25,471,4039583,4015860037,Elmhurst,POINT (-73.874189 40.742109)
St. Stephen Church Inc,199 Edgecombe Avenue,New York,NY,10030,05/29/2008,2019-5558,05/06/2019,05/31/2020,Active,Renew,1,40.822681,-73.944315,9,9,227,1061069,1020510074,Hamilton Heights,POINT (-73.944315 40.822681)
Zion Gospel Tabernacle Inc.,457 Saratoga Avenue,Brooklyn,NY,11233,04/07/2015,2019-5561,05/06/2019,05/31/2020,Active,Renew,3,40.670191,-73.917063,16,41,361,3039478,3014720006,Ocean Hill,POINT (-73.917063 40.670191)
Society for the Advancement of Judaism,15 West 86th Street,New York,NY,10024,05/22/2008,2019-5741,08/27/2019,08/31/2020,Active,Renew,1,40.785662,-73.97019,7,6,173,1031406,1012000023,Upper West Side,POINT (-73.97019 40.785662)
New Haven Ministries,130-05 101st Avenue,South Richmond,NY,11419,05/04/2016,2019-5576,05/17/2019,05/31/2020,Active,Renew,4,40.692539,-73.816921,9,28,154,4200225,4094760029,Richmond Hill,POINT (-73.816921 40.692539)
Church of The Holy Family,315 East 47th Street,New York,NY,10017,05/02/2008,2019-5533,05/03/2019,05/31/2020,Active,Renew,1,40.752766,-73.969335,6,4,90,1038907,1013400013,Turtle Bay-East Midtown,POINT (-73.969335 40.752766)
Congregation Bnai Israel - Sons Of Israel,33-21 Crescent Street,Long Island Cit,NY,11106,05/05/2008,2019-5644,07/09/2019,07/31/2020,Active,Renew,4,40.762248,-73.929551,1,22,53,4007192,4005810046,Astoria,POINT (-73.929551 40.762248)
Agudath Israel of Long Island,1121 Sage Street,Far Rockaway,NY,11691,06/07/2010,2019-5822,09/23/2019,09/30/2020,Active,Renew,4,40.606509,-73.745013,14,31,103202,4298146,4155510158,Far Rockaway-Bayswater,POINT (-73.745013 40.606509)
Upper Room Baptist Church Inc,1373 College Avenue,Bronx,NY,10456,04/30/2008,2019-5609,06/10/2019,06/30/2020,Active,Renew,2,40.836711,-73.911074,4,16,17702,2007279,2027850046,East Concourse-Concourse Village,POINT (-73.911074 40.836711)
Faith Bible Church,133-20 41st Avenue,Flushing,NY,11355,05/07/2008,2019-5587,06/06/2019,05/31/2020,Active,Renew,4,40.757811,-73.830303,7,20,849,4114229,4050410008,Flushing,POINT (-73.830303 40.757811)
Power of God Cathedral,171-38 107th Avenue,Jamaica,NY,11433,04/15/2014,2019-5584,05/31/2019,05/31/2020,Active,Renew,4,40.70044,-73.784524,12,27,414,4218371,4102470052,South Jamaica,POINT (-73.784524 40.70044)
Brooklyn Christian Temple Inc,393 Atlantic Avenue,Brooklyn,NY,11217,07/02/2013,2019-5699,08/01/2019,08/31/2020,Active,Renew,3,40.687131,-73.985325,2,33,41,3000676,3001770036,DUMBO-Vinegar Hill-Downtown Brooklyn-Boerum Hill,POINT (-73.985325 40.687131)
Bethel Tabernacle AME Church,90 Schenectady Ave.,Brooklyn,NY,11213,09/20/2018,2019-5827,09/26/2019,09/30/2020,Active,Renew,3,40.676221,-73.933214,8,36,309,3035672,3013410044,Crown Heights North,POINT (-73.933214 40.676221)
Calvary Community Church Inc.,1496 St. Johns Place,Brooklyn,NY,11233,08/22/2011,2019-5700,08/01/2019,08/31/2020,Active,Renew,3,40.670455,-73.928764,8,41,349,3037117,3013850035,Crown Heights North,POINT (-73.928764 40.670455)
Second St. John Baptist Church,141 West 118th Street,New York,NY,10026,05/22/2008,2019-5555,05/06/2019,05/31/2020,Active,Renew,1,40.803858,-73.949962,10,9,220,1057476,1019030011,Central Harlem South,POINT (-73.949962 40.803858)
Charity Baptist Church of Christ,142 Watkins Street,Brooklyn,NY,11212,09/18/2019,2019-5851,10/11/2019,10/31/2020,Active,Renew,3,40.669443,-73.907811,16,41,906,3081108,3035240023,Brownsville,POINT (-73.907811 40.669443)
Forest Hills Jewish Center,106-06 Queens Boulevard,Forest Hills,NY,11375,05/08/2008,2019-5482,04/03/2019,04/30/2020,Active,Renew,4,40.72212,-73.847335,6,29,711,4077479,4032370040,Forest Hills,POINT (-73.847335 40.72212)
Butler Memorial United Methodist Church,3920 Paulding Ave,Bronx,NY,10469,10/03/2016,2019-5641,07/09/2019,07/31/2020,Active,Renew,2,40.883616,-73.852852,12,12,398,2064836,2048690031,Williamsbridge-Olinville,POINT (-73.852852 40.883616)
Beth Hamedrosh Anshei Hrubishov,691 Crown Street,Brooklyn,NY,11213,02/27/2014,2019-5684,07/19/2019,07/31/2020,Active,Renew,3,40.665438,-73.93515,9,35,353,3038079,3014130055,Crown Heights North,POINT (-73.93515 40.665438)
St. David's Episcopal Church,384 East 160th Street,Bronx,NY,10451,04/13/2016,2019-5492,04/04/2019,04/30/2020,Active,Renew,2,40.823731,-73.91469,3,17,141,2001778,2024060016,Morrisania-Melrose,POINT (-73.91469 40.823731)
Manhattan Bible Church,401 West 205 Street,New York,NY,10034,11/12/2010,2019-5635,07/08/2019,05/31/2020,Active,Renew,1,40.862519,-73.918288,12,10,299,1064504,1022020025,Marble Hill-Inwood,POINT (-73.918288 40.862519)
Iglesia Cristiana Evangelistica El Divino Salvador,72-02 Myrtle Avenue,Glendale,NY,11385,10/24/2014,2019-5572,05/14/2019,05/31/2020,Active,Renew,4,40.702155,-73.878062,5,30,629,4090557,4037110010,Glendale,POINT (-73.878062 40.702155)
Bayanihan Seventh-Day Adventist Church,39 49 29th Street,Long Island Cit,NY,11101,07/18/2013,2019-5640,07/09/2019,07/31/2020,Active,Renew,4,40.752908,-73.935025,1,26,31,4004841,4003990001,Queensbridge-Ravenswood-Long Island City,POINT (-73.935025 40.752908)
St. Helen Roman Catholic Church,157-10 83rd Street,Howard Beach,NY,11414,05/27/2008,2019-5713,08/01/2019,08/31/2020,Active,Renew,4,40.660805,-73.849973,10,32,892,4438970,4139620060,Lindenwood-Howard Beach,POINT (-73.849973 40.660805)
Metropolitan Baptist Church,1624 84th Street,Brooklyn,NY,11214,09/04/2014,2019-5770,09/03/2019,09/30/2020,Active,Renew,3,40.610884,-74.00519,11,43,180,3329059,3063250017,Bath Beach,POINT (-74.00519 40.610884)
Freewill Church Of God In Christ,862 Jefferson Avenue,Brooklyn,NY,11221,04/30/2013,2019-5543,05/03/2019,05/31/2020,Active,Renew,3,40.686409,-73.922773,3,41,375,3039845,3014870011,Stuyvesant Heights,POINT (-73.922773 40.686409)
Van Nest Assembly Of God,755 Rhinelander Ave,Bronx,NY,10462,08/15/2012,2019-5821,09/23/2019,10/31/2020,Active,Renew,2,40.847859,-73.86488,11,15,230,2047937,2042600001,Van Nest-Morris Park-Westchester Square,POINT (-73.86488 40.847859)
New Brighton Jewish Center,184 Brighton 11th Street,Brooklyn,NY,11235,05/19/2008,2019-5548,05/06/2019,05/31/2020,Active,Renew,3,40.578667,-73.958641,13,48,61004,3245412,3087070451,Brighton Beach,POINT (-73.958641 40.578667)
Midrash Shlomo Inc.,1244 East 7th Street,Brooklyn,NY,11230,11/08/2012,2019-5813,09/23/2019,10/31/2020,Active,Renew,3,40.620657,-73.968413,12,44,452,3171340,3065320031,Ocean Parkway South,POINT (-73.968413 40.620657)
Ahi Ezer Congregation,1885 Ocean Parkway,Brooklyn,NY,11223,09/15/2010,2019-5837,10/02/2019,10/31/2020,Active,Renew,3,40.603052,-73.966465,15,47,418,3178704,3066820060,Homecrest,POINT (-73.966465 40.603052)
Salem Missionary Baptist Church,305 East 21st Street,Brooklyn,NY,11226,10/18/2010,2019-5923,11/15/2019,11/30/2020,Active,Renew,3,40.646969,-73.959348,14,40,51001,3117630,3051250001,Flatbush,POINT (-73.959348 40.646969)
Persian Cong. of Flatbush,1434 Ocean Parkway,Brooklyn,NY,11230,05/21/2008,2019-5550,05/06/2019,05/31/2020,Active,Renew,3,40.613609,-73.968481,12,44,440,3173771,3065870024,Ocean Parkway South,POINT (-73.968481 40.613609)
"Rehoboth Christian Church, Inc.",164 E 118 Street,New York,NY,10035,08/24/2019,2019-5795,09/16/2019,09/30/2020,Active,New,1,40.799549,-73.939772,11,8,182,1052356,1016450045,East Harlem North,POINT (-73.939772 40.799549)
Mesivtha Tifereth Jerusalem,145 East Broadway,New York,NY,10002,05/21/2008,2019-5656,07/09/2019,07/31/2020,Active,Renew,1,40.713959,-73.991206,3,1,6,1003571,1002830031,Lower East Side,POINT (-73.991206 40.713959)
Iglesia Bautista International De Astoria,30-85 35th Street,Astoria,NY,11103,05/13/2008,2019-5767,09/03/2019,09/30/2020,Active,Renew,4,40.763257,-73.919918,1,22,63,4009898,4006500009,Astoria,POINT (-73.919918 40.763257)
"Darus-Salaam Masjid New York, Inc.",148-16 87 Road,Jamaica,NY,11435,06/26/2012,2019-5624,06/18/2019,06/30/2020,Active,Renew,,,,,,,,,,
Iglesia Cristiana Monte Hermon,289 East 3rd Street,New York,NY,10009,09/30/2015,2019-5881,11/04/2019,09/30/2020,Active,Renew,1,40.721418,-73.979967,3,2,2601,1004403,1003730061,Lower East Side,POINT (-73.979967 40.721418)
St. Albans Gospel Assembly Inc,200-25/27 Linden Boulevard,St. Albans,NY,11412,05/22/2008,2019-5663,07/09/2019,07/31/2020,Active,Renew,,,,,,,,,,
Church of the Blessed Sacrement,152 West 71st Street,New York,NY,10023,10/30/2019,2019-5926,11/20/2019,11/30/2020,Active,Renew,1,40.777348,-73.980744,7,6,157,1029777,1011420061,Lincoln Square,POINT (-73.980744 40.777348)
Chinese Evangel Mission Church of Queens,203-10 Rocky Hill Road,Bayside,NY,11361,11/20/2009,2019-5568,05/10/2019,05/31/2020,Active,Renew,4,40.753282,-73.777145,11,20,145102,4157908,4073550076,Bayside-Bayside Hills,POINT (-73.777145 40.753282)
Bronx Full Gospel Tabernacle Inc,4221 Park Avenue,Bronx,NY,10457,11/01/2010,2019-5887,11/06/2019,11/30/2020,Active,Renew,2,40.847984,-73.899156,6,15,379,2011095,2030270041,Mount Hope,POINT (-73.899156 40.847984)
Jesus Christ In Action Evangelical Assembly Intern,1069 Rogers Avenue,Brooklyn,NY,11226,08/12/2011,2019-5732,08/07/2019,08/31/2020,Active,Renew,3,40.643878,-73.951729,17,45,826,3119165,3051710060,Erasmus,POINT (-73.951729 40.643878)
Iglesia Gethsemani Pentecostal Inc.,110-112 East 104th Street,New York,NY,10029,10/27/2011,2019-5811,09/23/2019,10/31/2020,Active,Renew,1,40.791377,-73.948285,11,8,166,1051947,1016310068,East Harlem South,POINT (-73.948285 40.791377)
St. Edmund's Episcopal Church,1905 Morris Avenue,Bronx,NY,10453,03/15/2011,2019-5494,04/04/2019,04/30/2020,Active,Renew,2,40.849902,-73.907951,5,14,23301,2109804,2028280037,Mount Hope,POINT (-73.907951 40.849902)
Grace Baptist Church,223-33 New Jersey Avenue,Brooklyn,NY,11207,09/26/2018,2019-5845,10/07/2019,09/30/2020,Active,Renew,3,40.674137,-73.895381,5,37,1144,3252551,3037050014,East New York (Pennsylvania Ave),POINT (-73.895381 40.674137)
Church of God of Woodycrest Avenue,923 Woodycrest Avenue,Bronx,NY,10452,09/18/2019,2019-5875,11/01/2019,11/30/2020,Active,New,2,40.830811,-73.929417,4,8,189,2003180,2025110040,Highbridge,POINT (-73.929417 40.830811)
Chabad Lubavitch Of West Brighton Manhattan Beach,2997 Ocean Parkway,Brooklyn,NY,11235,06/18/2014,2019-5674,07/12/2019,06/30/2020,Active,Renew,3,40.577413,-73.968267,13,48,362,3244597,3086690088,Brighton Beach,POINT (-73.968267 40.577413)
Victory In Christ Church Inc.,1444 Broadway,Brooklyn,NY,11221,06/07/2016,2019-5610,06/10/2019,06/30/2020,Active,Renew,3,40.688004,-73.919464,3,41,375,3039727,3014840020,Stuyvesant Heights,POINT (-73.919464 40.688004)
Little Widows Mite Baptist Church,1807 Mahan Ave.,Bronx,NY,10461,04/12/2012,2019-5847,10/08/2019,06/30/2020,Active,Renew,2,40.848414,-73.829981,10,13,26602,2046609,2041960025,Pelham Bay-Country Club-City Island,POINT (-73.829981 40.848414)
St. Jerome's Roman Catholic Church,1900 Nostrand Avenue,Brooklyn,NY,11226,05/27/2008,2019-5801,09/23/2019,10/31/2020,Active,Renew,,40.639295,-73.948349,17,45,828,,,Erasmus,POINT (-73.948349 40.639295)
Community Church Of Christ,755 Home Street,Bronx,NY,10456,09/07/2010,2019-5842,10/04/2019,09/30/2020,Active,Renew,2,40.828126,-73.901726,3,17,135,2004735,2026620044,Morrisania-Melrose,POINT (-73.901726 40.828126)
Millinery Center Synagogue,1025 Avenue of the Americas,New York,NY,10018,03/18/2015,2019-5759,08/30/2019,08/31/2020,Active,New,1,40.752508,-73.985815,5,4,113,1015270,1008140036,Midtown-Midtown South,POINT (-73.985815 40.752508)
Otzar Hatorah,2409 Avenue U,Brooklyn,NY,11229,08/24/2017,2019-5698,08/01/2019,08/31/2020,Active,Renew,3,40.599833,-73.947396,15,48,576,3198574,3073290052,Madison,POINT (-73.947396 40.599833)
"Pentecostal Church of God, IM, Exodus, Inc.",1664 Amsterdam Ave.,New York,NY,10031,04/20/2012,2019-5487,04/03/2019,04/30/2020,Active,Renew,1,40.823548,-73.948852,9,7,229,1061860,1020740032,Hamilton Heights,POINT (-73.948852 40.823548)
The Church Of The Village,201 West 13th Street,New York,NY,10011,09/10/2015,2019-5776,09/03/2019,09/30/2020,Active,Renew,1,40.738001,-74.000476,2,3,77,1011113,1006180040,West Village,POINT (-74.000476 40.738001)
Faith Assembly of God,2170 Bedford Avenue,Brooklyn,NY,11226,05/07/2008,2019-5794,09/16/2019,09/30/2020,Active,Renew,3,40.651107,-73.955893,14,40,79602,3116869,3050890041,Prospect Lefferts Gardens-Wingate,POINT (-73.955893 40.651107)
Iglesia Pentecostal Fuente Divina Inc.,4621 4th Avenue,Brooklyn,NY,11220,07/17/2015,2019-5652,07/09/2019,07/31/2020,Active,Renew,3,40.64854,-74.010407,7,38,80,3337215,3007560001,Sunset Park West,POINT (-74.010407 40.64854)
"Masjid Manhattan, Inc.",30 Cliff Street,New York,NY,10038,03/19/2015,2019-5602,06/10/2019,06/30/2020,Active,Renew,1,40.70825,-74.00514,1,1,1502,1001169,1000757503,Battery Park City-Lower Manhattan,POINT (-74.00514 40.70825)
East 55th Street Conservative Synagogue,308 East 55th Street,New York,NY,10022,05/27/2008,2019-5807,09/23/2019,10/31/2020,Active,Renew,1,40.757793,-73.965756,6,5,108,1071988,1013470047,Turtle Bay-East Midtown,POINT (-73.965756 40.757793)
First Church of the Nazarene,108-01 95th Avenue,Richmond Hill,NY,11419,05/08/2008,2019-5539,05/03/2019,05/31/2020,Active,Renew,4,40.690148,-73.836796,9,28,118,4197302,4093920024,Richmond Hill,POINT (-73.836796 40.690148)
Marlboro Jewish Center,2324 West 13th Street,Brooklyn,NY,11223,05/20/2008,2019-5546,05/06/2019,05/31/2020,Active,Renew,3,40.590588,-73.983088,13,47,382,3194151,3071600015,Gravesend,POINT (-73.983088 40.590588)
Congregation Machane Chodosh,67 - 29 108th St.,Forest Hills,NY,11375,06/28/2011,2019-5638,07/09/2019,07/31/2020,Active,Renew,4,40.72815,-73.84713,6,29,741,4051884,4021770006,Forest Hills,POINT (-73.84713 40.72815)
Iglesia Pentecostal Washington Heights,281 Audubon Avenue,New York,NY,10033,03/27/2012,2019-5483,04/03/2019,04/30/2020,Active,Renew,1,40.847559,-73.933187,12,10,261,1063594,1021520031,Washington Heights South,POINT (-73.933187 40.847559)
United Moravian Church,200 East 127th Street,New York,NY,10035,11/27/2013,2019-5921,11/15/2019,11/30/2020,Active,Renew,1,40.804849,-73.934545,11,8,242,1054697,1017910044,East Harlem North,POINT (-73.934545 40.804849)
Queens Assembly Hall of Jehovah's Witnesses,44-15 Greenpoint Avenue,Sunnyside,NY,11104,09/10/2012,2019-5774,09/03/2019,09/30/2020,Active,Renew,4,40.741484,-73.920702,2,26,183,4001969,4001660040,Hunters Point-Sunnyside-West Maspeth,POINT (-73.920702 40.741484)
Father's Heart Church,543-545 East 11th Street,New York,NY,10009,07/24/2008,2019-5737,08/07/2019,07/31/2020,Active,Renew,1,40.728014,-73.980741,3,2,34,1005186,1004050041,East Village,POINT (-73.980741 40.728014)
The Church Of The Redeemer,30-14 Crescent Street,Astoria,NY,11102,09/07/2010,2019-5775,09/03/2019,09/30/2020,Active,Renew,4,40.768251,-73.925266,1,22,73,4006779,4005720044,Old Astoria,POINT (-73.925266 40.768251)
Wakefield Seventh Day Adventist Church,729 Cranford Ave,Bronx,NY,10470,11/27/2011,2019-5621,06/13/2019,06/30/2020,Active,Renew,2,40.903345,-73.849136,12,11,442,2071832,2051120010,Woodlawn-Wakefield,POINT (-73.849136 40.903345)
Yeshivat Magen Abraham Inc.,723 Avenue Z,Brooklyn,NY,11223,05/29/2013,2019-5692,07/26/2019,06/30/2020,Active,Renew,3,40.58655,-73.967352,13,47,37401,3195856,3072180077,Gravesend,POINT (-73.967352 40.58655)
Korean Methodist Church and Institute,633 West 115th Street,New York,NY,10025,08/10/2012,2019-5852,10/15/2019,09/30/2020,Active,Renew,1,40.807695,-73.965225,9,7,205,1057375,1018960052,Morningside Heights,POINT (-73.965225 40.807695)
Russian Orthodox Church of the Holy Myrrhbearing W,2527 Cropsey Ave,Brooklyn,NY,11214,03/29/2018,2019-5818,09/23/2019,10/31/2020,Active,Renew,3,40.591588,-73.992493,11,43,304,3187064,3069080009,Bensonhurst East,POINT (-73.992493 40.591588)
Highbridge Community Church Inc,1272 Ogden Avenue,Bronx,NY,10452,07/27/2016,2019-5707,08/01/2019,08/31/2020,Active,Renew,2,40.839419,-73.925667,4,16,211,2092387,2025180014,Highbridge,POINT (-73.925667 40.839419)
St. Luke F. B. H. Church,19 Brooklyn Ave,Brooklyn,NY,11216,09/21/2017,2019-5614,06/12/2019,06/30/2020,Active,Renew,3,40.679449,-73.944027,3,36,271,3053788,3018630001,Crown Heights North,POINT (-73.944027 40.679449)
St. Brigid Church,409 Linden Street,Brooklyn,NY,11237,05/23/2008,2019-5877,11/01/2019,09/30/2020,Active,Renew,3,40.700984,-73.911947,4,37,441,3076202,3033290025,Bushwick North,POINT (-73.911947 40.700984)
Chosen People Ministries,1974 Coney Island Avenue,Brooklyn,NY,11223,03/26/2015,2019-5626,06/21/2019,06/30/2020,Active,Renew,3,40.609078,-73.962213,15,44,420,3176332,3066420024,Homecrest,POINT (-73.962213 40.609078)
St. Nicholas Cathedral,15 E 97th St.,New York,NY,10029,04/20/2018,2019-5504,04/10/2019,04/30/2020,Active,Renew,1,40.788187,-73.954322,11,4,16002,1081331,1016030011,East Harlem South,POINT (-73.954322 40.788187)
Church of The Virgin Mary,216 8th Avenue,Brooklyn,NY,11215,05/02/2008,2019-5918,11/12/2019,11/30/2020,Active,Renew,3,40.670068,-73.975631,6,39,155,3025205,3010760046,Park Slope-Gowanus,POINT (-73.975631 40.670068)
Foundation For Sephadic Studies,730 Avenue S,Brooklyn,NY,11223,10/30/2013,2019-5895,11/06/2019,11/30/2020,Active,Renew,3,40.602667,-73.964593,15,47,416,3253949,3070890011,Homecrest,POINT (-73.964593 40.602667)
Ambassador Pentecostal Church In Christ,"937 East 169th Street, PO Box 161",Bronx,NY,10459,12/13/2010,2019-5758,08/30/2019,07/31/2020,Active,Renew,2,40.827191,-73.893591,3,17,125,2005712,2027190074,Morrisania-Melrose,POINT (-73.893591 40.827191)
Bedford Central Presbyterian Church,1200 Dean Street,Brooklyn,NY,11216,04/28/2008,2019-5884,11/06/2019,11/30/2020,Active,Renew,3,40.676836,-73.949271,8,36,315,3030357,3012130005,Crown Heights North,POINT (-73.949271 40.676836)
Congregation Ohr Moshe,170-16 73rd Avenue,Fresh Meadows,NY,11366,05/05/2008,2019-5892,11/06/2019,11/30/2020,Active,Renew,4,40.728634,-73.799312,8,24,1241,4151025,4069780024,Pomonok-Flushing Heights-Hillcrest,POINT (-73.799312 40.728634)
St. James Episcopal Church,8407 Broadway,Elmhurst,NY,11373,06/17/2014,2019-5665,07/09/2019,07/31/2020,Active,Renew,4,40.739836,-73.878368,4,25,471,4039452,4015820001,Elmhurst,POINT (-73.878368 40.739836)
Church of Grace to Fujianese,133-135 Allen Street,New York,NY,10002,10/27/2011,2019-5803,09/23/2019,10/31/2020,Active,Renew,1,40.720006,-73.989971,3,1,18,1005489,1004150027,Chinatown,POINT (-73.989971 40.720006)
Iglesia Pentecostal Cristo Restaura Inc,3409 Fulton Street,Brooklyn,NY,11208,08/22/2017,2019-5859,10/16/2019,10/31/2020,Active,Renew,3,40.684327,-73.869848,5,37,1184,3092436,3041330057,Cypress Hills-City Line,POINT (-73.869848 40.684327)
St Matthias RC Church,58-15 Catalpa Avenue,Ridgewood,NY,11385,07/28/2017,2019-5716,08/01/2019,08/31/2020,Active,Renew,4,40.701737,-73.902465,5,34,551,4445472,4034730061,Ridgewood,POINT (-73.902465 40.701737)
Franklin Avenue Baptist Church Inc,1281 Franklin Avenue,Bronx,NY,10456,10/06/2014,2019-5836,10/02/2019,10/31/2020,Active,Renew,2,40.831409,-73.902249,3,16,149,2004254,2026120043,Morrisania-Melrose,POINT (-73.902249 40.831409)
"Iglesia Pentecostal Del Senor, Inc.",78-15 78th Street,Glendale,NY,11385,10/12/2016,2019-5868,10/25/2019,10/31/2020,Active,Renew,4,40.704144,-73.872233,5,30,63302,4437923,4038270074,Glendale,POINT (-73.872233 40.704144)
Church Of Abiding Presence,1672 East 172nd Street,Bronx,NY,10472,07/22/2014,2019-5682,07/18/2019,07/31/2020,Active,Renew,2,40.832099,-73.872606,9,18,64,2025420,2037800029,West Farms-Bronx River,POINT (-73.872606 40.832099)
Bethelite Community Baptist Church,38 West 123rd Street,New York,NY,10027,06/24/2013,2019-5744,08/27/2019,07/31/2020,Active,Renew,1,40.80603,-73.945434,10,9,200,1053413,1017210031,Central Harlem South,POINT (-73.945434 40.80603)
Congregation Rodeph Sholom,7 West 83rd Street,New York,NY,10024,05/06/2008,2019-5473,04/02/2019,04/30/2020,Active,Renew,1,40.78351,-73.971141,7,6,169,1031230,1011970020,Upper West Side,POINT (-73.971141 40.78351)
Christian Ministry of Family Integration Inc.,1875 Amsterdam ave.,New York,NY,10031,05/23/2016,2019-5687,07/23/2019,07/31/2020,Active,Renew,1,40.830106,-73.94403,9,7,23501,1061642,1020670063,Hamilton Heights,POINT (-73.94403 40.830106)
Fountain Spring Baptist Church,2011 Grand Concourse,Bronx,NY,10453,05/14/2010,2019-5764,09/03/2019,09/30/2020,Active,Renew,2,40.851442,-73.904414,5,14,23501,2007697,2028080094,Mount Hope,POINT (-73.904414 40.851442)
Congregation Lev Bais Yaakov,3574 Nostrand Avenue,Brooklyn,NY,11229,02/28/2014,2019-5481,04/03/2019,04/30/2020,Active,Renew,3,40.59691,-73.941219,15,48,59402,3201581,3073860131,Sheepshead Bay-Gerritsen Beach-Manhattan Beach,POINT (-73.941219 40.59691)
Day Spring Baptist Church,1788 Amsterdam Avenue,New York,NY,10031,05/02/2017,2019-5616,06/12/2019,06/30/2020,Active,Renew,1,40.827469,-73.945984,9,7,233,1062035,1020800032,Hamilton Heights,POINT (-73.945984 40.827469)
The First Chinese Baptist Church,21 Pell Street,New York,NY,10013,05/07/2008,2019-5496,04/05/2019,04/30/2020,Active,Renew,1,40.714843,-73.998175,3,1,29,1001699,1001620024,Chinatown,POINT (-73.998175 40.714843)
The Church of Gethsemane,1012 8th Avenue,Brooklyn,NY,11215,06/07/2016,2019-5669,07/09/2019,07/31/2020,Active,Renew,3,40.665018,-73.979847,6,39,151,3412951,3010940041,Park Slope-Gowanus,POINT (-73.979847 40.665018)
All Nations Apostolic Tabernacle,89-28 Parsons Boulevard,Jamaica,NY,11432,05/15/2019,2019-5578,05/20/2019,05/31/2020,Active,New,4,40.705439,-73.801477,12,24,240,4208832,4097550042,Jamaica,POINT (-73.801477 40.705439)
Young Israel Synagogue of Manhattan,317 Henry Street,New York,NY,10002,05/30/2008,2019-5508,04/10/2019,04/30/2020,Active,Renew,1,40.714123,-73.982206,3,1,202,1079626,1002880028,Lower East Side,POINT (-73.982206 40.714123)
"Mt. Zion Church of God (7th Day), Inc",203 East 37 Street,Brooklyn,NY,11203,05/23/2008,2019-5629,06/25/2019,06/30/2020,Active,Renew,3,40.652199,-73.942929,17,41,816,3108829,3048740054,East Flatbush-Farragut,POINT (-73.942929 40.652199)
Mt. Olivet Baptist Church,201 Lenox Avenue,New York,NY,10027,06/29/2010,2019-5604,06/10/2019,06/30/2020,Active,Renew,1,40.804686,-73.947751,10,9,220,1057632,1019050029,Central Harlem South,POINT (-73.947751 40.804686)
St. Ephrem Roman Catholic Church,929 Bay Ridge Parkway,Brooklyn,NY,11228,08/26/2014,2019-5835,10/02/2019,10/31/2020,Active,Renew,3,40.625283,-74.015652,10,43,206,3148497,3059340070,Dyker Heights,POINT (-74.015652 40.625283)
Brooklyn Baptist Church,733 44th Street,Brooklyn,NY,11220,03/19/2013,2019-5479,04/03/2019,04/30/2020,Active,Renew,3,40.645258,-74.001485,7,38,92,3011043,3007320065,Sunset Park East,POINT (-74.001485 40.645258)
New Frontier Baptist Church,2132 Dean Street,Brooklyn,NY,11233,05/19/2008,2019-5474,04/03/2019,04/30/2020,Active,Renew,3,40.675094,-73.917382,16,41,303,3330719,3014460034,Ocean Hill,POINT (-73.917382 40.675094)
The Islamic Center of Queens New York,57 -16  37th Avenue,Woodside,NY,11377,06/18/2014,2019-5607,06/10/2019,06/30/2020,Active,Renew,,,,,,,,,,
Prince of Peace Universal Tabernacle Church Inc.,555-557 West 182nd Street,New York,NY,10033,04/02/2012,2019-5488,04/04/2019,04/30/2020,Active,Renew,1,40.849502,-73.932354,12,10,269,1063665,1021540058,Washington Heights North,POINT (-73.932354 40.849502)
The Brooklyn Tabernacle,17 Smith Street,Brooklyn,NY,11201,06/04/2014,2019-5719,08/01/2019,08/31/2020,Active,Renew,3,40.690979,-73.987599,2,33,37,3335898,3001550005,DUMBO-Vinegar Hill-Downtown Brooklyn-Boerum Hill,POINT (-73.987599 40.690979)
