developmentProjectName,developmentProjectAddressText,statusDsc,officeSquareFeetQty,retailSquareFeetQty,otherSquareFeetQty,residentialUnitCnt,hotelRoomCnt,sitePlanDate,underConstructionDate,generalLandUsePlanDsc,zoningTypeDsc,developerName,siteSquareFeetQty,houseTypeDsc,heightFeetQty,storiesCnt,parkingSpaceCnt,latitudeCrd,longitudeCrd
Rosslyn Plaza PDSP,1001 WILSON BVLD,Approved (Not Under Construction),1810173,45000,0,550,200,2016-03-12T00:00:00,,High Office-Apartment-Hotel,C-O-ROSSLYN,,333219,Highrise (4+ stories),390,,2168,38.89473481,-77.06875981
1015 21st St S,1015 21ST ST S,Under Construction,0,0,0,1,0,,2019-03-11T00:00:00,Low Residential (1-10 units/acre),"One-Family, Restricted Two Family Dwelling Distr",,,Single-family detached house,,,,38.85495148,-77.06391011
11th and Vermont Residences,1031 N VERMONT ST,Approved (Not Under Construction),0,0,0,84,0,2018-02-24T00:00:00,,Low-Medium Residential,Apartment Dwelling and Commercial District,,,Garden (Less than 4 stories),,,126,38.88337913,-77.11467319
1060 S Edison St,1060 S EDISON ST,Under Construction,0,0,0,1,0,,2019-07-16T00:00:00,Low Residential (1-10 units/acre),One-Family Dwelling District,,,Single-family detached house,,,,38.85270344,-77.11326305
1102 S Queen St,1102 S QUEEN ST,Under Construction,0,0,0,1,0,,2010-03-10T00:00:00,Low Residential (1-10 units/acre),"One-Family, Restricted Two Family Dwelling Distr",,2790,Single-family detached house,,,,38.86433415,-77.07329384
1106 18th St S,1106 18TH ST S,Under Construction,0,0,0,1,0,,2019-03-15T00:00:00,Low Residential (1-10 units/acre),"One-Family, Restricted Two Family Dwelling Distr",,,Single-family detached house,,,,38.85665531,-77.06556711
1106 S Highland St,1106 S HIGHLAND ST,Under Construction,0,0,0,1,0,,2015-07-15T00:00:00,Low Residential (1-10 units/acre),"One-Family, Restricted Two Family Dwelling Distr",,7073,Single-family detached house,,,,38.86078528,-77.08883619
1122 N Kirkwood Road - Washington Blvd at Kirkwood,1122 N KIRKWOOD RD,Approved (Not Under Construction),0,0,0,255,0,2019-06-15T00:00:00,,High Office-Apartment-Hotel,Service Commercial -  Community Business Distric,,,Highrise (4+ stories),,,,38.8865873,-77.1005571
118 N  Jackson St,118 N  JACKSON ST,Under Construction,0,0,0,1,0,,2017-12-12T00:00:00,Low Residential (1-10 units/acre),One-Family Dwelling District,,,Single-family detached house,,,,38.87430899,-77.09655769
PenPlace (Pentagon City PDSP Parcel 1D - Remaining Allocation),1197 S FERN ST,Approved (Not Under Construction),1809000,50000,0,0,300,2013-09-21T00:00:00,,,,,,Highrise (4+ stories),,,,38.86277083,-77.05624974
1201 N  Quinn St,1201 N  QUINN ST,Under Construction,0,0,0,12,0,,2018-05-02T00:00:00,Medium Residential,Apartment Dwelling District,,,Garden (Less than 4 stories),,,,38.88774936,-77.07774294
The Trove (Wellington Apartments),1201 S ROSS ST,Under Construction,0,0,0,402,0,2016-07-20T00:00:00,2018-08-02T00:00:00,Medium Residential,Apartment Dwelling District,,,Highrise (4+ stories),,,,38.8623187,-77.07543996
1209 S Pierce St,1209 S  PIERCE ST,Under Construction,0,0,0,1,0,,2017-01-30T00:00:00,Low Residential (1-10 units/acre),"One-Family, Restricted Two Family Dwelling Distr",,,Single-family detached house,,,,38.86362271,-77.0709397
1222 26th Rd S,1222 26TH RD S,Under Construction,0,0,0,1,0,,2019-05-16T00:00:00,Low Residential (1-10 units/acre),One-Family Dwelling District,,24664,Single-family detached house,,,,38.84842606,-77.06712659
1239 N Taylor St,1239 N TAYLOR ST,Under Construction,0,0,0,1,0,,2018-07-12T00:00:00,Low Residential (1-10 units/acre),"One-Family, Restricted Two Family Dwelling Distr",,4280,Single-family detached house,,,,38.88696912,-77.11297486
1240 N Vermont St,1240 N VERMONT ST,Under Construction,0,0,0,1,0,,2019-11-12T00:00:00,Low Residential (1-10 units/acre),"One-Family, Restricted Two Family Dwelling Distr",,,Single-family detached house,,,,38.88691912,-77.11539816
1248 N Vermont St,1248 N VERMONT ST,Under Construction,0,0,0,1,0,,2019-11-12T00:00:00,Low Residential (1-10 units/acre),"One-Family, Restricted Two Family Dwelling Distr",,,Single-family detached house,,,,38.88705943,-77.11540218
1308 N Quintana St,1308 N QUINTANA ST,Under Construction,0,0,0,1,0,,2019-08-22T00:00:00,Low Residential (1-10 units/acre),One-Family Dwelling District,,,Single-family detached house,,,,38.88285013,-77.15193893
132 N  Fillmore St,132 N FILLMORE ST,Under Construction,0,0,0,1,0,,2015-06-25T00:00:00,Low Residential (1-10 units/acre),One-Family Dwelling District,,,Single-family detached house,,,,38.87632946,-77.09086341
Pentagon City PDSP (Parcel 3/Metropolitan Park - Remaining Allocation),1400 S EADS S,Approved (Not Under Construction),0,23818,0,1403,0,2013-09-21T00:00:00,,,,,,Highrise (4+ stories),,,,38.8614689,-77.05467761
Metropolitan Park Phases 6 & 7/8,1400 S EADS ST,Approved (Not Under Construction),2082566,69545,0,0,0,2019-12-14T00:00:00,,High-Med Resid. 3/4 & Med. OAH 1/4,"Commercial Office Building, Hotel and Apartment",,,,,,,38.8614689,-77.05467761
Pentagon City PDSP (Parcel 3/Metropolitan Park-Phase 6),1400 S EADS ST,Approved (Not Under Construction),0,10929,0,590,0,2016-07-16T00:00:00,,High-Med Resid. 3/4 & Med. OAH 1/4,"Commercial Office Building, Hotel and Apartment",,,Highrise (4+ stories),,,472,38.8614689,-77.05467761
1401 Wilson Blvd,1401 WILSON BLVD,Approved (Not Under Construction),513004,55540,0,274,0,2014-06-14T00:00:00,,High Office-Apartment-Hotel,,,,Highrise (4+ stories),,,,38.89554059,-77.07358928
1410 N Edison St,1410 N EDISON ST,Under Construction,0,0,0,1,0,,2019-11-06T00:00:00,Low Residential (1-10 units/acre),One-Family Dwelling District,,,Single-family detached house,,,,38.88662871,-77.12512089
1412 N  Hartford St,1412 N  HARTFORD ST,Under Construction,0,0,0,1,0,,2019-05-29T00:00:00,Low Residential (1-10 units/acre),One-Family Dwelling District,,5715,Single-family detached house,,,,38.88927609,-77.09693977
1414 S Monroe St,1414 S MONROE ST,Under Construction,0,0,0,1,0,,2019-11-27T00:00:00,Low Residential (1-10 units/acre),One-Family Dwelling District,,,Single-family detached house,,,,38.85664842,-77.09221346
1420 N  Johnson St,1420 N  JOHNSON ST,Under Construction,0,0,0,1,0,,2018-12-26T00:00:00,Low Residential (1-10 units/acre),One-Family Dwelling District,,,Single-family detached house,,,,38.88888951,-77.1001123
1423 N Buchanan St,1423 N  BUCHANAN ST,Under Construction,0,0,0,1,0,,2019-03-01T00:00:00,Low Residential (1-10 units/acre),One-Family Dwelling District,,,Single-family detached house,,,,38.88775925,-77.12181204
Education Center,1426 N QUINCY ST,Approved (Not Under Construction),0,0,358112,0,0,2019-05-18T00:00:00,,Public,Special District,,,,,,,38.88863435,-77.10898585
1501 Arlington Blvd. - Best Western Site,1501 ARLINGTON BLVD,Approved (Not Under Construction),0,0,0,48,160,2019-04-23T00:00:00,,High-Medium Residential,Hotel District,,,Highrise (4+ stories),,,,38.89164656,-77.07529029
1501 N Hartford St,1501 N HARTFORD ST,Under Construction,0,0,0,1,0,,2019-11-14T00:00:00,Low Residential (1-10 units/acre),One-Family Dwelling District,,,Single-family detached house,,,,38.88966476,-77.09681056
1550 13th St S,1550 13TH ST S,Under Construction,0,0,0,1,0,,2018-05-10T00:00:00,Low Residential (1-10 units/acre),"One-Family, Restricted Two Family Dwelling Distr",,,Single-family detached house,,,,38.8631132,-77.07080676
Central District Retail Phase I,1550 CRYSTAL DR,Under Construction,0,84000,0,0,0,2018-10-20T00:00:00,2019-06-24T00:00:00,High Office-Apartment-Hotel,"Commercial Off. Bldg, Hotel and Multiple-Family",,,,,,372,38.85950556,-77.04972797
1550 N  Danville St,1550 N  DANVILLE ST,Under Construction,0,0,0,1,0,,2019-05-03T00:00:00,Low Residential (1-10 units/acre),One-Family Dwelling District,,6425,Single-family detached house,,,,38.89093623,-77.09139327
The Highlands (East Building),1555 WILSON BLVD,Under Construction,0,32932,0,553,0,2017-02-25T00:00:00,2018-09-30T00:00:00,"Commercial Off. Bldg, Hotel and Multiple-Family Dwelling","Commercial Off. Bldg, Hotel and Multiple-Family",,,Highrise (4+ stories),,,517,38.89489403,-77.07603329
1607 N  Bryan St,1607 N  BRYAN ST,Under Construction,0,0,0,1,0,,2018-12-19T00:00:00,Low Residential (1-10 units/acre),One-Family Dwelling District,,,Single-family detached house,,,,38.89199353,-77.09010593
1610 23rd St S,1610 23RD ST S,Under Construction,0,0,0,1,0,,2019-12-12T00:00:00,Low Residential (1-10 units/acre),One-Family Dwelling District,,,Single-family detached house,,,,38.85299149,-77.07267037
1624 12th St S,1624 12TH ST S,Under Construction,0,0,0,1,0,,2017-12-04T00:00:00,Low Residential (1-10 units/acre),"One-Family, Restricted Two Family Dwelling Distr",,,Single-family detached house,,,,38.86368309,-77.07259155
Virginia Hospital Center Expansion,1625 N GEORGE MASON DR,Approved (Not Under Construction),0,0,239086,0,0,2018-11-27T00:00:00,,Government and Community Facilities,Special Development District,,,,,,1696,38.88859147,-77.12693122
Reed School Expansion,1644 N MCKINLEY RD,Approved (Not Under Construction),0,0,69047,0,0,2018-11-17T00:00:00,,Public,Special District,,,,,,,38.886756,-77.1419551
1701 S Pollard St,1701 S POLLARD ST,Under Construction,0,0,0,1,0,,2019-09-30T00:00:00,Low Residential (1-10 units/acre),One-Family Dwelling District,,,Single-family detached house,,,,38.85363962,-77.09462017
1703 N  Edison St,1703 N  EDISON ST,Under Construction,0,0,0,1,0,,2019-06-13T00:00:00,Low Residential (1-10 units/acre),One-Family Dwelling District,,9304,Single-family detached house,,,,38.89018738,-77.12627257
1705 N Dinwiddie St,1705 N DINWIDDIE ST,Under Construction,0,0,0,1,0,,2019-07-01T00:00:00,Low Residential (1-10 units/acre),One-Family Dwelling District,,,Single-family detached house,,,,38.89060811,-77.12527351
1720 N Quebec St,1720 N QUEBEC ST,Under Construction,0,0,0,1,0,,2019-09-19T00:00:00,Low Residential (1-10 units/acre),One-Family Dwelling District,,,Single-family detached house,,,,38.89239401,-77.10927702
1724 N  Barton St,1724 N BARTON ST,Under Construction,0,0,0,1,0,,2019-02-13T00:00:00,Low Residential (1-10 units/acre),One-Family Dwelling District,,,Single-family detached house,,,,38.8935298,-77.08948752
1770 Crystal Dr Expansion,1750 CRYSTAL DR,Approved (Not Under Construction),11642,0,0,0,0,2015-12-12T00:00:00,,High Office-Apartment-Hotel,"Commercial Off. Bldg, Hotel and Multiple-Family",,,,,,,38.85828669,-77.04958616
Central District Retail Phase II,1770 CRYSTAL DR,Under Construction,10000,16300,0,0,0,2018-10-20T00:00:00,2018-10-26T00:00:00,High Office-Apartment-Hotel,"Commercial Off. Bldg, Hotel and Multiple-Family",,,,,,0,38.85819412,-77.04958323
The Highlands (West Building),1788 N PIERCE ST,Under Construction,0,9788,0,331,0,2017-02-25T00:00:00,2018-09-30T00:00:00,High Office-Apartment-Hotel,"Commercial Off. Bldg, Hotel and Multiple-Family",,,Highrise (4+ stories),,,518,38.89482322,-77.07648863
Queen's Court,1801 N QUINN ST,Under Construction,0,0,0,249,0,2017-02-25T00:00:00,2019-08-20T00:00:00,Low-Medium Residential,Apartment Dwelling District,,,Highrise (4+ stories),,,,38.89551024,-77.07802072
Rosslyn Holiday Inn,1900 FORT MYER DR,Approved (Not Under Construction),0,14412,37417,502,375,2019-09-24T00:00:00,,High Residential,"Commercial Off. Bldg, Hotel and Multiple-Family",,,Highrise (4+ stories),,,,38.89783967,-77.07302998
1900 N Oakland St,1900 N OAKLAND ST,Under Construction,0,0,0,1,0,,2019-11-14T00:00:00,Low Residential (1-10 units/acre),One-Family Dwelling District,,,Single-family detached house,,,,38.89399671,-77.10650354
Crystal Houses III,1900 S EADS ST,Approved (Not Under Construction),0,0,0,252,0,2017-11-18T00:00:00,,Medium Residential,Apartment Dwelling District,,,Highrise (4+ stories),,,498,38.8564332,-77.0541067
Crystal Houses III-VI,1900 S EADS ST,Approved (Not Under Construction),0,0,0,798,0,2019-12-14T00:00:00,,Medium Residential,Apartment Dwelling District,,,Highrise (4+ stories),,,,38.8564332,-77.0541067
Rosslyn Gateway PDSP - FSP (Phase 1 - Office Building),1901 FT MYER DR,Approved (Not Under Construction),490056,8688,0,0,0,2012-07-21T00:00:00,,,,,,,,,,38.89739,-77.0720009
1913 N Jefferson St,1913 N JEFFERSON ST,Under Construction,0,0,0,1,0,,2019-08-22T00:00:00,Low Residential (1-10 units/acre),One-Family Dwelling District,,,Single-family detached house,,,,38.89141386,-77.1374346
1937 N Culpeper St,1937 N CULPEPER ST,Under Construction,0,0,0,1,0,,2019-11-01T00:00:00,Low Residential (1-10 units/acre),One-Family Dwelling District,,,Single-family detached house,,,,38.89414114,-77.12527889
1957 S Kenmore St,1957 S KENMORE ST,Under Construction,0,0,0,1,0,,2018-08-22T00:00:00,Low Residential (11-15 units/acre),Two-Family and Town House Dwelling District,,,Single-family detached house,,,,38.85171157,-77.08649784
2000 Clarendon Blvd,2000 CLARENDON BLVD,Under Construction,0,1921,0,90,0,2016-06-18T00:00:00,2019-05-05T00:00:00,High Office-Apartment-Hotel,"Commercial Off. Bldg, Hotel and Multiple-Family",,,Highrise (4+ stories),,,112,38.89148392,-77.08208956
2007 N  Inglewood St,2007 N  INGLEWOOD ST,Under Construction,0,0,0,1,0,,2019-04-01T00:00:00,Low Residential (1-10 units/acre),One-Family Dwelling District,,8047,Single-family detached house,,,,38.89266593,-77.13603285
2008 N Kentucky St,2008 N KENTUCKY ST,Under Construction,0,0,0,1,0,,2019-12-05T00:00:00,Low Residential (1-10 units/acre),One-Family Dwelling District,,,Single-family detached house,,,,38.89003847,-77.14034589
2012 N Madison St,2012 N MADISON ST,Under Construction,0,0,0,1,0,,2019-11-25T00:00:00,Low Residential (1-10 units/acre),One-Family Dwelling District,,,Single-family detached house,,,,38.88943363,-77.1438142
2013 N Greenbrier St,2013 N GREENBRIER ST,Under Construction,0,0,0,1,0,,2019-12-03T00:00:00,Low Residential (1-10 units/acre),One-Family Dwelling District,,,Single-family detached house,,,,38.89323229,-77.13172777
2014 S Langley St,2014 S LANGLEY ST,Under Construction,0,0,0,1,0,,2017-09-28T00:00:00,Low Residential (11-15 units/acre),Two-Family and Town House Dwelling District,,,Single-family detached house,,,,38.85145101,-77.08907676
2016 N  Madison St,2016 N  MADISON ST,Under Construction,0,0,0,1,0,,2019-06-13T00:00:00,Low Residential (1-10 units/acre),One-Family Dwelling District,,6611,Single-family detached house,,,,38.88956872,-77.14386084
209 N  Edgewood St,209 N  EDGEWOOD ST,Under Construction,0,0,0,1,0,,2019-05-20T00:00:00,Low Residential (1-10 units/acre),One-Family Dwelling District,,4731,Single-family detached house,,,,38.87723416,-77.08977107
2105 N  Emerson St,2105 N  EMERSON ST,Under Construction,0,0,0,1,0,,2017-11-15T00:00:00,Low Residential (1-10 units/acre),One-Family Dwelling District,,,Single-family detached house,,,,38.8944152,-77.13029312
2105 N  George Mason Dr,2105 N  GEORGE MASON DR,Under Construction,0,0,0,1,0,,2018-05-23T00:00:00,Low Residential (1-10 units/acre),One-Family Dwelling District,,,Single-family detached house,,,,38.89424307,-77.13103706
2116 N Culpeper St,2116 N CULPEPER ST,Under Construction,0,0,0,1,0,,2018-09-18T00:00:00,Low-Medium Residential,Apartment Dwelling District,,5000,Single-family detached house,,,,38.89587416,-77.12717305
213 N  Edgewood St,213 N  EDGEWOOD ST,Under Construction,0,0,0,1,0,,2018-05-07T00:00:00,Low Residential (1-10 units/acre),One-Family Dwelling District,,,Single-family detached house,,,,38.87738489,-77.08980981
2134 S Nelson St,2134 S NELSON ST,Under Construction,0,0,0,3,0,,2019-09-12T00:00:00,Low Residential (11-15 units/acre),Two-Family and Town House Dwelling District,,,Townhouse,,,,38.8489968,-77.09019498
224 N  Nelson St,224 N NELSON ST,Under Construction,0,0,0,1,0,,2019-03-20T00:00:00,Low Residential (1-10 units/acre),One-Family Dwelling District,,,Single-family detached house,,,,38.87497907,-77.10095618
2244 N Glebe Rd,2244 N GLEBE RD,Under Construction,0,0,0,1,0,,2019-07-25T00:00:00,Low Residential (1-10 units/acre),One-Family Dwelling District,,,Single-family detached house,,,,38.89843304,-77.12465856
Greenbrier Village Phase II,2251 N GREENBRIER ST,Approved (Not Under Construction),0,0,0,4,0,2009-10-01T00:00:00,,Low Residential (1-10 units/acre),One-Family Dwelling District,,,Single-family detached house,,,,38.89614053,-77.13564852
2302 S Nash St,2302 S NASH ST,Under Construction,0,0,0,1,0,,2019-08-06T00:00:00,Low Residential (1-10 units/acre),One-Family Dwelling District,,,Single-family detached house,,,,38.85289099,-77.06974373
2304 N Kensington St,2304 N KENSINGTON ST,Under Construction,0,0,0,1,0,,2019-10-02T00:00:00,Low Residential (1-10 units/acre),One-Family Dwelling District,,,Single-family detached house,,,,38.89350813,-77.14138298
New Century Center Residential,2351 RICHMOND HWY,Approved (Not Under Construction),0,21836,0,308,0,2017-07-15T00:00:00,,High Office-Apartment-Hotel,"Commercial Off. Bldg, Hotel and Multiple-Family",,,Highrise (4+ stories),,24,242,38.85292164,-77.05048749
2400 Columbia Pike,2400 COLUMBIA PIKE,Approved (Not Under Construction),0,12997,0,105,0,2016-06-18T00:00:00,,Service Commercial,Service Commercial -  Community Business Distric,,,Highrise (4+ stories),,,140,38.8635172,-77.0833002
2409 Clardendon Blvd,2409 CLARENDON BLVD,Under Construction,0,0,0,1,0,,2013-12-30T00:00:00,High-Medium Residential Mixed-Use,Service Commercial -  Community Business Distric,,0,Single-family detached house,,,,38.88990911,-77.08813472
Rivendell School,2410 N  KENSINGTON ST,Under Construction,0,0,40325,0,0,,2019-02-21T00:00:00,Low Residential (1-10 units/acre),Local Commercial District,,,,,,,38.8950357,-77.1422808
2428 N Potomac St,2428 N  POTOMAC ST,Under Construction,0,0,0,1,0,,2017-01-03T00:00:00,Low Residential (1-10 units/acre),One-Family Dwelling District,,,Single-family detached house,,,,38.89388233,-77.15272411
2510 16th St N,2510 16TH ST N,Under Construction,0,0,0,1,0,,2019-04-17T00:00:00,Low Residential (1-10 units/acre),One-Family Dwelling District,,5540,Single-family detached house,,,,38.89129921,-77.0893436
2538 N Greenbrier St,2538 N GREENBRIER ST,Under Construction,0,0,0,1,0,,2019-09-20T00:00:00,Low Residential (1-10 units/acre),One-Family Dwelling District,,,Single-family detached house,,,,38.89765773,-77.13785192
Airport Plaza IV,2600 CRYSTAL DR,Approved (Not Under Construction),0,0,0,198,0,1981-01-01T00:00:00,,High Office-Apartment-Hotel,"Commercial Off. Bldg, Hotel and Multiple-Family",,0,Highrise (4+ stories),,,0,38.84967642,-77.051273
2614 Washington Blvd,2614 WASHINGTON BLVD,Under Construction,0,0,0,1,0,,2013-05-30T00:00:00,,"One-Family, Restricted Two Family Dwelling Distr",,,Single-family detached house,,,,38.8789076,-77.0892487
2616 2nd Rd N,2616 2ND RD N,Under Construction,0,0,0,1,0,,2019-03-05T00:00:00,Low Residential (1-10 units/acre),One-Family Dwelling District,,,Single-family detached house,,,,38.87769084,-77.0893349
2618 S Ives St,2618 S IVES ST,Under Construction,0,0,0,1,0,,2019-07-17T00:00:00,Low Residential (1-10 units/acre),One-Family Dwelling District,,,Single-family detached house,,,,38.84845214,-77.06142274
2631 S Arlington Ridge Rd,2631 S ARLINGTON RIDGE RD,Under Construction,0,0,0,1,0,,2019-05-16T00:00:00,Low Residential (1-10 units/acre),One-Family Dwelling District,,24664,Single-family detached house,,,,38.84866554,-77.06667212
2707 1st St S,2707 1ST ST S,Under Construction,0,0,0,1,0,,2019-10-29T00:00:00,Low Residential (1-10 units/acre),One-Family Dwelling District,,,Single-family detached house,,,,38.87254801,-77.08786112
2711 1st St S,2711 1ST ST S,Under Construction,0,0,0,1,0,,2019-10-29T00:00:00,Low Residential (1-10 units/acre),One-Family Dwelling District,,,Single-family detached house,,,,38.87251038,-77.08803056
2711 N George Mason Dr,2711 N GEORGE MASON DR,Under Construction,0,0,0,1,0,,2019-07-19T00:00:00,Low Residential (1-10 units/acre),One-Family Dwelling District,,,Single-family detached house,,,,38.90196868,-77.1357093
2722 N  Norwood St,2722 N  NORWOOD ST,Under Construction,0,0,0,1,0,,2019-03-12T00:00:00,Low Residential (1-10 units/acre),One-Family Dwelling District,,,Single-family detached house,,,,38.90688878,-77.10070517
2739 N  Radford St,2739 N  RADFORD ST,Under Construction,0,0,0,1,0,,2018-11-07T00:00:00,Low Residential (1-10 units/acre),One-Family Dwelling District,,,Single-family detached house,,,,38.90953299,-77.10408264
2776 N Quebec St,2776 N QUEBEC ST,Under Construction,0,0,0,1,0,,2019-11-15T00:00:00,Low Residential (1-10 units/acre),One-Family Dwelling District,,,Single-family detached house,,,,38.90948602,-77.10318043
28 S Pershing Dr,28 S PERSHING DR,Under Construction,0,0,0,1,0,,2017-03-22T00:00:00,Low Residential (1-10 units/acre),One-Family Dwelling District,,,Single-family detached house,,,,38.86703791,-77.11090227
Clarendon Market Common Phase II amendment,2801 CLARENDON BLVD,Under Construction,0,27945,0,0,0,2018-01-30T00:00:00,2019-03-01T00:00:00,Low Office-Apartment-Hotel,"Commercial Office Building, Hotel and Apartment",,,,,,425,38.88863464,-77.09199449
The Berkeley,2900 S GLEBE RD,Under Construction,0,0,0,256,0,2016-05-17T00:00:00,2019-03-31T00:00:00,Low-Medium Residential,Apartment Dwelling District,,,Highrise (4+ stories),,,241,38.8444288,-77.06901669
2916 Key Blvd,2916 KEY BLVD,Under Construction,0,0,0,1,0,,2019-09-04T00:00:00,Low Residential (1-10 units/acre),One-Family Dwelling District,,,Single-family detached house,,,,38.89099529,-77.09478828
2931 S Grant St,2931 S GRANT ST,Under Construction,0,0,0,1,0,,2018-05-03T00:00:00,Low Residential (1-10 units/acre),One-Family Dwelling District,,,Single-family detached house,,,,38.84587424,-77.05695522
300 N  Park Dr,300 N  PARK DR,Under Construction,0,0,0,1,0,,2018-11-16T00:00:00,Public,Special District,,,Single-family detached house,,,,38.8734019,-77.11398678
Lubber Run Community Center,300 N PARK DR,Under Construction,0,0,53348,0,0,,2019-02-06T00:00:00,Public,Special District,,,,,,,38.8734019,-77.11398678
3008 20th St S,3008 20TH ST S,Under Construction,0,0,0,1,0,,2019-03-21T00:00:00,Low Residential (1-10 units/acre),One-Family Dwelling District,,,Single-family detached house,,,,38.85271291,-77.08554792
3013 N  Underwood St,3013 N UNDERWOOD ST,Under Construction,0,0,0,1,0,,2016-04-26T00:00:00,Low Residential (1-10 units/acre),One-Family Dwelling District,,,Single-family detached house,,,,38.89653726,-77.16500448
Abingdon Elementary School Addition,3035 S ABINGDON ST,Under Construction,0,0,30000,0,0,2015-09-19T00:00:00,2016-07-22T00:00:00,Public,Special District,,,,,,0,38.83983727,-77.09609176
3038 N Peary St,3038 N PEARY ST,Under Construction,0,0,0,1,0,,2016-02-26T00:00:00,Low Residential (1-10 units/acre),One-Family Dwelling District,,10450,Single-family detached house,,,,38.91709664,-77.1134616
3081 N Pollard St,3081 N POLLARD ST,Under Construction,0,0,0,1,0,,2018-02-20T00:00:00,Low Residential (1-10 units/acre),One-Family Dwelling District,,10628,Single-family detached house,,,,38.91472318,-77.11485756
31 N Jackson St,31 N JACKSON ST,Under Construction,0,0,0,1,0,,2019-07-16T00:00:00,Low Residential (1-10 units/acre),One-Family Dwelling District,,,Single-family detached house,,,,38.87354177,-77.09551237
3104 19th St S,3104 19TH ST S,Under Construction,0,0,0,1,0,,2019-12-03T00:00:00,Low Residential (1-10 units/acre),One-Family Dwelling District,,,Single-family detached house,,,,38.85353871,-77.08618813
3109 N  Toronto St,3109 N  TORONTO ST,Under Construction,0,0,0,1,0,,2019-04-29T00:00:00,Low Residential (1-10 units/acre),One-Family Dwelling District,,15946,Single-family detached house,,,,38.89964754,-77.16272089
3116 N Nelson St,3116 N NELSON ST,Under Construction,0,0,0,1,0,,2018-01-04T00:00:00,Low Residential (1-10 units/acre),One-Family Dwelling District,,12500,Single-family detached house,,,,38.9187181,-77.11372411
3121 24th St S,3121 24TH ST S,Under Construction,0,0,0,1,0,,2013-12-06T00:00:00,Service Commercial,Two-Family and Town House Dwelling District,,3401,Single-family detached house,,,,38.84881044,-77.08360652
3123 17th St N,3123 17TH ST N,Under Construction,0,0,0,1,0,,2019-11-19T00:00:00,Low Residential (1-10 units/acre),One-Family Dwelling District,,,Single-family detached house,,,,38.89124146,-77.09734624
3132 10Th St N,3132 10TH ST N,Under Construction,0,0,0,1,0,,2016-05-11T00:00:00,Service Commercial,General Commercial District,,,Single-family detached house,,,,38.88419773,-77.09595635
314 N Barton St,314 N BARTON ST,Under Construction,0,0,0,1,0,,2018-09-14T00:00:00,Low Residential (1-10 units/acre),"One-Family, Restricted Two Family Dwelling Distr",,5300,Single-family detached house,,,,38.87993702,-77.08722938
3162 21st St N,3162 21ST ST N,Under Construction,0,0,0,1,0,,2019-11-08T00:00:00,Low Residential (1-10 units/acre),One-Family Dwelling District,,,Single-family detached house,,,,38.89429335,-77.09718593
3174 21St St N,3174 21ST ST N,Under Construction,0,0,0,1,0,,2018-10-16T00:00:00,Low Residential (1-10 units/acre),One-Family Dwelling District,,,Single-family detached house,,,,38.8940314,-77.09762098
3214 1st Rd N,3214 1ST RD N,Under Construction,0,0,0,1,0,,2019-06-03T00:00:00,Low Residential (1-10 units/acre),One-Family Dwelling District,,7386,Single-family detached house,,,,38.87464397,-77.0951876
3215 N  Vermont St,3215 N  VERMONT ST,Under Construction,0,0,0,1,0,,2019-01-30T00:00:00,Low Residential (1-10 units/acre),One-Family Dwelling District,,,Single-family detached house,,,,38.91281187,-77.12407788
3219 1st St N,3219 1ST ST N,Under Construction,0,0,0,1,0,,2019-10-22T00:00:00,Low Residential (1-10 units/acre),One-Family Dwelling District,,,Single-family detached house,,,,38.87407022,-77.09516335
3264 N  Ohio St,3264 N  OHIO ST,Under Construction,0,0,0,1,0,,2019-06-30T00:00:00,Low Residential (1-10 units/acre),One-Family Dwelling District,,,Single-family detached house,,,,38.90263831,-77.15283992
3316 N Vernon St,3316 N VERNON ST,Under Construction,0,0,0,1,0,,2019-12-12T00:00:00,Low Residential (1-10 units/acre),One-Family Dwelling District,,,Single-family detached house,,,,38.91289004,-77.12747507
Long Bridge Park Aquatics and Fitness Facility (Phase I),333 LONG BRIDGE DR,Under Construction,0,0,120420,0,0,2013-03-16T00:00:00,2019-03-01T00:00:00,Public,Public Service District,,1083470,,,,360,38.86957043,-77.04455995
3400 N  Vermont St,3400 N  VERMONT ST,Under Construction,0,0,0,1,0,,2019-02-11T00:00:00,Low Residential (1-10 units/acre),One-Family Dwelling District,,,Single-family detached house,,,,38.91488956,-77.12482813
George Mason University - Phase III,3401 FAIRFAX DR,Approved (Not Under Construction),90000,11000,183000,0,0,1994-01-01T00:00:00,,Public,General Commercial District,,130680,,,,1100,38.88520237,-77.1002122
3401 N  Abingdon St,3401 N  ABINGDON ST,Under Construction,0,0,0,1,0,,2019-06-05T00:00:00,Low Residential (1-10 units/acre),One-Family Dwelling District,,13949,Single-family detached house,,,,38.91271532,-77.13034606
3406 N  Vermont St,3406 N  VERMONT ST,Under Construction,0,0,0,1,0,,2019-03-15T00:00:00,Low Residential (1-10 units/acre),One-Family Dwelling District,,,Single-family detached house,,,,38.91508294,-77.12487349
3411 N  Woodrow St,3411 N  WOODROW ST,Under Construction,0,0,0,1,0,,2016-11-01T00:00:00,Low Residential (1-10 units/acre),One-Family Dwelling District,,,Single-family detached house,,,,38.91377647,-77.1275676
3418 N Randolph St,3418 N RANDOLPH ST,Under Construction,0,0,0,1,0,,2019-11-12T00:00:00,Low Residential (1-10 units/acre),One-Family Dwelling District,,,Single-family detached house,,,,38.91667662,-77.12129484
American Legion/APAH,3445 WASHINGTON BLVD,Approved (Not Under Construction),0,0,6750,160,0,2019-02-23T00:00:00,,Semi-Public,"Commercial Office Building, Hotel and Apartment",,,Highrise (4+ stories),,,,38.88655059,-77.10245026
3465 N  Emerson St,3465 N  EMERSON ST,Under Construction,0,0,0,1,0,,2019-05-21T00:00:00,Low Residential (1-10 units/acre),One-Family Dwelling District,,10000,Single-family detached house,,,,38.91023695,-77.14334734
3507 16th St S,3507 16TH ST S,Under Construction,0,0,0,1,0,,2007-05-30T00:00:00,Low Residential (1-10 units/acre),"One-Family, Restricted Two Family Dwelling Distr",,6050,Single-family detached house,,,,38.85618297,-77.09032235
3507 N Kensington St,3507 N KENSINGTON ST,Under Construction,0,0,0,1,0,,2019-03-01T00:00:00,Low Residential (1-10 units/acre),One-Family Dwelling District,,,Single-family detached house,,,,38.90697871,-77.14973252
3511 N Potomac St,3511 N POTOMAC ST,Under Construction,0,0,0,1,0,,2019-09-24T00:00:00,Low Residential (1-10 units/acre),One-Family Dwelling District,,,Single-family detached house,,,,38.90378951,-77.15556919
3514 N Abingdon St,3514 N ABINGDON ST,Under Construction,0,0,0,1,0,,2019-07-11T00:00:00,Low Residential (1-10 units/acre),One-Family Dwelling District,,,Single-family detached house,,,,38.91497439,-77.13023318
3536 N  Dinwiddie St,3536 N  DINWIDDIE ST,Under Construction,0,0,0,1,0,,2019-06-07T00:00:00,Low Residential (1-10 units/acre),One-Family Dwelling District,,10000,Single-family detached house,,,,38.91463239,-77.13877711
3541 N  Utah St,3541 N UTAH ST,Under Construction,0,0,0,1,0,,2015-12-11T00:00:00,Low Residential (1-10 units/acre),One-Family Dwelling District,,,Single-family detached house,,,,38.91785059,-77.12351416
3608 36th Rd N,3608 36TH RD N,Under Construction,0,0,0,1,0,,2019-09-25T00:00:00,Low Residential (1-10 units/acre),One-Family Dwelling District,,,Single-family detached house,,,,38.92293051,-77.11646036
3703 N Randolph St,3703 N RANDOLPH ST,Under Construction,0,0,0,1,0,,2015-03-16T00:00:00,Low Residential (1-10 units/acre),One-Family Dwelling District,,,Single-family detached house,,,,38.92092484,-77.12163286
3839 Military Rd,3839 MILITARY RD,Under Construction,0,0,0,1,0,,2018-06-19T00:00:00,Low Residential (1-10 units/acre),One-Family Dwelling District,,,Single-family detached house,,,,38.92448176,-77.12173873
3841 Military Rd,3841 MILITARY RD,Under Construction,0,0,0,1,0,,2018-06-12T00:00:00,Low Residential (1-10 units/acre),One-Family Dwelling District,,,Single-family detached house,,,,38.92464319,-77.12192715
3882 30th St N,3882 30TH ST N,Under Construction,0,0,0,1,0,,2017-10-27T00:00:00,Low Residential (1-10 units/acre),One-Family Dwelling District,,,Single-family detached house,,,,38.91424046,-77.11131972
3935 N  Upland St,3935 N  UPLAND ST,Under Construction,0,0,0,1,0,,2019-05-15T00:00:00,Low Residential (1-10 units/acre),One-Family Dwelling District,,13474,Single-family detached house,,,,38.92298266,-77.13211017
Verizon Site,400 11TH ST S,Approved (Not Under Construction),0,10653,0,306,0,2019-10-19T00:00:00,,High Office-Apartment-Hotel,Multiple-Family Dwelling and Hotel District,,,Highrise (4+ stories),,,,38.86363858,-77.05357756
4024 20th St N,4024 20TH ST N,Under Construction,0,0,0,1,0,,2019-07-29T00:00:00,Low Residential (1-10 units/acre),One-Family Dwelling District,,,Single-family detached house,,,,38.89447373,-77.10893394
4030 18th St S,4030 18TH ST S,Under Construction,0,0,0,1,0,,2017-06-05T00:00:00,Low Residential (1-10 units/acre),One-Family Dwelling District,,,Single-family detached house,,,,38.85160571,-77.09698915
404 S  Illinois St,404 S  ILLINOIS ST,Under Construction,0,0,0,1,0,,2018-06-25T00:00:00,Low Residential (1-10 units/acre),One-Family Dwelling District,,,Single-family detached house,,,,38.86296309,-77.12235391
407 Chain Bridge Rd,407 CHAIN BRIDGE RD,Under Construction,0,0,0,1,0,,2015-01-08T00:00:00,Low Residential (1-10 units/acre),One-Family Dwelling District,,83539,Single-family detached house,,,,38.93332512,-77.11962478
Stratford School Addition,4100 VACATION LN,Under Construction,0,0,40000,0,0,2017-03-18T00:00:00,2019-03-25T00:00:00,Public,Special District,,,,,,,38.90050087,-77.11121215
4101 N  Richmond St,4101 N  RICHMOND ST,Under Construction,0,0,0,1,0,,2019-02-25T00:00:00,Low Residential (1-10 units/acre),One-Family Dwelling District,,,Single-family detached house,,,,38.92760769,-77.12217218
4115 33rd Rd N,4115 33RD RD N,Under Construction,0,0,0,1,0,,2019-02-13T00:00:00,Low Residential (1-10 units/acre),One-Family Dwelling District,,,Single-family detached house,,,,38.91523812,-77.12113361
4210 25th St N,4210 25TH ST N,Under Construction,0,0,0,1,0,,2018-08-31T00:00:00,Low Residential (1-10 units/acre),One-Family Dwelling District,,,Single-family detached house,,,,38.90485442,-77.11340047
4219 Lorcom Ln,4219 LORCOM LN,Under Construction,0,0,0,1,0,,2019-08-07T00:00:00,Low Residential (1-10 units/acre),One-Family Dwelling District,,,Single-family detached house,,,,38.90155881,-77.11383779
4221 Lorcom Ln,4221 LORCOM LN,Under Construction,0,0,0,1,0,,2019-08-07T00:00:00,Low Residential (1-10 units/acre),One-Family Dwelling District,,,Single-family detached house,,,,38.9014946,-77.11393546
Ballston Station/Ballston Central United Methodist Church,4223 N FAIRFAX DR,Approved (Not Under Construction),0,0,23499,119,0,2017-02-28T00:00:00,,High-Medium Residential Mixed Use,Service Commercial -  Community Business Distric,,,Highrise (4+ stories),,,,38.8825322,-77.1115035
4278 38th St N,4278 38TH ST N,Under Construction,0,0,0,1,0,,2018-10-15T00:00:00,Low Residential (1-10 units/acre),One-Family Dwelling District,,,Single-family detached house,,,,38.92025523,-77.12612897
4306 40th St N,4306 40TH ST N,Under Construction,0,0,0,1,0,,2019-10-28T00:00:00,Low Residential (1-10 units/acre),One-Family Dwelling District,,,Single-family detached house,,,,38.92426968,-77.13135717
4319 17th St N,4319 17TH ST N,Under Construction,0,0,0,1,0,,2019-01-28T00:00:00,Low Residential (1-10 units/acre),One-Family Dwelling District,,,Single-family detached house,,,,38.89178986,-77.11390272
4421 36th St N,4421 36TH ST N,Under Construction,0,0,0,1,0,,2019-04-17T00:00:00,Low Residential (1-10 units/acre),One-Family Dwelling District,,12162,Single-family detached house,,,,38.91728156,-77.12618678
4424 17th St N,4424 17TH ST N,Under Construction,0,0,0,1,0,,2019-09-19T00:00:00,Low Residential (1-10 units/acre),One-Family Dwelling District,,,Single-family detached house,,,,38.89132335,-77.11575993
4514 25th Rd N,4514 25TH RD N,Under Construction,0,0,0,1,0,,2019-09-05T00:00:00,Low Residential (1-10 units/acre),One-Family Dwelling District,,,Single-family detached house,,,,38.90719397,-77.11966774
4523 19th Rd N,4523 19TH RD N,Under Construction,0,0,0,1,0,,2019-07-29T00:00:00,Low Residential (1-10 units/acre),One-Family Dwelling District,,,Single-family detached house,,,,38.89443118,-77.11818076
4524 19th Rd N,4524 19TH RD N,Under Construction,0,0,0,1,0,,2019-10-18T00:00:00,Low Residential (1-10 units/acre),One-Family Dwelling District,,,Single-family detached house,,,,38.89407242,-77.11818416
4601-4607 Old Dominion Dr,4601 OLD DOMINION DR,Approved (Not Under Construction),6272,5570,0,12,0,2006-02-25T00:00:00,,Service Commercial,Service Commercial -  Community Business Distric,,12666,Garden (Less than 4 stories),45,4,58,38.89902372,-77.11983575
4605 22nd St N,4605 22ND ST N,Under Construction,0,0,0,1,0,,2019-09-13T00:00:00,Low Residential (1-10 units/acre),One-Family Dwelling District,,,Single-family detached house,,,,38.89951163,-77.12034445
4613 Rock Spring Rd,4613 ROCK SPRING RD,Under Construction,0,0,0,1,0,,2018-11-09T00:00:00,Low Residential (1-10 units/acre),One-Family Dwelling District,,,Single-family detached house,,,,38.91025091,-77.12724845
4641 13th St N,4641 13TH ST N,Under Construction,0,0,0,1,0,,2019-11-14T00:00:00,Low Residential (1-10 units/acre),One-Family Dwelling District,,,Single-family detached house,,,,38.88681762,-77.11937464
4701 22nd St N,4701 22ND ST N,Under Construction,0,0,0,1,0,,2019-09-17T00:00:00,Low Residential (1-10 units/acre),One-Family Dwelling District,,,Single-family detached house,,,,38.89939143,-77.12139004
4707 Columbia Pike,4707 COLUMBIA PIKE,Under Construction,0,0,0,1,0,,2016-09-06T00:00:00,Service Commercial,Service Commercial -  Community Business Distric,,,Single-family detached house,,,,38.85731201,-77.10811898
4739 34th Rd N,4739 34TH RD N,Under Construction,0,0,0,1,0,,2019-05-16T00:00:00,Low Residential (1-10 units/acre),One-Family Dwelling District,,10528,Single-family detached house,,,,38.91272274,-77.13303697
4777 33rd St N,4777 33RD ST N,Under Construction,0,0,0,1,0,,2019-03-28T00:00:00,Low Residential (1-10 units/acre),One-Family Dwelling District,,,Single-family detached house,,,,38.90990234,-77.13351244
4806 25th St N,4806 25TH ST N,Under Construction,0,0,0,1,0,,2019-04-23T00:00:00,Low Residential (1-10 units/acre),One-Family Dwelling District,,5509,Single-family detached house,,,,38.90068736,-77.12842926
4835 Little Falls Rd,4835 LITTLE FALLS RD,Under Construction,0,0,0,1,0,,2018-12-31T00:00:00,Low Residential (1-10 units/acre),One-Family Dwelling District,,,Single-family detached house,,,,38.91087395,-77.13605384
4835 Little Falls Rd,4835 LITTLE FALLS RD,Under Construction,0,0,0,1,0,,2018-12-31T00:00:00,Low Residential (1-10 units/acre),One-Family Dwelling District,,,Single-family detached house,,,,38.91087395,-77.13605384
4856 33rd Rd N,4856 33RD RD N,Under Construction,0,0,0,1,0,,2019-08-22T00:00:00,Low Residential (1-10 units/acre),One-Family Dwelling District,,,Single-family detached house,,,,38.9101655,-77.13562856
4911 25th Rd N,4911 25TH RD N,Under Construction,0,0,0,1,0,,2019-12-02T00:00:00,Low Residential (1-10 units/acre),One-Family Dwelling District,,,Single-family detached house,,,,38.90074881,-77.13113664
4925 Old Dominion Dr,4925 OLD DOMINION DR,Under Construction,0,0,0,1,0,,2018-11-02T00:00:00,Low Residential (1-10 units/acre),One-Family Dwelling District,,,Single-family detached house,,,,38.91029409,-77.13857266
4931 36th St N,4931 36TH ST N,Under Construction,0,0,0,1,0,,2019-08-13T00:00:00,Low Residential (1-10 units/acre),One-Family Dwelling District,,,Single-family detached house,,,,38.91542314,-77.13773234
4933 34th St N,4933 34TH ST N,Under Construction,0,0,0,1,0,,2019-06-25T00:00:00,Low Residential (1-10 units/acre),One-Family Dwelling District,,7000,Single-family detached house,,,,38.91149774,-77.13758372
5001 30th St N,5001 30TH ST N,Under Construction,0,0,0,1,0,,2019-10-07T00:00:00,Low Residential (1-10 units/acre),One-Family Dwelling District,,,Single-family detached house,,,,38.90567456,-77.13584237
5010 25th Rd N,5010 25TH RD N,Under Construction,0,0,0,1,0,,2019-09-23T00:00:00,Low Residential (1-10 units/acre),One-Family Dwelling District,,,Single-family detached house,,,,38.89994882,-77.1316674
5016 22nd St N,5016 22ND ST N,Under Construction,0,0,0,1,0,,2019-01-25T00:00:00,Low Residential (1-10 units/acre),One-Family Dwelling District,,,Single-family detached house,,,,38.89542855,-77.1296118
5032 25th Rd N,5032 25TH RD N,Under Construction,0,0,0,1,0,,2016-03-02T00:00:00,Low Residential (1-10 units/acre),One-Family Dwelling District,,16711,Single-family detached house,,,,38.89946198,-77.13264729
5059 36th St N,5059 36TH ST N,Under Construction,0,0,0,1,0,,2019-11-04T00:00:00,Low Residential (1-10 units/acre),One-Family Dwelling District,,,Single-family detached house,,,,38.91575922,-77.14099712
508 N Highland St,508 N HIGHLAND ST,Under Construction,0,0,0,1,0,,2019-12-23T00:00:00,Low Residential (1-10 units/acre),One-Family Dwelling District,,,Single-family detached house,,,,38.87990292,-77.09465912
5117 26th Rd N,5117 26TH RD N,Under Construction,0,0,0,1,0,,2018-10-03T00:00:00,Low Residential (1-10 units/acre),One-Family Dwelling District,,,Single-family detached house,,,,38.90038879,-77.13712706
512 N Greenbrier St,512 N GREENBRIER ST,Under Construction,0,0,0,1,0,,2019-07-19T00:00:00,Low Residential (1-10 units/acre),One-Family Dwelling District,,,Single-family detached house,,,,38.87339872,-77.12315393
518 N Jefferson St,518 N JEFFERSON ST,Under Construction,0,0,0,1,0,,2019-08-15T00:00:00,Low Residential (1-10 units/acre),One-Family Dwelling District,,,Single-family detached house,,,,38.87307117,-77.12704995
5222 12Th St N,5222 12TH ST N,Under Construction,0,0,0,1,0,,2019-02-14T00:00:00,Low Residential (1-10 units/acre),One-Family Dwelling District,,,Single-family detached house,,,,38.88358314,-77.12894142
5308 31St Rd N,5308 31ST RD N,Under Construction,0,0,0,1,0,,2018-09-14T00:00:00,Low Residential (1-10 units/acre),One-Family Dwelling District,,12367,Single-family detached house,,,,38.90497541,-77.14385122
5335 Lee Highway,5335 LEE HWY,Under Construction,0,3533,0,0,0,,2019-09-13T00:00:00,Service Commercial,Local Commercial District,,,,,,,38.89666784,-77.13694028
5502 16Th St N,5502 16TH ST N,Under Construction,0,0,0,1,0,,2016-11-03T00:00:00,Low Residential (1-10 units/acre),One-Family Dwelling District,,,Single-family detached house,,,,38.88692498,-77.13107803
5509 32nd St N,5509 32ND ST N,Under Construction,0,0,0,1,0,,2019-12-13T00:00:00,Low Residential (1-10 units/acre),One-Family Dwelling District,,,Single-family detached house,,,,38.90624979,-77.14689272
5513 31st St N,5513 31ST ST N,Under Construction,0,0,0,1,0,,2019-11-20T00:00:00,Low Residential (1-10 units/acre),One-Family Dwelling District,,,Single-family detached house,,,,38.90439048,-77.14658743
5521 15th St N,5521 15TH ST N,Under Construction,0,0,0,1,0,,2019-11-14T00:00:00,Low Residential (1-10 units/acre),One-Family Dwelling District,,,Single-family detached house,,,,38.88636656,-77.13170861
5600 32nd St N,5600 32ND ST N,Under Construction,0,0,0,1,0,,2018-10-23T00:00:00,Low Residential (1-10 units/acre),One-Family Dwelling District,,,Single-family detached house,,,,38.90400544,-77.14694521
5606 5th St N,5606 5TH ST N,Under Construction,0,0,0,1,0,,2019-11-15T00:00:00,Low Residential (1-10 units/acre),One-Family Dwelling District,,,Single-family detached house,,,,38.87204847,-77.12682309
5612 5th St N,5612 5TH ST N,Under Construction,0,0,0,1,0,,2019-01-16T00:00:00,Low Residential (1-10 units/acre),One-Family Dwelling District,,,Single-family detached house,,,,38.87197923,-77.12699781
5636 5Th St N,5636 5TH ST N,Under Construction,0,0,0,1,0,,2016-10-21T00:00:00,Low Residential (1-10 units/acre),One-Family Dwelling District,,,Single-family detached house,,,,38.87170705,-77.12778078
5708 19th St N,5708 19TH ST N,Under Construction,0,0,0,1,0,,2019-09-30T00:00:00,Low Residential (1-10 units/acre),One-Family Dwelling District,,,Single-family detached house,,,,38.88888729,-77.13931141
5716 8th St N,5716 8TH ST N,Under Construction,0,0,0,1,0,,2019-08-23T00:00:00,Low Residential (1-10 units/acre),One-Family Dwelling District,,,Single-family detached house,,,,38.87381798,-77.13078449
5721 5th St N,5721 5TH ST N,Under Construction,0,0,0,1,0,,2019-04-16T00:00:00,Low Residential (1-10 units/acre),One-Family Dwelling District,,6000,Single-family detached house,,,,38.87147482,-77.12975943
5800 Little Falls Rd,5800 LITTLE FALLS RD,Under Construction,0,0,0,1,0,,2019-01-03T00:00:00,Low Residential (1-10 units/acre),One-Family Dwelling District,,,Single-family detached house,,,,38.90181891,-77.14858821
5907 Williamsburg Blvd,5907 WILLIAMSBURG BLVD,Under Construction,0,0,0,1,0,,2019-07-31T00:00:00,Low Residential (1-10 units/acre),One-Family Dwelling District,,,Single-family detached house,,,,38.90514153,-77.15165064
Harris Teeter Site,600 N GLEBE RD,Approved (Not Under Construction),0,77575,0,732,0,2019-11-16T00:00:00,,High-Medium Residential Mixed-Use,Apartment Dwelling and Commercial District,,,Highrise (4+ stories),,,,38.87663712,-77.10989391
600 N Jackson St,600 N JACKSON ST,Under Construction,0,0,0,1,0,,2019-12-11T00:00:00,Low Residential (1-10 units/acre),One-Family Dwelling District,,,Single-family detached house,,,,38.87957921,-77.09861346
6000 28th St N,6000 28TH ST N,Under Construction,0,0,0,1,0,,2019-11-12T00:00:00,Low Residential (1-10 units/acre),One-Family Dwelling District,,,Single-family detached house,,,,38.89874945,-77.14863486
6032 20th St N,6032 20TH ST N,Under Construction,0,0,0,1,0,,2019-12-10T00:00:00,Low Residential (1-10 units/acre),One-Family Dwelling District,,,Single-family detached house,,,,38.88834099,-77.14587818
604 N Lincoln St,604 N LINCOLN ST,Under Construction,0,0,0,1,0,,2019-07-08T00:00:00,Low Residential (1-10 units/acre),One-Family Dwelling District,,,Single-family detached house,,,,38.8791746,-77.10070698
608 N Vermont St,608 N VERMONT ST,Under Construction,0,0,0,1,0,,2017-09-22T00:00:00,Low Residential (1-10 units/acre),"One-Family, Restricted Two Family Dwelling Distr",,,Single-family detached house,,,,38.87690021,-77.11400006
6117 35th St N,6117 35TH ST N,Under Construction,0,0,0,1,0,,2019-10-15T00:00:00,Low Residential (1-10 units/acre),One-Family Dwelling District,,,Single-family detached house,,,,38.90400122,-77.15445318
Honeysuckle Hills URD,6122 LEE HIGHWAY,Approved (Not Under Construction),0,0,0,3,0,2014-02-22T00:00:00,,Low Residential (1-10 units/acre),One-Family Dwelling District,,41894,Single-family detached house,,,,38.8927347,-77.1489433
6125 Williamsburg Blvd,6125 WILLIAMSBURG BLVD,Under Construction,0,0,0,1,0,,2019-02-26T00:00:00,Low Residential (1-10 units/acre),One-Family Dwelling District,,,Single-family detached house,,,,38.90327716,-77.15391994
6213 31st St N,6213 31ST ST N,Under Construction,0,0,0,1,0,,2016-04-22T00:00:00,Low Residential (1-10 units/acre),One-Family Dwelling District,,,Single-family detached house,,,,38.90002772,-77.1536398
628 S Taylor St,628 S TAYLOR ST,Under Construction,0,0,0,1,0,,2019-11-26T00:00:00,Low Residential (1-10 units/acre),One-Family Dwelling District,,,Single-family detached house,,,,38.86230461,-77.10592695
6300 28th St N,6300 28TH ST N,Under Construction,0,0,0,1,0,,2018-09-26T00:00:00,Low Residential (1-10 units/acre),One-Family Dwelling District,,8066,Single-family detached house,,,,38.89750578,-77.15457267
6415 19th St N,6415 19TH ST N,Under Construction,0,0,0,1,0,,2018-07-11T00:00:00,Low Residential (1-10 units/acre),One-Family Dwelling District,,51636,Single-family detached house,,,,38.88685365,-77.15572438
6429 27th St N,6429 27TH ST N,Under Construction,0,0,0,1,0,,2019-10-25T00:00:00,Low Residential (1-10 units/acre),One-Family Dwelling District,,,Single-family detached house,,,,38.89706231,-77.1569659
6593 Williamsburg Blvd,6593 WILLIAMSBURG BLVD,Under Construction,0,0,0,1,0,,2019-11-07T00:00:00,Low Residential (1-10 units/acre),One-Family Dwelling District,,,Single-family detached house,,,,38.89780687,-77.16223675
6600 16th St N,6600 16TH ST N,Under Construction,0,0,0,1,0,,2018-02-20T00:00:00,Low Residential (1-10 units/acre),One-Family Dwelling District,,7171,Single-family detached house,,,,38.88131528,-77.1567719
6619 29th St N,6619 29TH ST N,Under Construction,0,0,0,1,0,,2019-06-02T00:00:00,Low Residential (1-10 units/acre),One-Family Dwelling District,,10001,Single-family detached house,,,,38.89630318,-77.16252204
6711 Lee Highway (Sun Trust Site),6711 LEE HWY,Approved (Not Under Construction),0,0,0,27,0,2017-11-18T00:00:00,,Low-Medium Residential,Apartment Dwelling District,,,Townhouse,,,,38.88936335,-77.15959946
6716 31st St N,6716 31ST ST N,Under Construction,0,0,0,1,0,,2019-12-26T00:00:00,Low Residential (1-10 units/acre),One-Family Dwelling District,,,Single-family detached house,,,,38.89734132,-77.16544107
6942 28th St N,6942 28TH ST N,Under Construction,0,0,0,1,0,,2019-10-11T00:00:00,Low Residential (1-10 units/acre),One-Family Dwelling District,,,Single-family detached house,,,,38.89278037,-77.16910277
Macy's Department Store and Office Expansion,701 N GLEBE RD,Approved (Not Under Construction),19806,0,0,0,0,2015-11-14T00:00:00,,Medium Office-Apartment-Hotel,"Commercial Office Building, Hotel and Apartment",,,,,,,38.87921568,-77.11190382
703 N  Fillmore St,703 N  FILLMORE ST,Under Construction,0,0,0,1,0,,2016-12-07T00:00:00,Low Residential (1-10 units/acre),One-Family Dwelling District,,,Single-family detached house,,,,38.88108104,-77.09227535
705 N  Barton St,705 N  BARTON ST,Under Construction,0,0,0,1,0,,2019-01-25T00:00:00,Low Residential (1-10 units/acre),"One-Family, Restricted Two Family Dwelling Distr",,,Single-family detached house,,,,38.88096797,-77.08720023
705/707 N Barton St,705 N BARTON ST,Under Construction,0,0,0,2,0,2008-01-26T00:00:00,2017-10-30T00:00:00,Low Residential (1-10 units/acre),"One-Family, Restricted Two Family Dwelling Distr",,,Single-family detached house,,,0,38.88096797,-77.08720023
707 N  Barton St,707 N  BARTON ST,Under Construction,0,0,0,1,0,,2019-01-25T00:00:00,Low Residential (1-10 units/acre),"One-Family, Restricted Two Family Dwelling Distr",,,Single-family detached house,,,,38.88105288,-77.08721383
7101 27th Rd N,7101 27TH RD N,Under Construction,0,0,0,1,0,,2019-12-30T00:00:00,Low Residential (1-10 units/acre),One-Family Dwelling District,,,Single-family detached house,,,,38.89222765,-77.16951984
7108 27th Rd N,7108 27TH RD N,Under Construction,0,0,0,1,0,,2019-04-24T00:00:00,Low Residential (1-10 units/acre),One-Family Dwelling District,,10094,Single-family detached house,,,,38.89208925,-77.17012368
720 N Kensington St,720 N KENSINGTON ST,Under Construction,0,0,0,1,0,,2019-10-21T00:00:00,Low Residential (1-10 units/acre),One-Family Dwelling District,,,Single-family detached house,,,,38.87399071,-77.13030857
The Waycroft,750 N GLEBE RD,Under Construction,0,68185,0,483,0,2016-06-18T00:00:00,2018-03-31T00:00:00,High-Medium Residential Mixed-Use,Apartment Dwelling District,,,Highrise (4+ stories),,,,38.87974265,-77.11395295
801 N Daniel St,801 N DANIEL ST,Under Construction,0,0,0,1,0,,2019-07-16T00:00:00,Low Residential (1-10 units/acre),"One-Family, Restricted Two Family Dwelling Distr",,,Single-family detached house,,,,38.88213467,-77.09044761
805 N Daniel St,805 N DANIEL ST,Under Construction,0,0,0,1,0,,2019-07-25T00:00:00,Low Residential (1-10 units/acre),"One-Family, Restricted Two Family Dwelling Distr",,,Single-family detached house,,,,38.88225374,-77.09053676
827 N Barton St,827 N BARTON ST,Under Construction,0,0,0,1,0,,2018-09-25T00:00:00,Low Residential (1-10 units/acre),"One-Family, Restricted Two Family Dwelling Distr",,,Single-family detached house,,,,38.8828597,-77.08733372
830 22Nd St S,830 22ND ST S,Under Construction,0,0,0,1,0,,2016-10-05T00:00:00,Low Residential (1-10 units/acre),"One-Family, Restricted Two Family Dwelling Distr",,,Single-family detached house,,,,38.85390573,-77.06095097
900 N  Harrison St,900 N  HARRISON ST,Under Construction,0,0,0,1,0,,2017-04-13T00:00:00,Low Residential (1-10 units/acre),One-Family Dwelling District,,,Single-family detached house,,,,38.8787679,-77.1276907
911 S Oak St,911 S OAK ST,Under Construction,0,0,0,1,0,,2019-10-04T00:00:00,Low Residential (11-15 units/acre),One-Family Dwelling District,,,Single-family detached house,,,,38.86764246,-77.07037018
919 N Cleveland St,919 N CLEVELAND ST,Under Construction,0,0,0,1,0,,2018-09-17T00:00:00,Low Residential (1-10 units/acre),"One-Family, Restricted Two Family Dwelling Distr",,4985,Single-family detached house,,,,38.88370451,-77.0883711
920 N  Quesada St,920 N  QUESADA ST,Under Construction,0,0,0,1,0,,2017-06-29T00:00:00,Low Residential (1-10 units/acre),One-Family Dwelling District,,,Single-family detached house,,,,38.875845,-77.1497971
922 16th St S,922 16TH ST S,Under Construction,0,0,0,1,0,,2018-08-20T00:00:00,Low Residential (1-10 units/acre),Two-Family and Town House Dwelling District,,,Single-family detached house,,,,38.85834577,-77.06259365
989 S  Buchanan St,989 S  BUCHANAN ST,Under Construction,0,0,0,1,0,,2016-11-21T00:00:00,Service Commercial,Service Commercial -  Community Business Distric,,,Single-family detached house,,,,38.85707479,-77.10858536
4040 Wilson Blvd (Founder's Square - North Office),707 N RANDOLPH,Under Construction,191300,33400,0,244,0,2016-07-16T00:00:00,2018-03-31T00:00:00,Medium Office-Apartment-Hotel,"Commercial Office Building, Hotel and Apartment",Ashton Park Associates c/o The Shooshan Co.,233151,Highrise (4+ stories),249,20,544,38.8790757,-77.1092134
3901 Fairfax Drive,3901 FAIRFAX DR,Approved (Not Under Construction),178131,16185,7311,0,0,2012-01-21T00:00:00,,Medium Office-Apartment-Hotel,"Commercial Office Building, Hotel and Apartment",BDC Crimson LLC,45508,,123,9,250,38.88265257,-77.10694187
Carr Office Building,2038 WILSON BLVD,Approved (Not Under Construction),188910,6960,0,0,0,2015-03-14T00:00:00,,Medium O-A-H,"Commercial Office Building, Hotel and Apartment",Carr Properties,24980,,147,12,244,38.89176175,-77.08348832
Rosslyn Gateway PDSP - FSP (Phase 1 - Residential/Hotel Building),1901 FT MYER DR,Approved (Not Under Construction),0,10001,0,133,148,2012-07-21T00:00:00,,High Office-Apartment-Hotel,,JBG,95927,Highrise (4+ stories),323,25,875,38.89739,-77.0720009
Rosslyn Gateway PDSP (Phase 2 - Remaining Allocation),1901 FT MYER DR,Approved (Not Under Construction),0,7687,0,140,0,2012-07-21T00:00:00,,High Office-Apartment-Hotel,,JBG,95927,Highrise (4+ stories),270,20,875,38.89739,-77.0720009
The Spire/Fairmont,4420 FAIRFAX DR,Approved (Not Under Construction),0,9200,0,237,0,2006-01-21T00:00:00,,"Coordinated Mixed-Use, Development District","Commercial Off. Bldg, Hotel and Apartment Distri",JBG,27460,Highrise (4+ stories),246,21,294,38.88184685,-77.1145221
Boeing Site - Phase II,608 S BALL ST,Approved (Not Under Construction),131338,0,0,0,0,2011-10-15T00:00:00,,Low Office-Apartment-Hotel,"Commercial Office Building, Hotel and Apartment",Monument Realty,204966,,94,6,739,38.864162,-77.049601
NSTA Office Site Plan,1840 WILSON BLVD,Approved (Not Under Construction),107920,10000,0,0,0,2005-11-15T00:00:00,,Medium Office-Apartment-Hotel,"Commercial Office Building, Hotel and Apartment",NSTA,50880,,61,6,206,38.89281442,-77.08067583
J-Sol,4000 FAIRFAX DR,Under Construction,0,11692,0,330,0,2015-12-12T00:00:00,2019-03-01T00:00:00,Coord. Mixed Use Devel. District,"Commercial Off. Bldg, Hotel and Apartment Distri",Penzance,82370,Highrise (4+ stories),216,22,270,38.88217951,-77.10802096
Pentagon Centre PDSP - Phase II and III (Remaining Allocation),1201 S HAYES,Approved (Not Under Construction),705700,310500,0,0,200,2015-09-15T00:00:00,,Medium Office-Apartment-Hotel,"Commercial Office Building, Hotel and Apartment",PL Pentagon LLC,,Highrise (4+ stories),,,,38.8615586,-77.0581969
Pentagon Centre PDSP - Phase 1B (FSP),719 15TH ST S,Approved (Not Under Construction),0,15541,0,253,0,2015-09-15T00:00:00,,Medium Office-Apartment-Hotel,"Commercial Office Building, Hotel and Apartment",PL Pentagon LLC,,,,,,38.86065889,-77.05883985
Clarendon West (East Block),1200 N HUDSON ST,Under Construction,0,3477,0,333,0,2015-10-20T00:00:00,2019-09-19T00:00:00,Medium Density Mixed Use,General Commercial District,Shooshan,152954,Highrise (4+ stories),103,10,463,38.88720847,-77.09703628
Clarendon West (West Block),1200 N HUDSON ST,Approved (Not Under Construction),0,,0,247,0,2015-10-20T00:00:00,,Medium Density Mixed Use,General Commercial District,Shooshan,152954,Highrise (4+ stories),103,10,463,38.88720847,-77.09703628
Lofts at Crystal Houses,1900 S EADS ST,Approved (Not Under Construction),0,0,0,252,0,2006-11-14T00:00:00,,Medium Residential,Apartment Dwelling District,Smith Property Holdings Crystal Tower LP,0,Highrise (4+ stories),105,,322,38.8564332,-77.0541067
The Clark: Potomac Yard - Land Bay D - West,3001 RICHMOND HWY,Under Construction,0,5015,23906,342,0,2007-04-21T00:00:00,2018-03-31T00:00:00,Med Resid. 1/3 & Low OAH 2/3,"Commercial Office Building, Hotel and Apartment",The Meridian Group LLC,61483,Highrise (4+ stories),120,12,438,38.8323995,-77.0510397
The Sur: Potomac Yard - Land Bay D-East,3400 POTOMAC AVE,Under Construction,0,16503,0,360,0,2007-04-21T00:00:00,2018-10-01T00:00:00,Med Resid. 1/3 & Low OAH 2/3,"Commercial Office Building, Hotel and Apartment",The Meridian Group LLC,66568,Highrise (4+ stories),120,12,476,38.84474766,-77.05093462
Potomac Yard PDSP - Land Bay C (National Gateway 3-4-5-6),RICHMOND HWY,Approved (Not Under Construction),1064298,41325,0,0,0,2007-12-18T00:00:00,,Med Resid. 1/3 & Low OAH 2/3,"Commercial Office Building, Hotel and Apartment",The Meridian Group LLC,160545,,140,12,1775,38.8347748,-77.0514724
Wakefield Manor,2025 FAIRFAX DR,Approved (Not Under Construction),0,0,0,188,0,2011-10-15T00:00:00,,,,Virginia Land Trust,80927,Highrise (4+ stories),125,12,189,38.88733974,-77.08285008
3803 Fairfax Drive Expansion,3803 FAIRFAX DR,Approved (Not Under Construction),43045,0,0,0,0,1999-01-27T00:00:00,,High Office-Apartment-Hotel,"Commercial Off. Bldg, Hotel and Multiple-Family","Virginia Medical Square II, L.P.",24130,,92,7,109,38.88288277,-77.10522978
Axumite Village,1100 S HIGHLAND ST,Under Construction,0,0,0,36,0,2009-07-11T00:00:00,2019-03-01T00:00:00,Low Residential (1-10 units/acre),,"VMS, LLC Developers",29734,Garden (Less than 4 stories),43,4,41,38.86091575,-77.08885487
Red Cross/Trenton St. Residential,4333 ARLINGTON  BLVD,Approved (Not Under Construction),0,0,0,131,0,2018-04-21T00:00:00,,Low-Medium Residential,Apartment Dwelling District,Wesley Housing Development Corporation,,,,,,38.87009826,-77.10490639
2515 Lee Hwy,2515 LEE HWY,Approved (Not Under Construction),0,12200,0,22,0,2006-07-08T00:00:00,,Low-Medium Residential,Service Commercial -  Community Business Distric,WSD,22643,Garden (Less than 4 stories),,4,75,38.89525187,-77.09055799
