County,Market Name,Location,Address Line 1,City,State,Zip,Contact,Phone,Market Link,Operation Hours,Operation Season,Operating Months,FMNP,SNAP,FCC Issued,FCC Accepted,Latitude,Longitude,Georeference
Chemung,Grove Park Farm Stand,4th St. & Walnut Ave. Elmira,Walnut Ave and West 4th St,Elmira,NY,14901,Matthew Glenn,6075464535,https://www.facebook.com/GroveParkFarmersMarket,Monday  3pm-6pm,June 1-October 26,M,N,N,N,Y,42.09212,-76.82014,"(42.09212, -76.82014)"
Schenectady,Veggie Mobile-Hometown Health Ctr,1044 State Street Schenectady,1044 State Street,Schenectady,NY,12307,Audrey Bridge,5182748685,http://www.capitalroots.org,Mon 2pm-2:45pm,Year-round,YR,N,Y,Y,Y,42.8014,-73.9278,"(42.8014, -73.9278)"
Essex,Ticonderoga Farmers' Market,1114 Wicker Street near Walmart entrance,1114 Wicker Street,Ticonderoga,NY,12883,Mathew Courtright,5185856619,http://www.ticonderogany.com;,Saturday  10am-1pm,July 11-September 26,M,N,N,N,Y,43.85688,-73.43642,"(43.85688, -73.43642)"
Dutchess,Share the Bounty Farm Stand,"Hudson River Healthcare , 3360 Route 343 Amenia",3360 Route 343,Amenia,NY,12501,Edward Frederick,8452067526,,Tuesday  9am-1pm,June 30-October 30,M,Y,N,N,Y,41.85035,-73.55065,"(41.85035, -73.55065)"
Rensselaer,Veggie Mobile Sprout-Mayor John Warden Apts,85 Aiken Ave Rensselaer,85 Aiken Ave,Rensselaer,NY,12144,Audrey Bridge,5182748685,http://www.capitalroots.org,Tue 2:15pm-3pm,Year-round,YR,N,Y,Y,Y,42.63326,-73.73991,"(42.63326, -73.73991)"
Rensselaer,Veggie Mobile Sprout-Burns Apts,720 Federal St. Troy,720 Federal Street,Troy,NY,12180,Audrey Bridge,5182748685,http://www.capitalroots.org,Thu  12:30pm-1:15pm,Year-round,YR,N,Y,Y,Y,42.733148,-73.684555,"(42.733148, -73.684555)"
New York,79th Street Greenmarket,366 Columbus Ave. btwn W 77th & W 81st Sts.,West 79th St and Columbus Ave,New York,NY,10024,Siobahn Keys,2127887476,http://www.grownyc.org/greenmarket/manhattan/79th-street,Sunday  9am-4pm,Year-Round,YR,N,Y,N,Y,40.78195,-73.97548,"(40.78195, -73.97548)"
Nassau,Crossroads Farm Farm Stand,480 Hempstead Ave. Malverne,480 Hempstead Ave,Malverne,NY,11565,TBA TBA,5184576880,http://www.xroadsfarmliny.com,Fri/Sat/Sun 10am-2pm,June 5-October 18,M,N,N,N,Y,40.68066,-73.66376,"(40.68066, -73.66376)"
Albany,Veggie Mobile-Cohoes Senior Ctr,100 Cayuga Plaza Cohoes,100 Cayuga Plaza,Cohoes,NY,12047,Audrey Bridge,5182748685,http://www.capitalroots.org,Wednesday 3pm-4pm,Year-round,YR,N,Y,Y,Y,42.77712,-73.70101,"(42.77712, -73.70101)"
Columbia,City of Hudson Farmers' Market,DMV parking lot Sixth & Columbia Sts.,Columbia St and North 6th St,Hudson,NY,12534,Virginia Ambrose,5188212453,http://www.hudsonfarmersmarketny.com,Saturday  9am-1pm,April 26-November 21,P/M,N,Y,N,Y,42.24866,-73.78369,"(42.24866, -73.78369)"
Saratoga,Veggie Mobile Sprout - Mechanicville Sr Center,178 North Main Street,178 North Main Street,Mechanicville,NY,12118,Audrey Bridge,5182748685,http://www.capitalroots.org,Fri 2pm-2:45pm,Year-round,YR,N,Y,Y,Y,42.90829,-73.68374,"(42.90829, -73.68374)"
Sullivan,Sullivan Fresh Monticello Farmers' Market,"10 Jefferson St Monticello, (location changed for July 2019)",512 Broadway,Monticello,NY,12701,Michelle Proscia,8452926180,http://www.sullivancce.org,Monday 11am-2pm,July 6-September 28,M,N,Y,N,Y,41.65611,-74.69106,"(41.65611, -74.69106)"
Kings,Bushwick Bethel Farm Stand,215 Cooper St. Brooklyn,215 Cooper St.,Brooklyn,NY,11207,Novelette Scott,7188210254,http://www.bushwickfarmersmarket.org,Thursday  10pm-3pm,May 23-November 21,P/M,Y,Y,N,Y,40.6898,-73.9056,"(40.6898, -73.9056)"
Erie,Eastgate Farmers' Market,4927-5089 Transit Road   Clarence,4927-5089 Transit Road,Clarence,NY,14221,Julie Fix-Minchen,7168789628,,Wednesday  3pm-7pm,June 17-October 14,M,N,N,N,Y,42.9861,-78.69691,"(42.9861, -78.69691)"
Monroe,The Mall at Greece Ridge Thu Farmers' Market,271 Greece Ridge Center Drive  Rochester,271 Greece Ridge Center Drive,Rochester,NY,14626,Melanie Fazio,5852251140,http://www.themallatgreeceridge.com,Thursday  8am-3pm,June 11-October 29,M,Y,N,N,Y,43.20677,-77.69406,"(43.20677, -77.69406)"
Oneida,Clinton Farmers' Market,Village Green  21 West Park Row,21 West Park Row,Clinton,NY,13323,Jackie Walters,3158531735,http://www.clintonnychamber.org,Thursday  10am-4pm,June 4-October 1,M,Y,Y,N,Y,43.04932,-75.37881,"(43.04932, -75.37881)"
Orleans,Canal Village Farmers' Market,127 W Center St. Medina,127 W Center St.,Medina,NY,14103,Gail Miller,5857983904,http://www.facebook.com/Canal-Village-Farmers-Market-1628793180740256,"Sat  9am-2pm Jun-Oct  , Winter: hours change",June 6 - Oct 31,P/M/W/X,N,N,Y,Y,43.220217,-78.38851,"(43.220217, -78.38851)"
Albany,Veggie Mobile Sprout-Robert Whalen,305 Colonie Street Albany,305 Colonie Street,Albany,NY,12210,Audrey Bridge,5182748685,http://www.capitalroots.org,Wed 11:15am-12pm,Year-round,YR,N,Y,Y,Y,42.66338,-73.75595,"(42.66338, -73.75595)"
Erie,Clinton Bailey Thurs Farmers' Market,1443-1517 Clinton St. Buffalo,Bailey Ave and Clinton St,Buffalo,NY,14206,Sharon Baldi,7162080003,http://www.clintonbaileymarket.com,Thurday  4am-6pm,May 1-October 31,P/M,N,Y,N,Y,42.87206,-78.81997,"(42.87206, -78.81997)"
New York,97th Street Greenmarket,125 W 97th St. btwn Amsterdam & Columbus Aves.,West 97th St and Columbus Ave,New York,NY,10025,Siobahn Keys,2127887476,http://www.grownyc.org/greenmarket/manhattan/west-97,Friday  8am-2pm,Year-round,YR,N,Y,N,Y,40.79356,-73.96701,"(40.79356, -73.96701)"
Seneca,Ovid Farmers Market,Main Street Ovid at Three Bears Park,Main Street,Ovid,NY,14521,Patti Paine Battley,3155399251,,Friday 3pm-7pm,June 19-September 25,M,N,Y,N,Y,42.67552,-76.82293,"(42.67552, -76.82293)"
Wyoming,Farm & Artisan Market at the Villa,Artisan Villa  140 North Main St.  Warsaw,140 North Main Street,Warsaw,NY,14569,Lisa Seewaldt,5857868766,http://www.marketatthevilla.com,Wednesday  2pm-6pm,June 10-September 30,M,Y,N,N,Y,42.74311,-78.13256,"(42.74311, -78.13256)"
Niagara,Niagara Falls City Friday Market,19th St. & Pine Ave.,1800-1808 Pine Ave,Niagara Falls,NY,14301,Victor Muto,7167540798,,Friday  9am-3pm,Year-round,YR,Y,N,N,Y,43.09513,-79.03972,"(43.09513, -79.03972)"
Madison,Cottage Lawn Farmers' Market,"435 Main St. Oneida, Madison Co. Historical Society",435 Main St.,Oneida,NY,13421,Colleen Donahue,3153634136,http://www.mchsfarmersmarket.org/,Tuesday  3pm-7pm,May 26-September 1,P/M,Y,N,N,Y,43.08719,-75.64705,"(43.08719, -75.64705)"
Albany,Veggie Mobile-Center for Disability,700 South Pearl Street Albany,700 South Pearl Street,Albany,NY,12202,Audrey Bridge,5182748685,http://www.capitalroots.org,Tue 12:15pm-1pm,Year-round,YR,N,Y,Y,Y,42.63003,-73.76585,"(42.63003, -73.76585)"
St. Lawrence,Gouverneur Farmers' Market,East Main Street Park,East Main Street and Village Park,Gouverneur,NY,13642,Donna Besaw,3152870331,http://www.gouverneurchamber.net,Thursday  9am-2pm,June 5-October 29,M,Y,Y,N,Y,44.33871,-75.45766,"(44.33871, -75.45766)"
St. Lawrence,Canton Tuesday Farmers' Market,Village Green Park 17 Park st at Main St.,Main St and Park St,Canton,NY,13617,Elizabeth Parson,3156048133,https://www.facebook.com/CantonNYFarmersMarket/,Tuesday  9am-2pm,May 12-October 27,P/M,N,Y,N,Y,44.59564,-75.16921,"(44.59564, -75.16921)"
Cayuga,Owen Orchards Farm Stand,8174 Grant Ave.  Weedsport,8174 Grant Ave.,Weedsport,NY,13166,Gordon Tripp,3152524097,http://www.owenorchard.com,"Mon-Sat  9am-7pm, Sunday  9am-6pm",August 1-March 30,M/X/W/P,N,Y,N,Y,43.01314,-76.50749,"(43.01314, -76.50749)"
Franklin,Malone Farmers' Market,27 Airport Rd. (Rte 11)  Pavilion at Marcy Airfield,27 Airport Road,Malone,NY,12953,Dick Crawford,5185634777,http://www.adirondackfarmersmarket.com,Wed  12pm-4:30pm,May 27-October 7,P/M,Y,N,N,Y,44.84733,-74.32773,"(44.84733, -74.32773)"
Rensselaer,Veggie Mobile Sprout-Monument Square Apt,1st Street #1,1st Street #1,Troy,NY,12180,Audrey Bridge,5182748685,http://www.captialroots.org,Tuesday 12:15pm-12:45pm,Year-round,YR,N,Y,Y,Y,42.73123,-73.69261,"(42.73123, -73.69261)"
Greene,Fromer Market Gardens Farm Stand,6120 Main St.  Tannersville,6120 Main Street,Tannersville,NY,12485,Becky Kempter,9165993136,,Saturdays  9am-3pm,Year-round,YR,N,N,N,Y,42.19546,-74.13889,"(42.19546, -74.13889)"
Kings,Bushwick Maria Hernandez Pk Farmers' Market,Knickerbocker Ave @ Starr & Suydam,Knickerbocker Avenue,Brooklyn,NY,11206,Novelette Scott,7188210254,http://www.riseboro.org,Saturday  9am-3pm,May 16-November 28,P/M,Y,Y,N,Y,40.70257,-73.92497,"(40.70257, -73.92497)"
Suffolk,Babylon Village Farmers' Market,"LIRR Babylon Station parking lot, 51 South Railorad Ave",51 Railroad Avenue,Babylon,NY,11702,Lona Graepel,6319442661,http://www.longislandfarmersmarkets.com,Sunday  8am-12:30pm,June 7-November 22,M,N,Y,N,Y,40.69992,-73.3245,"(40.69992, -73.3245)"
Kings,Fort Greene Park Greenmarket,Washington Park btwn Dekalb Ave. & Willoughby St.,Washington Park and DeKalb Ave,Brooklyn,NY,11205,Siobahn Keys,2127887476,http://www.grownyc.org/greenmarket/brooklyn/fort-greene,Saturday  8am-3pm,Year-round,YR,N,Y,N,Y,40.68962,-73.97313,"(40.68962, -73.97313)"
Broome,CHOW MM-Binghmaton Plaza,33 W State St. Binghamton,33 W State st.,Binghamton,NY,13901,Jack Seman,6077249130,http://www.broomecouncil.net,Mon/Fri 1pm-2pm,Year-round,YR,N,Y,N,Y,42.10925,-75.90552,"(42.10925, -75.90552)"
Tompkins,Ithaca WINTER Farmers' Market,"The Space@GreenStar, 700 West Buffalo St. Ithaca",700 West Buffalo St.,Ithaca,NY,14850,Becca Rimmel,6072737109,http://www.ithacamarket.com,Saturday  10:30am-2pm,January 5-March 30,W,N,Y,N,Y,42.44097,-76.51093,"(42.44097, -76.51093)"
Allegany,White Valley Farm Stand,381 Heselton Rd. Whitesville,381 Heselton Road,Whitesville,NY,14897,Justin Ellison,5858086061,,Saturday 12pm-5pm,June 1-November 1,M,Y,N,N,Y,42.01631,-77.84727,"(42.01631, -77.84727)"
Onondaga,Gillie Brook Farm Stand,6147 Gillie Brook Rd.  Memphis,6147 Gillie Brook Road,Memphis,NY,13112,Robert Nogash,3156723706,http://www.gilliefarms.com,Sun 10am-3pm,April-December,P/M/X,N,Y,N,Y,43.07172,-76.35375,"(43.07172, -76.35375)"
Orange,Port Jervis Farmers' Market,100 Pike St. Farmers Market Square,100 Pike Street,Port Jervis,NY,12771,Sarah Worthy,8458005130,http://www.pjfarmmarket.com,Saturday  10am-2pm,June 6-October 3,M,Y,Y,N,Y,41.37555,-74.69237,"(41.37555, -74.69237)"
Putnam,Hudson Valley Regional Farmers' Market,15 Mt Ebo Rd South Brewster,15 Mt Ebo Drive,Brewster,NY,10509,Melissa Kamin,8458789078,http://www.hudsonvalleyfarmersmarket.org,Sunday  10am-2pm,Year-round,YR,N,N,N,Y,41.43416,-73.57263,"(41.43416, -73.57263)"
Westchester,Hastings WINTER Farmers' Market,"134 Southside Ave, Hastings-On-Hudson , Hastings Train Station parking lot",134 Southside Ave,Hastings on Huds,NY,10706,Pascale Le Draoulec,9148063380,http://www.hastingsfarmersmarket.org,Saturday 830am-130pm,Dec 7-May 23,X/W/P,N,Y,N,Y,40.9943,-73.88424,"(40.9943, -73.88424)"
Bronx,170 Farm Stand,1406 Townsend Ave. and 170th St.,1406 Townsend Ave. and 170th Street,Bronx,NY,10452,Theresa Conk,7187168000,http://www.newsettlement.org/170FarmStand,Wednesday  2:30-6:30pm,July 15-November 25,M,Y,Y,N,Y,40.84009,-73.9166,"(40.84009, -73.9166)"
Allegany,Riverside Farms Farm Market,3314 Riverside Drive  Scio,3314 Riverside Drive,Scio,NY,14895,Stephen Demarte,7165605594,,"Mon-Fri  10am-7pm, Saturday  10am-8pm, Sunday  12pm-6pm",April-December,P/M/X,N,N,N,Y,42.14093,-77.97553,"(42.14093, -77.97553)"
New York,Abingdon Square Greenmarket,601 Hudson St. at W 12th St.,Hudson St and W 12 St,New York,NY,10014,Siobahn Keys,2127887476,http://www.grownyc.org/greenmarket/manhattan/abingdon-square,Saturday  8am-2pm,Year-round,YR,N,Y,N,Y,40.73755,-74.00568,"(40.73755, -74.00568)"
Steuben,Painted Post WINTER Market,304 South Hamilton St,227 Steuben Street,Painted Post,NY,14870,Cathy Halm,6075278730,http://www.facebook.com/paintedpostfarmersmarket,1st and 3rd Sat  11am-3pm,"November 2-March 21,2020",M/X/W/P,N,N,N,Y,42.16067,-77.09283,"(42.16067, -77.09283)"
Cattaraugus,Salamanca Farmers' Market,768 Broad St,768 Broad St,Salamanca,NY,14779,Rachael Ferguson,7168608419,,Tuesday  11am-5pm,May 26-October 13,P/M,N,Y,N,Y,42.15497,-78.71739,"(42.15497, -78.71739)"
Albany,Harriman State Campus Farmers' Market,"Harriman State Office Campus, behind Bldg. 8A Albany",1366 Washington Ave.,Albany,NY,12203,Nicholas DeBlois,5184863966,http://empirestateplaza.ny.gov,Thursday  10am-2pm,May 7-October 8,P/M,N,N,N,Y,42.678038,-73.809942,"(42.678038, -73.809942)"
Kings,Grand Army Plaza Greenmarket,Flatbush Ave. & Prospect Park West,Flatbush Ave and Grand Army Plaza,Brooklyn,NY,11238,Siobahn Keys,2127887476,http://www.grownyc.org/greenmarket/brooklyn-grand-army-plaza,Saturday  8am-4pm,Year-round,YR,N,Y,N,Y,40.67412,-73.9695,"(40.67412, -73.9695)"
Schoharie,Barber Family Farm Stand,3617 State Route 30 Middleburgh,3617 State Route 30,Fulton,NY,12122,Sarah Hooper,5188275454,http://www.barbersfarm.com,"Daily 9am-5:30pm, (January-May, Sat/Sun 9am-3pm)",Year-round,YR,Y,Y,N,Y,42.58123,-74.39189,"(42.58123, -74.39189)"
Erie,Huntington Farm Stand II,11503 Main Street Clarence,11503 Main Street,Clarence,NY,14031,Dan Huntington,7163930590,,Daily 11am-7pm,June-October,M,N,N,N,Y,42.98909,-78.55762,"(42.98909, -78.55762)"
Erie,Hamburg Farmers' Market,Village municipal parking lot at Main & Buffalo Sts. (enter on Main & Union Sts),30 Buffalo St,Hamburg,NY,14075,Jamie Decker,7166497917,http://www.southtownsregionalchamber.org/explore-hamburg/farmers-market,Saturday  7:30am-1pm,May 2-October 31,P/M,Y,N,N,Y,42.71677,-78.82994,"(42.71677, -78.82994)"
Rensselaer,Veggie Mobile Sprout-Patroons  Dorp Apts,Fowler Ave. & First St. Rensselaer,fowler ave and first street,Rensselaer,NY,12144,Audrey Bridge,5182748685,http://www.capitalroots.org,Tue 3:15pm-4pm,Year-round,YR,N,Y,Y,Y,42.65482,-73.73432,"(42.65482, -73.73432)"
Saratoga,Spa City Sunday Farmers' Market,"65 S Broadway Saratoga Spa St Pk, Lincoln Bath House Building",65 South Broadway,Saratoga Springs,NY,12866,Michael Greenslade,5185842000,http://www.spacityfarmersmarket.com,Sundays  10am-2pm,Year-round,YR,N,N,N,Y,43.06474,-73.78876,"(43.06474, -73.78876)"
Lewis,Lewis Co. General Hospital Farmers' Market,"7785 N. State St.  Lowville, Children's Clinic  parking lot",7785 North State St,Lowville,NY,13367,Tina Schell,3153765087,http://www.lcgh.net,Thursday  11am-4pm,June 11-October 1,M,Y,N,N,Y,43.79599,-75.49832,"(43.79599, -75.49832)"
Herkimer,Salisbury Farmers' Market,"126 State Route 29A Salibury Center, Town Hall Parking Lot",126 State Route 29A,Salisbury Center,NY,13329,Gina Thompson,3154299102,http://www.facebook.com/salisburyfarmersmarket13454/,Friday  9am-1pm,May 22-October 9,P/M,N,N,N,Y,43.14304,-74.78544,"(43.14304, -74.78544)"
Bronx,BronxWorks Farm Stand,1130 Grand Concourse,1130 Grand Concourse,Bronx,NY,10456,Rachel Gill,7185083156,,Thursday  10am-4pm,July 9-November 19,M,N,N,N,Y,40.83256,-73.9192,"(40.83256, -73.9192)"
Kings,Brooklyn Borough Hall Tuesday Greenmarket,211 Montague St. Supreme Court Plaza,Court St and Montague St,Brooklyn,NY,11201,Siobahn Keys,2127887476,http://www.grownyc.org/greenmarket/brooklyn/boro-hall-sa,Tuesday  8am-4pm,Year-round,YR,N,Y,N,Y,40.69374,-73.99043,"(40.69374, -73.99043)"
Albany,Lansing Farm Market,204 LishaKill Rd Niskayuna,204 LishaKill,Niskayuna,NY,12309,Al Or Jessica Lansing,5184640889,http://www.lansingfarmmarket.com,Daily 9am-5pm,May 1-November 20,P/M,Y,N,N,Y,42.7629,-73.85447,"(42.7629, -73.85447)"
Ulster,Kingston Farmers' Market,Old Dutch Church 272 Wall Street,Wall St and John St,Kingston,NY,12401,Laura Crimmins,6462624672,http://www.kingstonfarmersmarket.org,Saturday  9am-2pm,May 9-November 21,P/M,Y,Y,Y,Y,41.93384,-74.01968,"(41.93384, -74.01968)"
Broome,CHOW MM-ABC Apartments,100 Chenango St. Binghamton,100 Chenango St,Binghamton,NY,13901,Jack Seman,6077249130,http://www.broomecouncil.net,Tuesday 11:30am-1pm,Year-round,YR,N,Y,N,Y,42.10179,-75.90955,"(42.10179, -75.90955)"
Cortland,Cortland Tues Farmers Market,Main St. btwn Court & Orchard Sts.,Main St and Orchard St,Cortland,NY,13045,Laura Morak,6077588332,,Tuesday 8am-2pm,May 19-October 27,M,Y,Y,N,Y,42.60028,-76.18044,"(42.60028, -76.18044)"
Onondaga,Central NY Sunday Regional Market Authority,2100 Park St. Syracuse,2100 Park Street,Syracuse,NY,13208,Amanda Vitale,3154228647,http://www.cnyrma.com,Sunday  7am-2pm,Year-round,YR,N,Y,Y,Y,43.07269,-76.16835,"(43.07269, -76.16835)"
Tompkins,Brooktondale Farmers' Market,"Brooktondale Community Center, 522 Valley Rd. Brooktondale",522 Brooktondale Road,Brooktondale,NY,14817,Barbara Perrone,6075393244,http://bccmarket.wordpress.com,Tuesday  4pm-7pm,June 4-September 24,M,Y,N,N,Y,42.38185,-76.39376,"(42.38185, -76.39376)"
Queens,Queens County Farm-Jamaica Hospital,8900 Van Wyck Expessway Richmond Hill,8900 Van Wyck Expessway,Richmond Hill,NY,11418,Anne Mastrogiacomo,7183473276,,Friday 10am-3pm,June 13-November 14,M,N,N,N,Y,40.70133,-73.81631,"(40.70133, -73.81631)"
Greene,Stoneledge Farm Stand,145 Garcia Lane Leeds,145 Garcia Lane,Leeds,NY,12451,Candice Kavakos,5182429286,http://www.stoneledge.farm,Sat/Sun 9am-3pm,June 6-October 11,M,Y,N,N,Y,42.27878,-73.95216,"(42.27878, -73.95216)"
Nassau,Braydon's Garden Farm Stand,328 North Main St. Salem,328 North Main St,Salem,NY,12865,Lisa Hunt,5187426647,,Daily 9am-7pm,May 1-November 1,P/M,Y,N,N,Y,43.18091,-73.3259,"(43.18091, -73.3259)"
Onondaga,Skaeneateles Farmer's Market-Saturday,1 East Austin St. Austin Park Pavilion,1 East Austin Street,Pavilion,NY,13152,Sue Murphy,3157279320,https://www.townofskaneateles.com/,Saturday 10am-1pm,May 23-October 17,P/M,Y,N,N,Y,42.95091,-76.43045,"(42.95091, -76.43045)"
Cayuga,Auburn Sat Farmers' Co-op Market,96 State Street  Curley's Restaurant Pkg Lot,96 State Street,Auburn,NY,13021,Mark Soper,3157048609,http://www.auburnfarmerscoopmarketinc.com,Sat  7am-2pm,June 6-October 31,M,Y,Y,N,Y,42.93406,-76.56985,"(42.93406, -76.56985)"
Otsego,Richfield Springs Area Sat Farmers' Market,"Spring Park Main St. (Rt. 20), across from Post Office",Main St and Church St,Richfield Springs,NY,13439,Ronald Bayzon,3158582703,,Saturday  8am-1pm,June 20-October 31,M,Y,N,N,Y,42.85359,-74.98476,"(42.85359, -74.98476)"
Clinton,Rouses Point Farmers' Market,Dodge Memorial Library 144 Lake St.,144 Lake Street,Rouses Point,NY,12979,Jim Rabideau,5182983878,http://www.facebook.com/events/1127448587272536/,Friday  3pm-7pm,June 19-September 4,M,N,N,N,Y,44.99029,-73.36438,"(44.99029, -73.36438)"
Niagara,Human Farms & Greenhouse,2853 Hess Rd. Appleton,2853 Hess Rd,Appleton,NY,14008,JoMarie Human,7165312820,,Daily 9a-5p,June 1-December 31,M/X,Y,Y,N,Y,43.27537,-78.64954,"(43.27537, -78.64954)"
Bronx,Harvest Home Co-op City Farm Stand,Asch Loop & Aldrich Ave.,199 Aldrich St.,Bronx,NY,10475,Maritza Owens,2128283361,http://www.harvesthomefm.org,Wednesday  8am-4pm,June 3-November 25,M,Y,Y,N,Y,40.87025,-73.83097,"(40.87025, -73.83097)"
Monroe,Westside Farmers' Market,"St. Monica's Church parking lot, 831 Genesee St. Rochester",831 Genesee St,Rochester,NY,14611,Jackie Farrell,5854368999,http://www.westsidemarketrochester.com,Tuesday  4pm-7pm,June 9-October 13,M,N,Y,N,Y,43.134058,-77.636523,"(43.134058, -77.636523)"
Jefferson,Windswept Meadows Farm Stand,17025 Cty Rt 68  Watertown,17025 County Road 68,Watertown,NY,13601,Delta Keeney,3157881933,http://www.keeneyswindsweptmeadowsfarm.com,Daily  7am-8pm,June 26-October 29,M,Y,Y,N,Y,43.91784,-75.87206,"(43.91784, -75.87206)"
Kings,Harvest Home Brower Park Farm Stand,Prospect Place & Brooklyn Ave.,Prospect Place and Brooklyn Ave.,Brooklyn,NY,11213,Maritza Owens,2128283361,http://www.harvesthomefm.org,Thursday  8am-4pm,June 4-November 19,M,Y,Y,N,Y,40.674,-73.94454,"(40.674, -73.94454)"
Putnam,R & G Produce Farm Stand,997 NY Route 22 Brewster,997 NY Route 22,Brewster,NY,10509,Mike Miller,8459817200,,Saturday 8am-3pm,June 7-November 28,M,Y,N,N,Y,41.39785,-73.60218,"(41.39785, -73.60218)"
Schoharie,Jefferson Farmers' Market,221 Cremery St. Jefferson,221 Cremery St.,Jefferson,NY,12093,Carol Bodnar,6076522107,http://www.facebook.com/Jefferson-NY-Farmers-Market-1982994021967209/,Saturday 9am-12pm,May 23-October 10,P/M,Y,N,N,Y,42.48069,-74.6133,"(42.48069, -74.6133)"
Monroe,Irondequoit Farmers' Market,Town Hall Lawn  1280 Titus Ave. Rochester,1280 Titus Ave,Rochester,NY,14617,Don Sinton,5853367060,http://www.irondequoit.org,Thursday  4pm-8pm,May 28-October 15,P/M,Y,Y,N,Y,43.21118,-77.58154,"(43.21118, -77.58154)"
New York,Union Square Friday Greenmarket,"31 Union Square W, NW side of Park",Broadway and East 17th St,New York,NY,10003,Siobahn Keys,2127887476,https://www.grownyc.org/greenmarket,Friday  8am-4pm,Year-round,YR,N,Y,N,Y,40.73701,-73.99025,"(40.73701, -73.99025)"
Greene,Bulich Creekside Farm Farm Stand,1682 Route 23B  Leeds,1682 Route 23B,Leeds,NY,12451,Ron Bulich,5185885320,,Daily 10am-5pm,July 4-November 5,M,Y,N,N,Y,42.26297,-73.92541,"(42.26297, -73.92541)"
Dutchess,Rhinebeck Farmers' Market,Municipal lot 61 E. Market St.,61 East Market St,Rhinebeck,NY,12572,Andrea Bartolomeo,5188211481,http://www.rhinebeckfarmersmarket.com,Sunday  10am-2pm,May 3-December 27,P/M/X,N,Y,N,Y,41.92704,-73.91027,"(41.92704, -73.91027)"
New York,Harvest Home East Harlem Farmers' Market,E 104th St. & Third Ave.,East 104th St and Third Ave,New York,NY,10029,Maritza Owens,2128283361,http://www.harvesthomefm.org,Thursday  8am-4pm,July 9-November 19,M,Y,Y,N,Y,40.79024,-73.94564,"(40.79024, -73.94564)"
Erie,Clinton Bailey Sun Farmers' Market,1443-1517 Clinton St. Buffalo,Bailey Ave and Clinton St,Buffalo,NY,14206,Sharon Baldi,7162080003,http://www.clintonbaileymarket.com,Sunday 7am-5pm,May 2-October 31,P/M,N,Y,N,Y,42.87206,-78.81997,"(42.87206, -78.81997)"
Richmond,Saint George Greenmarket,35  Hyatt St. at St. Mark's Place Staten Island,St Marks Pl and Hyatt St,Staten Island,NY,10301,Siobahn Keys,2127887476,http://www.grownyc.org/greenmarket/staten-island/saint-george,Saturday  8am-1pm,Year-round,YR,N,Y,N,Y,40.64159,-74.07791,"(40.64159, -74.07791)"
Clinton,Prays Family Farm Stand-Plattsburgh,605 State Route 3 Plattsburgh,605 State Route 3,Plattsburgh,NY,12944,Darcy Pray,5188349130,,Daily 8:30am-7pm,Year-round,YR,N,N,N,Y,44.6948,-73.5069,"(44.6948, -73.5069)"
Saratoga,Veggie Mobile Sprout-John S. Moore,2 Harris Ave.,2 Harris Avenue,Mechanicville,NY,12118,Audrey Bridge,5182748685,http://www.capitalroots.org,Fri 3pm-3:30pm,Year-round,YR,N,Y,Y,Y,42.89934,-73.69122,"(42.89934, -73.69122)"
Genesee,Genesee Country Tuesday Farmers' Market,Bank St. at Alva Place Batavia,Bank St and Alva Place,Batavia,NY,14020,Sharon Brent,7165600853,,Tuesday 9am-4pm,June 9-October 27,M,Y,Y,N,Y,42.99905,-78.18151,"(42.99905, -78.18151)"
Suffolk,Patchogue (Sun) Farmers' Market,"Division & Ocean St., Patchogue LIRR, East Side Parking Lot",210 S. Ocean Ave.,Patchogue,NY,11772,Ethel Terry,6313233653,http://www.longislandgrowersmarket.com,Sunday  9am-2pm,June 6-November 14,M,Y,N,N,Y,40.76165,-73.01337,"(40.76165, -73.01337)"
Onondaga,Caf? Sankofa Farmers Market,2323 South Salina St. Syracuse,2323 South Salina St.,Syracuse,NY,13205,Marcelle Haddix,3156771538,,Thursday 3pm-6pm,June 11-October 22,M,N,N,N,Y,43.02466,-76.14482,"(43.02466, -76.14482)"
Chautauqua,Jamestown Public Market,Cherry St. btwn W 2nd & W 3rd Sts.,Cherry and West 2nd St,Jamestown,NY,14701,Linnea Carlson,7164893497,http://www.jamestownrenaissance.org,Saturday  10am-2pm,June 6-October 31,M,N,Y,N,Y,42.09567,-79.24234,"(42.09567, -79.24234)"
Monroe,Brightly's Farm Market,525 Drake Rd.  Hamlin,525 Drake Rd.,Hamlin,NY,14464,Betsy Brightly,5856364337,http://www.brightlyfarms.com,"Daily 9am-5pm, delivery options",Year-round,YR,Y,N,N,Y,43.29471,-77.94344,"(43.29471, -77.94344)"
Ontario,Victor Farmers' Market,Village Hall Parking Lot 60 East Main St.,60 East Main St,Victor,NY,14564,Roseanne Turner-Adams,5859243311,http://www.victorny.org,Wednesday  3pm-6pm,June 3-October 28,M,Y,N,N,Y,42.98236,-77.4088,"(42.98236, -77.4088)"
Erie,Creekside Market Farm Stand,13971 Route 62 Collins,13971 Route 62,Collins,NY,14034,Alan Butzer,7165481863,http://www.creeksideproduce.com,Daily 10am-6pm,April 8-December 26,P/M/X,Y,Y,N,Y,42.49846,-78.92872,"(42.49846, -78.92872)"
Suffolk,HOG Farm Stand-Brookhaven,319 Beaverdam Rd. Brookhaven,319 Beaverdam Rd,Brookhaven,NY,11719,Lauren Napoli,6317902561,http://thehogfarm.org,"Saturday  9am-1pm, M/W/F 3:30pm-6:30pm",May 20-December 20,P/M/X,N,N,N,Y,40.77329,-72.90525,"(40.77329, -72.90525)"
Columbia,City of Hudson WINTER Farmers' Market,"601 Union St. Hudson, sidewalk",601 Union St.,Hudson,NY,12534,Marilyn Cederoth,5189650552,http://www.hudsonfarmersmarketny.com,Saturday  10am-1pm,"Dec, February-April 25, 2020",X/W/P,N,N,N,Y,42.24738,-73.78535,"(42.24738, -73.78535)"
Erie,Bowman Farms Farm stand,11259 Gowanda State Rd. North Collins,11259 Gowanda State Rd.,North Collins,NY,14111,Susan Bowman,7163372695,http://www.bowmanfarmsinc.com,Daily  9am-5pm,June-October,M,Y,Y,N,Y,42.57506,-78.93838,"(42.57506, -78.93838)"
Sullivan,Callicoon Farmers' Market,Callicoon Creek Park Audrey Dorrer Dr.,Audrey Dorrer Dr,Callicoon,NY,12723,Eugene Thalmann,6313327948,http://callicoonfarmersmarket.org/,Sunday  11am-2pm,May 3-November 29,P/M,N,Y,N,Y,41.76559,-75.05797,"(41.76559, -75.05797)"
Erie,South Buffalo Farmers' Market,Cazenovia Park Casino Buffalo,"Cazenovia Casino, Cazenovia Park",Buffalo,NY,14220,Peggy Shea,7168515169,https://www.facebook.com/SouthBuffaloMarket,Sunday  9am-1pm,June 7-September 27,M,N,N,N,Y,42.847895,-78.805781,"(42.847895, -78.805781)"
New York,82nd Street Saint Stephen's Greenmarket,408 E 82nd St.  btwn 1st & York Aves.,408 East 82nd Street,New York,NY,10128,Siobahn Keys,2127887476,http://www.grownyc.org/greenmarket/manhattan/82nd-street,Saturday  9am-2:30pm,Year-round,YR,N,Y,N,Y,40.77394,-73.9506,"(40.77394, -73.9506)"
Wayne,Sodus Farmers' Market,Sodus Methodist Church 58 W. Main St.,58 West Main St,Sodus,NY,14551,Sandy Hall,3154838029,http://www.sutmc.org/sodus-farmers-market,Wed  2:30pm-6pm,June 10-October 7,M,Y,Y,N,Y,43.23615,-77.06587,"(43.23615, -77.06587)"
Albany,Veggie Mobile-North Albany YMCA,616 N. Pearl St. Albany,616 North Pearl Street,Albany,NY,12204,Audrey Bridge,5182748685,http://www.capitalroots.org,Wed 4:45pm-5:45pm,Year-round,YR,N,Y,Y,Y,42.67368,-73.73953,"(42.67368, -73.73953)"
Niagara,North Tonawanda City Sat Farmers' Market,Robinson Rd. & Payne Ave.,310 Robinson Road,North Tonawanda,NY,14120,Matt Parrish,7166958555,http://www.northtonawanda.org/Departments/City%20Market.htm,Saturday  7am-1pm,Year-round,YR,N,Y,N,Y,43.03377,-78.87021,"(43.03377, -78.87021)"
Oswego,Fulton Farmers' Market,"Canalview Mall Parking Lot, Off Route 41 Fulton",Canalview Mall,Fulton,NY,13069,Sara Broadwell,3153437681,,Saturday  8am-12pm,June 13-October 10,M,N,Y,N,Y,43.3111,-76.40499,"(43.3111, -76.40499)"
Chenango,Sunrise Farms Farm Stand,252 Plymouth-North Norwich Rd.  Plymouth,252 Plymouth-North Norwich Rd.,Plymouth,NY,13832,Kathryn Clemens,6073365834,,Mon-Fri  8am-6pm                       Sat 12pm-5pm                                     Sun 1pm-5pm,4/1/20-11/30/20,P/M,N,N,N,Y,42.62427,-75.59152,"(42.62427, -75.59152)"
Madison,Kubeckas Farm Stand,691 Chestnut Rdige Rd. Kirkville,691 Chestnut Ridge Rd,Kirkville,NY,13082,Karissa Atwood,3156322739,,Mon-Fri 10a-6p                                   Sat 10a-5p                                           Sun 11a-3p,June 13-October 31,M,N,N,N,Y,43.11239,-75.94782,"(43.11239, -75.94782)"
Orleans,Panek's Pickin' Patch,13420 W County House Rd  Albion,13420 W County House Rd.,Albion,NY,14411,Guinevere Panek,5855896155,http://www.panekspickinpatch.com,Daily  9am-5pm,June 1-October 31,M,N,N,N,Y,43.21866,-78.2551,"(43.21866, -78.2551)"
Ontario,Outback Farm Farm Market,2135 County Rd. 8 Canandaigua,2135 County Rd 8,Canandaigua,NY,14424,Marlin & Leann Sensenig,7175870079,,"Mon-Fri 8am-8pm, Saturday 8am-4pm",April 20-November 30,P/M,Y,N,N,Y,42.92848,-77.30929,"(42.92848, -77.30929)"
Nassau,Roslyn Farmers' Market,Christopher Morley Park 500 Searingtown Rd. Roslyn,500 Searingtown Rd,Roslyn Heights,NY,11577,Ethel Terry,6313233653,http://www.longislandgrowersmarket.com,Wednesday  7am-1pm,June 3-November 25,M,Y,N,N,Y,40.78188,-73.66277,"(40.78188, -73.66277)"
Albany,Veggie Mobile-Creighton Storey Homes,158 3rd Street Albany,158 3rd Street,Albany,NY,12202,Audrey Bridge,5182748685,http://www.capitalroots.org,Thu 5pm-5:45pm,Year-round,YR,N,Y,Y,Y,42.66205,-73.7578,"(42.66205, -73.7578)"
New York,Dag Hammarskjold Plaza Greenmarket,245 E 47th St. btwn 1st & 2nd Aves.,East 47th St and Second Ave,New York,NY,10017,Siobahn Keys,2127887476,http://www.grownyc.org/greenmarket/manhattan/dag-hammarskjold,Wednesday  8am-4pm,Year-round,YR,N,Y,N,Y,40.75298,-73.96989,"(40.75298, -73.96989)"
Chautauqua,Abers Acres Farm Stand,884 Route 394  Kennedy,884 Rte. 394,Kennedy,NY,14747,Sue Abers,7162672431,http://www.abersacres.com,"Daily 9am-6:30pm, Nov-May 10am-5pm",Year-round,YR,Y,Y,N,Y,42.14495,-79.10996,"(42.14495, -79.10996)"
Seneca,Waterloo Rotary Farmers' Market,"22 Locust Street, parking lot near Save a Lot",22 Locust Street,Waterloo,NY,13165,Dan Grillone,8133820889,http://www.waterloofarmmarket.com,Saturday  9am-1pm,June 20-October 3,M,Y,Y,N,Y,42.90253,-76.86587,"(42.90253, -76.86587)"
Erie,Groundwork Market Garden Farm Stand,1698 Genesee St.  Buffalo,1698 Genesee St.,Buffalo,NY,14211,Mayda Pozantides,7169087396,http://www.groundworkmg.com,Tuesday  4pm-7pm,June 9-October 27,M,Y,Y,N,Y,42.91092,-78.81813,"(42.91092, -78.81813)"
Wyoming,Perry Farmers' Market,Perry Festival Plaza  S. Main Street,Main St and Borden Ave,Perry,NY,14530,Rick Hauser,5859913893,http://www.perryfarmersmarket.com,Sat  8:30am-12:30pm,June 20-September 26,M,Y,N,N,Y,42.71842,-78.00218,"(42.71842, -78.00218)"
Oneida,Oneida County WINTER Public Market,"Inside Main Lobby Union Station, 321 Main Street Downtown Utica",321 Main Street,Utica,NY,13501,Elizabeth Irons,3157983639,http://www.oneidacountymarket.com,"closed until further notice., Alt Saturdays  9am-1pm","November 9-Apr 25, 2020",M/X/W/P,N,Y,N,Y,43.10393,-75.2239,"(43.10393, -75.2239)"
Clinton,Pray's Family Farm Stand-Keesville,391 Route 9N  Keeseville,391 Route 9N,Keeseville,NY,12944,Darcy Pray,5188349130,http://www.praysmarket.com,"Daily  8:30am-7pm, Winter: hours change",Year-Round,YR,N,N,N,Y,44.49367,-73.50798,"(44.49367, -73.50798)"
Madison,Mosher Farms Farm Stand,3214 Fargo Rd Bouckville,3214 Fargo Rd,Bouckville,NY,13310,Terry Mosher,3158937173,http://www.mosherfarms.com,"Mon-Sat 9am-6pm, Sunday 10am-6pm",June 10-October 31,M,N,N,N,Y,42.87972,-75.57175,"(42.87972, -75.57175)"
St. Lawrence,Massena Farmers and Artisans Co-op-Sunday,Tractor Supply 105 Harte Haven Plaza,105 Harte Haven Plaza,Massena,NY,13662,Matt Martin,3158428052,,Sunday 10am-2pm,July 14-October 13,M,N,Y,N,Y,44.92199,-74.88432,"(44.92199, -74.88432)"
Monroe,Brockport Farmers' Market,Market St. off Main St. Brockport,Main St and Market St,Brockport,NY,14420,Charlene Veltz,5857503382,http://www.brockportny.org/community/farmers-market,Sunday  8am-1pm,June 21 -October 25,M,Y,N,N,Y,43.21556,-77.9385,"(43.21556, -77.9385)"
Schenectady,Veggie Mobile-Hillside View Apts,602 Craig Street  Schenectady,602 Craig Street,Schenectady,NY,12307,Audrey Bridge,5182748685,http://www.captialroots.org,Friday 2:15pm-3pm,Year-round,YR,N,Y,Y,Y,42.80323,-73.93741,"(42.80323, -73.93741)"
Dutchess,Z Farms Farm Stand,355 Poplar Hill Rd.  Dover Plains,355 Poplar Hill Road,Dover Plains,NY,12522,Diana Zlotnikov,9173196414,http://www.zfarmsorganic.com,Mon 8am-4pm                          Tues-Sun 10am-6pm,Year-round,YR,N,N,N,Y,41.75631,-73.55278,"(41.75631, -73.55278)"
Rensselaer,Veggie Mobile-Kennedy Towers Apts,2100 6th Ave. Troy,2100 6th Avenue,Troy,NY,12180,Audrey Bridge,5182748685,http://www.capitalroots.org,Thu 2:45pm-3:45pm,Year-round,YR,N,Y,Y,Y,42.73495,-73.68493,"(42.73495, -73.68493)"
Orleans,Lori's Market Basket Farm Stand,51 State St.  Holley,51 State Street,Holley,NY,14470,Lori Passarell,5853310708,,Daily  9am-6pm,May 1-November 30,P/M,Y,N,N,Y,43.22135,-78.02329,"(43.22135, -78.02329)"
Niagara,Schwab Farm Stand,9035 Rochester Rd. Gasport,9035 Rochester Rd,Gasport,NY,14067,Sharon Brent,7165600853,http://www.schwabsfarm.com,"Mon-Fri  8am-7pm, Saturday  8am-6pm, Sunday  9am-5pm",Year-round,YR,N,Y,N,Y,43.20425,-78.52308,"(43.20425, -78.52308)"
Rockland,Palisades Indoor WINTER Farmers' Market,"Palisades Community Center, 675 Oak Tree Rd",675 Oak Tree Rd,Palisades,NY,10964,Carol Baxter,8453593988,http://www.palisadesfm.org,Saturday  9am-1pm,December 7-May,W/P,N,N,N,Y,41.011524,-73.917671,"(41.011524, -73.917671)"
Allegany,On the River Farm Stand,7579 Route 19 Belfast,7579 Route 19,Belfast,NY,14711,Stephen Demarte,7165605594,,"Mon-Fri 3pm-6pm, Saturday 10am-7pm, Sunday 12pm-6pm",June-November,M,N,N,N,Y,42.34485,-78.11563,"(42.34485, -78.11563)"
Herkimer,MAWS Farm Stand,7342 Main Street Newport,7342 Main Street,Newport,NY,13416,Michael Skwara,3159850088,http://www.mawsfarm.com,"Mon-Sat  9am-6pm, Sunday  10am-6pm, hours change Nov-Apr",Year-round,YR,N,Y,N,Y,43.18096,-75.01054,"(43.18096, -75.01054)"
Suffolk,Montauk Farmers' Market,Village Green 743 Montauk Hwy,742 Montauk Hwy,Montauk,NY,11954,Laraine Creegan,6316682355,http://www.facebook.com/montaukfarmersmarket,Thur 9am-2pm,June 11-September 10,M,Y,N,N,Y,41.03436,-71.94424,"(41.03436, -71.94424)"
Orange,Village of Monroe Farmers' Market,"Park & Ride Commuter Lot , Millpond Parkway",68 Millpond Pkwy,Monroe,NY,10950,Dorey Houle,9175382821,http://www.facebook.com/villageofmonroefarmersmarket,Sunday  9am-2pm,June 7-November 22,M,Y,N,N,Y,41.32983,-74.189196,"(41.32983, -74.189196)"
Chemung,Chemung Valley ECL Market,800 West Broad St. Horseheads,800 West Broad Street,Horseheads,NY,14845,Cassidy L Mallernee,6077954430,,Thursday 3pm-6pm,June 4-September 24,M,N,N,N,Y,42.16027,-76.82182,"(42.16027, -76.82182)"
Warren,Bolton Landing Farmers' Market,5 Cross St directly behind Town Hall,5 Cross Street,Bolton,NY,12814,Penelope Jewell,5184809118,http://www.boltonlandingfarmersmarket.com,Friday  9am-2pm,June 26-September 4,M,Y,N,N,Y,43.55744,-73.65727,"(43.55744, -73.65727)"
Kings,Brooklyn Grange Farm Stand @ SSP,"850 3rd Ave, rooftop  Brooklyn",850 3rd Ave,Brooklyn,NY,11232,Ben Flanner,,http://www.brooklyngrangefarm.org,Sunday 10am-4pm,May 24-November 1,M,Y,N,N,Y,40.6594,-74.0044,"(40.6594, -74.0044)"
Sullivan,Rock Hill Farmers' Market,223 Rock Hill Drive,223 Rock Hill Drive,Rock Hill,NY,12775,Melinda Meddaugh,8453970376,http://www.rockhillfarmersmarket.com,Saturday  10am-1pm,June 6-September 26,M,Y,N,N,Y,41.62515,-74.59634,"(41.62515, -74.59634)"
Wayne,Newark Farmers' Market,303 East Ave,303 East Avenue,Newark,NY,14513,Andrew Bodine,3158791120,http://www.facebook.com/newarkfarmersmarket,Thursday  2pm-6pm,June 25-October 22,M,N,Y,N,Y,43.04412,-77.09252,"(43.04412, -77.09252)"
Oneida,Boonville Farmers' Market,"Erwin Park parking lot, Route 12","Erwin Park parking lot, Route 12",Boonville,NY,13309,Michelle Bartelotte,3159425112,http://boonvillechamber.com,Thur 12:30pm-5:30pm,June 11-October 1,M,Y,N,N,Y,43.48178,-75.34404,"(43.48178, -75.34404)"
Albany,The Gade Farm Farm Stand,2479 Western Avenue Altamont,2479 Western Avenue,Altamont,NY,12009,Amy Castillo,5188698019,http://www.gadefarm.com,"Sunday  9am-5pm, Mon-Sat 9am-6pm",March 20-December 24,P/M/X,Y,N,N,Y,42.71055,-73.92593,"(42.71055, -73.92593)"
Erie,Peaceful Soul Farmers' Market,11359 Southwestern Blvd (Native Pride) Irving,11359 Southwestern Blvd,Irving,NY,14081,Azalia Garlow,7169037066,http://www.peacefulsoulfarmersmarket.com,Tuesday  10am-3pm,June 16-October 27,M,N,Y,N,Y,42.57394,-79.09044,"(42.57394, -79.09044)"
Jefferson,Watertown Saturday Farmers' Market,"Pavilion at J.B. Wise , 175 Black River Pkway",175 Black River Parkway,Watertown,NY,13601,Shawn Chamberlain,3154081088,http://www.facebook.com/Watertown-Saturday-Farmers-Market-106662177762/,Saturday  9am-2pm,May 30-October 31,M,Y,N,N,Y,43.97651,-75.90988,"(43.97651, -75.90988)"
Bronx,TFFJ Fresh Farm Market-Bronx,100 W Mosholu Pkwy South,100 W Mosholu Pkwy South,Bronx,NY,10468,Katherine Soll,9292411029,http://www.teensforfoodjustice.org,Thursday 3pm-6pm,Year-Round,YR,N,Y,N,Y,40.88007,-73.88593,"(40.88007, -73.88593)"
Cortland,Plunkett Farms Farm Stand,2180 Tower Road Cortland,2180 Tower Road,Cortland,NY,13045,John and Carla Plunkett,6077530001,,Daily 9am-5pm,July 1-October 31,M,Y,N,N,Y,42.55495,-76.13123,"(42.55495, -76.13123)"
Nassau,Restoration Farm Farm Stand,140 Bethpage-Sweet Hollow Road,140 Bethpage-Sweet Hollow Road,Old Bethpage,NY,11804,Caroline Fanning,7183094220,http://www.restorationfarm.com,"Saturday 10am-1pm, Tu/Th 3pm-6pm, hours change Oct 31",May 16-December 19,M/X,Y,N,N,Y,40.76181,-73.44488,"(40.76181, -73.44488)"
New York,Tompkins Square Greenmarket,Tompkins Square Park 111 Ave at E 7 St.,Avenue A and East 7th St,New York,NY,10009,Siobahn Keys,2127887476,http://www.grownyc.org/greenmarket/manhattan/tompkins-square,Sunday  9am-5pm,Year-round,YR,N,Y,N,Y,40.72602,-73.98353,"(40.72602, -73.98353)"
Lewis,Owls Landing Farm Farm Stand,7411 West Rd Lowville,7411 West Road,Lowville,NY,13367,John Ingham,3153762268,http://owlslandingfarm.com,"Mon-Thu 3p-6p                             Fri 3p-5p                 , Sat/Sun 1p-6pm",September 1-Nov 30,M,N,N,N,Y,43.78906,-75.54409,"(43.78906, -75.54409)"
Saratoga,Bowman Orchards Farm Stand,141 Sugarhill Road Rexford,141 Sugarhill Road,Rexford,NY,12148,Kevin Bowman,5183712042,http://www.bowmanorchards.com,Daily 9am-5pm,May 1-December 23,P/M/X,Y,N,N,Y,42.81576,-73.83953,"(42.81576, -73.83953)"
Chautauqua,Fredonia Farmers' Market,"Village Hall Barker Commons , 9 Church St.",11 Church St,Fredonia,NY,14063,Thomas Degolier,,http://www.facebook.com/FredoniaFarmersMarket,Saturday  9am-1pm,May 16-October 31,P/M,N,Y,N,Y,42.44064,-79.33235,"(42.44064, -79.33235)"
Westchester,Ossining Farmers' Market,Market Square 100 Main Street @ Spring St.,100 Main Street,Ossining,NY,10562,Miriam Haas,9149234837,http://www.downtoearthmarkets.com,Saturday 9am-1pm,Year-Round,YR,N,Y,Y,Y,41.16105,-73.86351,"(41.16105, -73.86351)"
Delaware,Walton Farmers' Market,Veteran's Plaza  181 Delaware St.,181 Delware Street,Walton,NY,13856,Jeanne Darling,6078656531,http://www.ccedelaware.org,Friday 10am-2pm,July 3-September 25,M,Y,N,N,Y,42.16855,-75.13157,"(42.16855, -75.13157)"
Queens,Brooklyn Grange Farm Stand @ LIC,"On the rooftop 37-18 Northern Blvd. , Long Island City",37-18 Northern Blvd.,Long Island City,NY,11101,Ben Flanner,,http://www.brooklyngrangefarm.com,Saturday  10am-4pm,May 16-October 31,P/M,Y,Y,N,Y,40.75201,-73.92583,"(40.75201, -73.92583)"
Queens,Rockaway Youth Task Force Farm Stand,310 Beach 58th Street,310 Beach 58th Street,Far Rockaway,NY,11691,Tamera Jacobs,7186730263,http://www.rytf.org,Saturday  9am-3pm,July 6-November 21,M,Y,Y,N,Y,40.59453,-73.78803,"(40.59453, -73.78803)"
Onondaga,Central NY Saturday Regional Market Authority,2100 Park St. Syracuse,2100 Park Street,Syracuse,NY,13208,Amanda Vitale,3154228647,http://www.cnyrma.com,Saturday  7am-2pm,Year-round,YR,N,Y,Y,Y,43.07269,-76.16835,"(43.07269, -76.16835)"
Montgomery,Canajoharie Farmers' Market,24 Church Street Wagner Square parking lot,24 Church Street,Canajoharie,NY,13317,Janet L. Stanley,5186730292,http://www.canajohariefarmersmarket.com,Sunday  11am-2pm,June 9-October 11,M,Y,N,N,Y,42.90515,-74.57222,"(42.90515, -74.57222)"
Otsego,Richfield Springs Area Thurs Farmers' Market,"Spring Park Main St. (Rt. 20), across from Post Office",Main St and Church St,Richfield Springs,NY,13439,Ronald Bayzon,3158582703,,Thursday  2pm-6pm,June 25-October 29,M,Y,N,N,Y,42.85341,-74.98506,"(42.85341, -74.98506)"
Herkimer,Dolgeville Farmers' Market,Village Pavilion on S. Helmer Ave.,South Helmer Avenue,Dolgeville,NY,13329,Christin Reynolds,3158684557,http://www.facebook.com/DolgevilleFarmersMarket/,Saturday  9am-1pm,June 6-October 10,M,N,N,N,Y,43.10057,-74.7755,"(43.10057, -74.7755)"
Suffolk,Country Fresh Tanger Outlets Farmers' Market,152 The Arches Circle  Deer Park,152 The Arches Circle,Deer Park,NY,11747,Mary Schneider,6316735844,,Saturday  10am-3pm,June 6-October 31,M,Y,N,N,Y,40.76307,-73.30507,"(40.76307, -73.30507)"
Albany,Veggie Mobile-Arbor Hill/Oak Street Park,Oak Street & Second Street Albany,Second Street & Oak Street,Albany,NY,12210,Audrey Bridge,5182748685,http://www.capitalroots.org,Thu 12:15pm-1pm,Year-round,YR,N,Y,Y,Y,42.6629,-73.76094,"(42.6629, -73.76094)"
Kings,Park Slope Farmers' Market,289 4th Street at 5th Ave.  near PS 51 Brooklyn,289 4th Street,Brooklyn,NY,11215,Miriam Haas,9149234837,http://www.downtoearthmarkets.com,Sunday 10am-4pm,Year-round,YR,N,Y,N,Y,40.6722,-73.98379,"(40.6722, -73.98379)"
Steuben,Corning Farmers' Market,"1 Riverfront Plaza Gaffer District, Riverfront Centennial Park",Centennial Park East Tioga Ave,Corning,NY,14830,Matthew Luma,6079376292,http://www.gafferdistrict.com,Thursday  10am-3pm,June 4-October 29,M,N,N,N,Y,42.1443,-77.05339,"(42.1443, -77.05339)"
Cattaraugus,South Dayton Farmers' Market,Village Square Park  Rt 322 & Park St,Rt 322 and Park st.,South Dayton,NY,14138,Linda Dewey,7166729004,http://www.facebook.com/pages/South-Dayton-Farmers-Market/1662449950658252,Saturday  9am-3pm,June 6-October 24,M,Y,N,N,Y,42.3609,-79.04925,"(42.3609, -79.04925)"
Saratoga,Saratoga Farmers' Market-Saturday,"High Rock Park, 112 High Rock Avenue",High Rock Ave and York Street,Saratoga Springs,NY,12866,Emily Meagher,5187083698,http://www.saratogafarmersmarket.com,Saturday  9am-1pm,May 2-October 31,P/M,Y,Y,Y,Y,43.08552,-73.78121,"(43.08552, -73.78121)"
Jefferson,Cape Street Market,Village Green 357 Broadway St.,357 Gouvello St.,Cape Vincent,NY,13618,Shelley Higgins,3156542481,http://www.capevincent.org,Saturday  11am-5:30pm,June 20-September 19,M,Y,N,N,Y,44.12838,-76.33472,"(44.12838, -76.33472)"
Franklin,Saranac Lake WINTER Farmers' Market,Hotel Saranac 100 Main St. Saranac Lake,100 Main St,Saranac Lake,NY,12983,Jacob Vennie Vollrath,5182172495,http://www.ausablevalleygrangefarmersmarkets.com/,"Saturday  10am-2pm, pick up only - contact market","October 19-March 21, 2020",M/X/W,N,N,N,Y,44.32717,-74.13016,"(44.32717, -74.13016)"
Ulster,Kingston WINTER Farmers' Market,"Bethany Hall Old Dutch Church Outside, 272 Wall Street corner Wall & Main St.",272 Wall Street,Kingston,NY,12401,Laura Crimmins,6462624672,http://www.kingstonfarmersmarket.org,Alt Saturdays  10am-2pm,December 7-April 25,X/W/P,N,Y,N,Y,41.93286,-74.01884,"(41.93286, -74.01884)"
Erie,Holland Farmers' Market,"25 North Main St. Holland, Municipal lot Next to Fire Dept",25 North Main St.,Holland,NY,14080,Marg Wnek,7165379590,http://www.thehollandmkt.com,Sunday  8:30am-1pm,May 3-October 25,P/M,Y,N,N,Y,42.64149,-78.54248,"(42.64149, -78.54248)"
Queens,Sunnyside Greenmarket,41-15 Skillman Ave. at 42nd St,Skillman Ave and 42nd St,Sunnyside,NY,11104,Siobahn Keys,2127887476,http://www.grownyc.org/greenmarket/queens/sunnyside,Saturday  8am-2pm,Year-round,YR,N,Y,N,Y,40.74694,-73.92139,"(40.74694, -73.92139)"
New York,Union Square Saturday Greenmarket,"31 Union Square W , NW side of Park",Broadway and East 17th St,New York,NY,10003,Siobahn Keys,2127887476,https://www.grownyc.org/greenmarket,Saturday  8am-4pm,Year-round,YR,N,Y,N,Y,40.7371,-73.99032,"(40.7371, -73.99032)"
Erie,Clinton Bailey Sat Farmers' Market,"1443-1517 Clinton St. Buffalo, corner of Clinton & Bailey Sts.",Bailey Ave and Clinton St,Buffalo,NY,14206,Sharon Baldi,7162080003,http://www.clintonbaileymarket.com,"Saturday  4am-6pm, Nov-Apr  6am-12pm",Year-round,YR,N,Y,N,Y,42.87205,-78.81998,"(42.87205, -78.81998)"
Montgomery,Fort Plain Farm Stand,Parking lot on 12 Willet St. Ft. Plain,12 Willet Street,Fort Plain,NY,13339,Annette Rorick,5189934271,,Thu/Fri  10am-3pm,June 25-October 30,M,Y,N,N,Y,42.9316,-74.62182,"(42.9316, -74.62182)"
Rensselaer,Veggie Mobile Sprout-Barker Park,Corner 3rd & State St. Troy,3rd and State St.,Troy,NY,12180,Audrey Bridge,5182748685,http://www.capitalroots.org,Tue 11:30am-12pm,Year-round,YR,N,Y,Y,Y,42.73006,-73.69055,"(42.73006, -73.69055)"
Chenango,Enough...and a Little Bit More Farm Stand,4776 State Highway 41 Greene,4776 State Highway 41,Greene,NY,13778,Jim Girton,6076567242,http://www.enoughandalittlebitmore.com,"Mon-Fri  11am-6pm, Sat/Sun  3pm-7pm",May 1-October 31,P/M,N,N,N,Y,42.37041,-75.78369,"(42.37041, -75.78369)"
Lewis,Harrisville Farmers' Market,"the Scenic View lot , State Street  Harrisville",State Street and Main Street,Harrisville,NY,13648,Laura La Platney,3157771689,,Saturday  9am-4pm,May 30-October 31,P/M,Y,N,N,Y,44.14849,-75.31571,"(44.14849, -75.31571)"
Monroe,Rochester Public Market-Saturday,280 N. Union St. off East Main St.,280 North Union St.,Rochester,NY,14609,Cindy De Coste,5854286907,http://www.cityofrochester.gov/publicmarket,Saturday 5am-3pm,Year-round,YR,Y,Y,N,Y,43.1657,-77.59016,"(43.1657, -77.59016)"
Delaware,Pakatakan Farmers' Market,"Round Barn of Halcottville, 46676 State Hwy 30",46676 State Highway 30,Halcottville,NY,12438,Georgianna Fairlie,8452544290,http://roundbarnmarket.org,"Saturday  9am-1pm, hours change Oct 17",May 16-November 28,P/M,Y,N,N,Y,42.20103,-74.59909,"(42.20103, -74.59909)"
Suffolk,East Hampton Farmers' Market,136 N. Main St. Nick & Toni's lot,136 North Main St,East Hampton,NY,11937,Katherine Plumb,6317259133,http://www.facebook.com/East-Hampton-Farmers-Market-177816025660504/,Friday  9am-1pm,May 15-Sept 1,P/M,N,Y,N,Y,40.97017,-72.18133,"(40.97017, -72.18133)"
Kings,Bushwick Hope Ball Field Farmers' Market,Knickerbocker Ave btwn Menahan St & Grove St. Bushwick,Knickerbocker Ave,Bushwick,NY,10301,Novelette Scott,7188210254,http://www.riseboro.org,Wednesday 9am-3pm,May 20-November 24,P/M,Y,N,N,Y,40.70117,-73.92252,"(40.70117, -73.92252)"
Albany,Farmers' Market at the Crossings,580 Albany Shaker Rd. Loudonville,580 Albany Shaker Rd,Colonie,NY,12211,Laura Archambault,5187832760,http://www.colonie.org,Saturday  9am-1pm,June 13-September 26,P/M,N,N,N,Y,42.71016,-73.78029,"(42.71016, -73.78029)"
Erie,Elmwood Village Farmers' Market,Bidwell Parkway corner of Elmwood Ave.,Elmwood Ave and Bidwell Pkwy,Buffalo,NY,14222,Ashley Smith,7168810707,http://www.elmwoodmarket.org,Saturday  8am-1pm,May 9-November 28,P/M,Y,Y,N,Y,42.92371,-78.87702,"(42.92371, -78.87702)"
Broome,CHOW MM-Town&Country Apts,100 Roberts St. Binghamton,100 Robers St,Binghamton,NY,13901,Jack Seman,6077249130,http://www.broomecouncil.net,Wednesday 12:30pm-2pm,Year-round,YR,N,Y,N,Y,42.1093,-75.90168,"(42.1093, -75.90168)"
Schenectady,Veggie Mobile-Schenectady DSS,797 Broadway,797 Broadway,Schenectady,NY,12305,Audrey Bridge,5182748685,http://www.capitalroots.org,Mon  3pm-3:45pm,Year-round,YR,N,Y,Y,Y,42.80375,-73.95193,"(42.80375, -73.95193)"
Erie,Farm This Way Farm Stand,11086 Brant Reservation Rd. Brant,11086 Brant Reservation Road,Brant,NY,14027,Carolyn Rosier,7165491038,,Daily 9am-5pm,May 1-October 31,P/M,Y,N,N,Y,42.58029,-79.01732,"(42.58029, -79.01732)"
Chenango,Pires Farmers' Market,6066 State Hwy 12  Norwich,6066 State Highway 12,Norwich,NY,13815,Richard Williams,6073342676,,"Mon-Sat  9am-5pm, Sunday  9am-4pm",May 1-November 30,P/M,Y,Y,N,Y,42.54525,-75.52498,"(42.54525, -75.52498)"
Erie,Downtown Buffalo Country Thursday Market,350 Main St. outside btwn Court & Church Streets,350 Main St. outside btwn Court & Church Streets,Buffalo,NY,14203,Taylor Potenza,7168563150,https://buffaloplace.com/play/our-events/#countrymarket,Thu  10am-2:30pm,May 14-October 22,P/M,Y,Y,N,Y,42.8844,-78.8754,"(42.8844, -78.8754)"
Rensselaer,Veggie Mobile-Van Rensselaer Heights,460 Forbes Ave. Rensselaer,460 Forbes Avenue,Rensselaer,NY,12144,Audrey Bridge,5182748685,http://www.capitalroots.org,Thu 10:45am-11:15am,Year-round,YR,N,Y,Y,Y,42.65953,-73.73008,"(42.65953, -73.73008)"
New York,Harvest Home Harlem Hospital Farmers' Market,"506 Lenox Ave. , Btwn W 135th & W 137th Sts.",137th Street and Lennox Avenue,New York,NY,10037,Maritza Owens,2128283361,http://www.harvesthomefm.org,June 5-Nov 20 Friday  8am-4pm,June 5-November 20,M,Y,Y,N,Y,40.81539,-73.93985,"(40.81539, -73.93985)"
Dutchess,Arlington Farmers' Market,"Vassar College Alumni Lawn , 123 Raymond Ave. Poughkeepsie",123 Raymond Ave,Poughkeepsie,NY,12603,Bob Legacy,8454712863,http://www.arlingtonhasit.org,Thursday  3pm-7pm,May 28-November 19,P/M,Y,N,N,Y,41.68187,-73.89636,"(41.68187, -73.89636)"
New York,Morningside Park Farmers' Market,237 Manhattan Ave. @W 110th St. Manhattan,237 Manhattan Ave.,New York,NY,10025,Miriam Haas,9149234837,http://www.downtoearthmarkets.com,Saturday 10am-3pm,Year-round,YR,N,Y,N,Y,40.80109,-73.95977,"(40.80109, -73.95977)"
Albany,Veggie Mobile-Whitney Young Health Ctr,920 Lark Drive Albany,920 Lark Drive,Albany,NY,12207,Audrey Bridge,5182748685,http://www.capitalroots.org,Tue 11am-12pm,Year-round,YR,N,Y,Y,Y,42.66215,-73.74859,"(42.66215, -73.74859)"
Niagara,Becken Farms Farm Stand,2585 Upper Mt. Rd,2585 Upper Mt. Rd,Sanborn,NY,14132,Randy Becken,7169904454,,Thursday-Friday 10am-6pm   Saturday 10am-5pm,August 13-October 31,TBD,N,N,N,Y,43.16823,-78.90518,"(43.16823, -78.90518)"
Saratoga,Clifton Park Farmers' Market,971 Rt. 146 Shenendehowa Methodist Church Clifton Park,971 State Route 146,Clifton Park,NY,12065,Emily Meagher,5187083698,http://www.saratogafarmersmarket.org,Monday  2pm-5pm,June 1-October 26,M,Y,N,N,Y,42.8688,-73.80859,"(42.8688, -73.80859)"
Madison,Cazenovia WINTER Farmers' Market,American Legion Hall 26 Chenango St,26 Chenango Street,Cazenovia,NY,13035,Tricia Park,3157202141,http://www.cazenoviachamber.com,3rd Saturday  10am-1pm,November 1-March 1,M/X/W/P,N,N,N,Y,42.92467,-75.85168,"(42.92467, -75.85168)"
Oswego,Godfrey's Last Stand Farm Stand,1232 State Route 264 Phoenix,1232 State Route 264,Phoenix,NY,13135,Roberta and Josephine Godfrey,3155937291,http://www.facebook.com/Godfreys-Last-Stand-146264062067804/,Daily  11am-5pm,May 1-December 23,P/M,Y,Y,N,Y,43.31155,-76.29001,"(43.31155, -76.29001)"
Suffolk,Bethel Hobbs Community Farm Stand,178 Oxhead Rd.  Centereach,178 Oxhead Road,Centereach,NY,11720,Ann Pellegrino,6317741556,http://www.hobbsfarm.info,Saturday  10am-2pm,May 30-October 10,P/M,Y,N,N,Y,40.872,-73.09635,"(40.872, -73.09635)"
Orange,Goshen Farmers' Market,"Goshen Village Square , Main at South Street",Main St and Church St,Goshen,NY,10924,Chris Wilson,8452947741,http://www.goshennychamber.com,Friday  10am-5pm,May 22-October 30,P/M,Y,N,N,Y,41.40219,-74.32408,"(41.40219, -74.32408)"
Tioga,Seven Counties Farmers' Market-Tues,Rite Aid parking lot 153 Main St. Owego,Main St and Central Ave,Owego,NY,13827,John Purdy,6076428439,,Tuesday  9am-1pm,June-October,M,Y,N,N,Y,42.10324,-76.26314,"(42.10324, -76.26314)"
Washington,Cambridge Valley WINTER Farmers' Market,"Lovejoy Building , 5 Washington Street",5 Washington Street,Cambridge,NY,12816,Lindsay Fisk,5185389467,,Sunday  10am-2pm,November 1-December 20,M/X,Y,N,N,Y,43.02872,-73.37955,"(43.02872, -73.37955)"
Wayne,The Apple Shed Farm Stand,"3391 Fairville Maple Ridge Rd.  , Newark",3391 Fairville Maple Ridge Rd,Newark,NY,14513,Barbara Wells,3153316294,http://www.theappleshed.com,Daily 9am-5pm,June 12-December 22,M/X,N,Y,N,Y,43.12967,-77.09774,"(43.12967, -77.09774)"
Jefferson,Watertown Farm & Craft Market,"317 Washington Street , State Office Building Plaza",317 Washington Street,Watertown,NY,13601,Kylie Peck,3157884400,http://www.watertownny.com,Wed 7am-3pm,May 27-October 7,P/M,Y,Y,N,Y,43.97173,-75.91116,"(43.97173, -75.91116)"
Bronx,Harvest Home N Central Bronx Farmers' Market,Mosholu Parkway & Jerome Ave.,Jerome Ave and East Mosholu Pkwy North,Bronx,NY,10467,Maritza Owens,2128283361,http://www.harvesthomefm.org,Wednesday  8am-4pm,June 3-November 25,M,Y,Y,N,Y,40.88046,-73.88385,"(40.88046, -73.88385)"
Bronx,Harvest Home Hunts Point Farmers' Market,"Monsignor Del Valle Park, btwn Southern & Bruckner Blvds.",925 Hunts Point Ave.,Bronx,NY,10474,Maritza Owens,2128283361,http://www.harvesthomefm.org,Wednesday  8am-4pm,June 3-November 25,M,Y,Y,N,Y,40.82073,-73.89088,"(40.82073, -73.89088)"
Genesee,Genesee Country Thursday Farmers' Market,Bank St. at Alva Place Batavia,Bank St and Alva Place,Batavia,NY,14020,Sharon Brent,7165600853,,Thursday 9am-4pm,June 11-October 27,M,Y,Y,N,Y,42.99905,-78.18151,"(42.99905, -78.18151)"
Niagara,North Tonawanda City Thurs Farmers' Market,Robinson Rd. & Payne Ave.,310 Robinson Road,North Tonawanda,NY,14120,Matt Parrish,7166958555,http://www.northtonawanda.org/Departments/City%20Market.htm,Thursday  7am-1pm,Year-round,YR,N,Y,N,Y,43.03377,-78.87021,"(43.03377, -78.87021)"
Broome,CHOW MM-Broome County Library,185 Court St. Binghamton,185 Court St.,Binghamton,NY,13901,Jack Seman,6077249130,http://www.broomecouncil.net,Mon/Wed/Fri 9:30am-11:30am,Year-round,YR,N,Y,N,Y,42.09999,-75.90674,"(42.09999, -75.90674)"
Herkimer,Exeter Park Produce and Garlic Farm Stand,"147 South Rd.  West Winfield, close to intersection of Route 51",147 South Road,West Winfield,NY,13491,David or Cynthia Ball,3159823589,http://www.exeterparkproduceandgarlic.com,Daily  10am-6pm,May 1 -October 31,M,N,N,N,Y,42.83092,-75.1367,"(42.83092, -75.1367)"
Onondaga,Syracuse Eastside Neighborhood Market,Westcott Community Ctr 826 Euclid Ave,826 Euclid Ave,Syracuse,NY,13210,Jake Losowski,3154788634,https://westcottcc.org/syracuse-eastside-farmers-market/,Wednesday  2pm-6pm,June 1-November 1,M,N,Y,N,Y,43.03662,-76.1192,"(43.03662, -76.1192)"
Chautauqua,Dunkirk Farmers' Market,Dunkirk Senior Center 45 Cliffstar Court,45 Cliffstar Court,Dunkirk,NY,14048,Edward Hayes,7163669876,http://www.dunkirktoday.com,Wednesday  9am-2pm,June 10-October 14,M,Y,Y,N,Y,42.48481,-79.32751,"(42.48481, -79.32751)"
Kings,McCarren Park/Greenpoint Greenmarket,228 N. 12th St at Union Ave,N 12th Street and Driggs Ave,Brooklyn,NY,11222,Siobahn Keys,2127887476,http://www.grownyc.org/greenmarket/brooklyn/greenpoint-sa,Saturday  8am-2pm,Year-round,YR,N,Y,N,Y,40.72046,-73.95269,"(40.72046, -73.95269)"
Orange,Tuxedo Farmers' Market,"Tuxedo Train Station,  240 Rt. 17N",240 State Route 17,Tuxedo,NY,10987,Lorraine Barbarash,8453251278,http://www.tuxedofarmersmarket.com,Saturday  9am-2pm,June 13-October 31,M,N,N,N,Y,41.19447,-74.18447,"(41.19447, -74.18447)"
Albany,Veggie Mobile Sprout-St. Sophia Church,440 Whitehall Rd. Albany,440 Whitehall Road,Albany,NY,12208,Audrey Bridge,5182748685,http://www.capitalroots.org,Wed 12:40pm-1pm,Year-round,YR,N,Y,Y,Y,42.65197,-73.81477,"(42.65197, -73.81477)"
Genesee,Genesee Country Friday Farmers' Market,Bank St. at Alva Place Batavia,Bank St and Alva Place,Batavia,NY,14020,Sharon Brent,7165600853,,Friday  9am-5pm,June 5-October 30,M,Y,Y,N,Y,42.99905,-78.18151,"(42.99905, -78.18151)"
Schoharie,Parsons Vegetable Farm Farm Stand,756 US Highway 20 Sharon Springs,756 US Highway 20,Sharon Springs,NY,13459,Kenyon Parsons,5182842330,http://www.facebook.com/Parsons-Vegetable-Farm-458674077476065/,Daily  10am-7pm                             Nov/Dec 10a-4p,May 5-December 24,P/M,Y,N,N,Y,42.78332,-74.60004,"(42.78332, -74.60004)"
Kings,Graham Avenue Farmers' Market,Cook St. & Graham Ave.,Graham Ave and Cook St,Brooklyn,NY,11206,Betty Cooney,7183876643,http://www.grahamavenuebid.net,Saturday  9am-5pm,July 11-October 31,M,Y,Y,N,Y,40.70235,-73.94238,"(40.70235, -73.94238)"
Warren,Glens Falls WINTER Farmers' Market,Sanford Street School 10 Sanford St.,10 Sanford Street,Glens Falls,NY,12801,Richard Sandora,5187920438,http://www.glensfallsfarmersmarket.com,Saturday  9am-12pm,"November 1-April 25,2020",M/X/W/P,N,Y,N,Y,43.3173,-73.65347,"(43.3173, -73.65347)"
Kings,Carroll Gardens Greenmarket,330 Carroll St. btwn Smith & Court Sts.,Carroll St and Court St,Brooklyn,NY,11231,Siobahn Keys,2127887476,http://www.grownyc.org/greenmarket/brooklyn/carroll-gardens,Sunday  8am-2pm,Year-round,YR,N,Y,N,Y,40.68106,-73.99653,"(40.68106, -73.99653)"
Suffolk,Dobler Farms-Commack,72 Crooked Hill Rd Commack,72 Crooked Hill Rd,Commack,NY,11725,Erika Dobler,5169651568,,Daily 9am-6pm,July 1-October 20,M,N,N,N,Y,40.81149,-73.29283,"(40.81149, -73.29283)"
Albany,Altamont Farm Stand,Altamont Free Library 179 Main St.,179 Main Street,Altamont,NY,12009,Jim Abbruzzese,5188616515,http://altamontorchards.com,Friday  11am-6pm,July 17-August 28,M,N,N,N,Y,42.70119,-74.03307,"(42.70119, -74.03307)"
Broome,Broome Co Regional Sat Farmers' Market,840 Upper Front St. Binghamton,840 Upper Front St.,Binghamton,NY,13905,Amy Willis,6077728953,http://www.broomecountyregionalmarket.com,Saturday  9am-1pm,Year-round,YR,N,Y,Y,Y,42.12921,-75.90609,"(42.12921, -75.90609)"
Onondaga,Bayberry Plaza Farmers' Market,Kinney lot 7608 Oswego Rd. Liverpool,7608 Oswego Rd,Liverpool,NY,13090,Madison Cline,3156521463,http://www.bayberryplaza.com,Wednesday  8am-2pm,May 6-October 31,P/M,Y,N,N,Y,43.13779,-76.22602,"(43.13779, -76.22602)"
Ontario,Canandaigua WINTER Farmers' Market,"Antis St. Parkling lot, Behind Byrne Dairy",Antis St.,Canandaigua,NY,14424,Rich Riedman,5853946597,,"Every other Sat  , 10am-11am",November 9-May 30,M/X/W/P,N,N,N,Y,42.88362,-77.2801,"(42.88362, -77.2801)"
Cayuga,Auburn Thu Farmers' Co-op Market,96 State Street  Curley's Restaurant Pkg Lot,96 State Street,Auburn,NY,13021,Mark Soper,3157048609,http://www.auburnfarmerscoopmarketinc.com,Thu 7am-2pm,June 4-October 29,M,Y,Y,N,Y,42.93401,-76.57007,"(42.93401, -76.57007)"
Erie,Clinton Bailey Wed Farmers' Market,1443-1517 Clinton St. Buffalo,Bailey Ave and Clinton St,Buffalo,NY,14206,Sharon Baldi,7162080003,http://www.clintonbaileymarket.com,Wednesday 7am-6pm,May 1-October 31,P/M,N,Y,N,Y,42.87206,-78.81997,"(42.87206, -78.81997)"
Onondaga,Downtown Syracuse Farmers' Market,100 Clinton Square,Clinton St and Water St,Syracuse,NY,13202,Charles McFadden,3154228284,http://www.downtownsyracuse.com,Tuesday  7am-3pm,June 6-October 13,M,Y,Y,N,Y,43.05054,-76.15354,"(43.05054, -76.15354)"
Madison,Debrucque's Produce Stand,3392 Seneca Turnpike Canastota,3392 Seneca Turnpike,Canastota,NY,13032,Gary J. Debrucque,3153801015,,"Mon-Fri  10am-6pm, Sat/Sun  9am-4pm",June 1-October 31,M,Y,N,N,Y,43.06975,-75.75169,"(43.06975, -75.75169)"
Niagara,Huntington Farm Stand I,9715 Ridge Rd. Middleport,9715 Ridge Rd.,Middleport,NY,14105,Dan Huntington,7163930590,,Daily 11am-7pm,June -October,M,N,N,N,Y,43.24672,-78.48848,"(43.24672, -78.48848)"
Allegany,Wagoner Bees & Produce Farm Stand,11137 Wayne Rd.  Fillmore,11137 Wayne Rd.,Fillmore,ny,14735,Terry Wagoner,5856108836,http://www.facebook.com/wagonerbees,"Sat/Sun 12pm-3pm, Mon/Tues/Fri  1pm-5pm, Wed/Thu 5pm-7pm",May 15-October 30,P/M,Y,Y,N,Y,42.48057,-78.09042,"(42.48057, -78.09042)"
Tioga,Seven Counties Farmers' Market-Fri,153 Main Street,153 Main Street,Owego,NY,13827,John Purdy,6076428439,,Friday  9am-1pm,June 19-October 30,M,Y,N,N,Y,42.10315,-76.26336,"(42.10315, -76.26336)"
Chenango,Norwich Farmers' Market,East Park 2 North Broad St.,North Broad St. and Main St.,Norwich,NY,13815,Sandy Pierce,6073344928,http://www.facebook.com/NorwichNYFarmersMarket,Wednesday  10am-2pm,Year-round,YR,Y,Y,N,Y,42.53055,-75.52365,"(42.53055, -75.52365)"
Steuben,Hornell Farmers' Market,1 Steuben Sq Hornell,1 Steuben Sq,Hornell,NY,14843,Valorie Whitehall,6073249786,http://www.facebook.com/hornellfarmersmarket,Saturday 10am-7pm,May 30-September 26,P/M,Y,N,N,Y,42.32902,-77.66062,"(42.32902, -77.66062)"
Albany,Veggie Mobile-Thurlow Terrace,2 Thurlow Terrace Albany,2 Thurlow Terrace,Albany,NY,12203,Audrey Bridge,5182748685,http://www.capitalroots.org,Wed 12pm-1pm,Year-round,YR,N,Y,Y,Y,42.65998,-73.77276,"(42.65998, -73.77276)"
St. Lawrence,Martin's Farm Stand,11 Needham Rd. Potsdam,11 Needham Rd.,Potsdam,NY,13676,Daniel Martin,3152651246,http://www.martinsfarmstand.com,Mon-Sat  10am-6pm,May 6-November 25,P/M,Y,Y,N,Y,44.67107,-74.90401,"(44.67107, -74.90401)"
Cayuga,Badman's Bushel Basket,14698 Route 90  Cortland,14698 Route 90,Cortland,NY,13045,Scott Badman,6077495233,,"Tue-Sat  9am-6:30pm, Sun 9am-5pm",May 5-October 30,P/M,N,N,N,Y,42.63978,-76.27522,"(42.63978, -76.27522)"
Oswego,Oswego Farmers' Market,West 1st btwn Bridge & W. Oneida St.,West Bridge St and West 1st St,Oswego,NY,13126,Sara Broadwell,3153437681,http://www.facebook.com/oswegofarmmarket,Thu  4:15pm-7:45pm,June 11-October 8,M,N,Y,N,Y,43.45656,-76.51127,"(43.45656, -76.51127)"
Fulton,Broadalbin Farmers' Market,3687 Highway 30 Broadalbin,3687 Highway 30,Broadalbin,NY,,Michael Tillson,5188829306,http://www.fmfma.org,Friday 3pm-6pm,June 26-September 4,M,N,N,N,Y,43.04809,-74.2173,"(43.04809, -74.2173)"
Broome,Russell Farms Farm Stand,2909 Old Vestal Rd Vestal,2909 Old Vestal Rd,Vestal,NY,13850,Allison Russell,6079725793,http://www.russell-farm.com,Daily 8am-6pm,September 1-Nov 30,M,Y,N,N,Y,42.1009,-76.0078,"(42.1009, -76.0078)"
Rensselaer,Capital Roots Produce Market,594 River Street Troy,594 River Street,Troy,NY,12180,Audrey Bridge,5182748685,http://www.capitalroots.org,Mon-Fri  9am-4:30pm,Year-round,YR,N,Y,Y,Y,42.74208,-73.68525,"(42.74208, -73.68525)"
New York,Inwood Greenmarket,"620 Isham St., Isham Park, btwn Seaman Ave. & Cooper St.",Isham St and Seaman St,New York,NY,10034,Siobahn Keys,2127887476,http://www.grownyc.org/greenmarket/manhattan/inwood,Saturday  8am-3pm,Year-round,YR,N,Y,N,Y,40.86988,-73.9209,"(40.86988, -73.9209)"
Kings,Harvest Home Coney Island Farm Stand,Ocean Parkway btwn Ave. Z & Shore Rd.,Ocean Pkwy and Avenue Z,Brooklyn,NY,11235,Maritza Owens,2128283361,http://www.harvesthomefm.org,Fri  8am-4pm,June 3-November 25,M,Y,Y,N,Y,40.58669,-73.96578,"(40.58669, -73.96578)"
Rockland,Nyack WINTER Farmers' Market,Nyack Center 58 Depew Ave. Inside,"56 Depew Ave, NY",Nyack,NY,10960,Pam Moskowitz,8454943408,http://www.nyackchamber.org,Thursday  8am-2pm,January 3-March 28,W,N,Y,N,Y,41.089496,-73.919311,"(41.089496, -73.919311)"
Columbia,New Lebanon WINTER Farmers Market,LVPA Firehouse Routes 20 &22 New Lebanon,route 20 &22 New Lebanon,New Lebanon,NY,12125,Chelsea Vigue,5083173502,https://www.facebook.com/newlebanonfarmersmarket/,every 3rd Sunday 10am-2pm,November 17-May 17,M/X/W/P,N,Y,N,Y,42.46421,-73.39698,"(42.46421, -73.39698)"
Herkimer,Old Forge Farmers' Market,Park Ave behind Old Forge Hardware,Crosby Blvd and Park Ave,Old Forge,NY,13420,Eleanor Hill,5708882217,http://www.cap-21.org,Friday  1pm-5pm,June 19-October 9,M,Y,Y,Y,Y,43.70893,-74.97286,"(43.70893, -74.97286)"
Kings,Bartel-Pritchard Square Sunday Greenmarket,205 Prospect Park at West 15th St. inside park,Prospect Park West and 14th Street,Brooklyn,NY,11215,Siobahn Keys,2127887476,http://www.grownyc.org/greenmarket/brooklyn/bartel-pritchard-square-wed,Sunday  9am-3pm,Year-round,YR,N,Y,N,Y,40.66094,-73.97979,"(40.66094, -73.97979)"
Suffolk,Huntington Farmers' Market,900 Park Ave @ Little Plains Rd Huntington,State Route 110 and Main St,Huntington,NY,11743,Ethel Terry,6313233653,http://www.longislandgrowersmarket.com,Sunday  7am-12pm,June 7-November 21,M,Y,N,N,Y,40.87121,-73.42629,"(40.87121, -73.42629)"
Kings,Isabahlia-Rockaway Ave Farm Stand,514 Rockaway Avenue Brooklyn,514 Rockaway Avenue,Brooklyn,NY,11212,Brenda Thompson-Duchene,7184983174,http://www.isabahlialoefinc.org,Fri/Sat 8am-3pm,June 30-October 31,M,N,Y,N,Y,40.66751,-73.91021,"(40.66751, -73.91021)"
Erie,East Aurora Saturday Farmers' Market,Aurora Village (TOPS) Plaza 123 Grey St.,123 Grey St,East Aurora,NY,14052,Gail Fenton,5853439491,http://www.eastaurorafarmersmarket.com,Saturday  7am-1pm,May 2-November 21,P/M,Y,N,N,Y,42.76593,-78.63413,"(42.76593, -78.63413)"
Monroe,Whittier Fruit Farm Stand,219 Whittier Road  Rochester,219 Whittier Road,Rochester,NY,14624,Judy Russell,5857481898,http://www.whittierfruitfarm.com,Daily 12pm-4pm,July 15-November 6,M,Y,N,N,Y,43.14905,-77.77737,"(43.14905, -77.77737)"
Oneida,Wormont Woolies Farm Stand,8998 Summit Rd.  Cassville,8998 Summit Rd.,Cassville,NY,13318,Katherine Warden,3157251716,,"Su/Mo/We  3pm-5pm, Tuesday 10am-12pm",Year-round,YR,N,N,N,Y,42.95876,-75.29667,"(42.95876, -75.29667)"
Ulster,Kingston YMCA Farm Stand,507 Broadway Kingston,507 Broadway,Kingston,NY,12401,Kaycee Wimbish,8453322927,http://www.kingstonymcafarmproject.org,"Tuesday 10am-12:30pm, Thursday  3:30pm-6pm",June 4-Novenmber 19,M,Y,Y,N,Y,41.92805,-74.0007,"(41.92805, -74.0007)"
Clinton,Plattsburgh Farmers' & Crafters Wed Market,City parking lot  Durkee & Broad St.,Broad St and Durkee St,Plattsburgh,NY,12901,Julie Baughn,5188027164,http://www.facebook.com/pages/Plattsburgh-Farmers-and-Crafters-Market/121588034547095,Wednesday  10am-2pm,May 11-October 31,M,N,Y,N,Y,44.69535,-73.45226,"(44.69535, -73.45226)"
Schuyler,R & E Produce Farm Stand,2321 County Rd. 19 Beaver Dams,2321 County Rd 19,Beaver Dams,NY,14812,Richard Roberts,6072153257,,Daily 9am-5pm,May-October,P/M,N,N,N,Y,42.3443,-76.96252,"(42.3443, -76.96252)"
Nassau,Country Fresh Farmingdale Farmers' Market,Village Green  361 Main St,361 Main St,Farmingdale,NY,11735,Mary Schneider,6316735844,,Sunday  10am-3pm,June 7-November 22,M,Y,N,N,Y,40.73166,-73.44566,"(40.73166, -73.44566)"
Saratoga,Route 50 Green Market,802 Saratoga Rd. Burnt Hills,802 Saratoga Rd.,Burnt Hills,NY,12027,Carol Gumienny,5184902750,,Saturday  9am-1pm,June 1-October 3,M,N,N,N,Y,42.90853,-73.89973,"(42.90853, -73.89973)"
Chenango,Lamb's Quarters Organic Farm Stand,213 Pierce Rd.  Plymouth,213 Pierce Road,Plymouth,NY,13832,Sandy Pierce,6073344928,http://www.lambsquartersinc.com,"Daily  12pm-6pm, Closed  Wed & Sat",Year-round,YR,Y,Y,N,Y,42.60058,-75.59991,"(42.60058, -75.59991)"
Albany,Empire State Plaza Wed Farmers' Market,"Empire State Plaza, (Winter inside South Concourse)",170 State St,Albany,NY,12210,Nicholas DeBlois,5184863966,http://www.ogs.ny.gov,closed for April. Check back for updates. Wednesday  10am-2pm,Year-round,YR,N,Y,N,Y,42.65068,-73.758,"(42.65068, -73.758)"
New York,Columbia Thu Greenmarket,Broadway btwn W 114th &  W 115th Sts.,Broadway and West 115th St,New York,NY,10027,Siobahn Keys,2127887476,http://www.grownyc.org/greenmarket/manhattan/columbia-th,Thursday  8am-5pm,Year-round,YR,N,Y,N,Y,40.80731,-73.9643,"(40.80731, -73.9643)"
Otsego,Oneonta WINTER Farmers' Market,"Main St. Parking Garage Walkway, near Latte Lounge, 196 Main St.",196 Main Street,Oneonta,NY,13820,Betty Lee,6072671807,http://www.oneontafarmersmarket.com,Saturday  9am-12pm,Nov 2-April 25,X/W/P,N,N,N,Y,42.45397,-75.06188,"(42.45397, -75.06188)"
Bronx,New Roots Community Farm Stand,670 Grand Concourse  Bronx,670 Grand Concourse,Bronx,NY,10451,Sheryll Durrant,2123774747,,Tuesday  3pm-7pm,July 7-October 27,M,N,N,N,Y,40.82172,-73.92524,"(40.82172, -73.92524)"
Westchester,TaSH Farmers' Market,Patriots Park Route 9  Sleepy Hollow,Patriots Park Route 9,Sleepy Hollow,NY,10591,Linda Eder,9144717437,http://www.tashfarmersmarket.org,Saturday  8:30am-2pm,May 23-November 21,P/M,Y,Y,N,Y,41.08525,-73.85924,"(41.08525, -73.85924)"
Delaware,Franklin Farmers' Market,Chapel Hall 25 Institute St.,25 Institute St.,Franklin,NY,13775,Brian Brock,5187060612,http://www.facebook.com/Franklin-NY-Farmers-Market-123602750996783/,Sunday  10am-2pm,May 24-October 11,P/M,Y,N,N,Y,42.33901,-75.1672,"(42.33901, -75.1672)"
Orleans,Watt Farms Country Market,3121 Oak Orchard Rd. Albion,3121 Oak Orchard Rd,Albion,NY,14411,Karen Watt,5855898000,http://www.wattfarms.com,Daily  9am-9pm,June 1-December 25,P/M/X,N,N,N,Y,43.265158,-78.192266,"(43.265158, -78.192266)"
Oneida,Oneida County Public Market,"REA Wing  Union Station, 321 Main St. Downtown Utica",321 Main Street,Utica,NY,13501,Elizabeth Irons,3157983639,http://www.oneidacountymarket.com,Saturday  9am-1pm,May 16-December 26,P/M,N,Y,Y,Y,43.10393,-75.2239,"(43.10393, -75.2239)"
Monroe,Webster's Joe Obbie Farmers' Market,Webster Town Center  1028 Ridge Road,1028 Ridge Road,Webster,NY,14580,Jason Bliek,5852611533,http://www.webstersjoeobbiefarmersmarketinc.org,Wednesday 4pm-8pm,July 1-August 26,M,Y,N,N,Y,43.20964,-77.45416,"(43.20964, -77.45416)"
St. Lawrence,Canton Friday Farmers' Market,Village Green Park 17 Park St @ Main St.,Village Green Park  Main St.,Canton,NY,13617,Elizabeth Parson,3156048133,https://www.facebook.com/CantonNYFarmersMarket/,Friday 9am-2pm,May 8-October 30,P/M,N,N,N,Y,33.77796,-117.94104,"(33.77796, -117.94104)"
Rensselaer,Veggie Mobile Sprout-Church of the Redeemer,1249 3rd Street Rensselaer,1249 3rd Street,Rensselaer,NY,12144,Audrey Bridge,5182748685,http://www.capitalroots.org,Thu 3pm-3:45pm,Year-round,YR,N,Y,Y,Y,42.65038,-73.73443,"(42.65038, -73.73443)"
Schenectady,Veggie Mobile-Summit Towers,720 Albany St. Schenectady,720 Albany street,Schenectady,NY,12307,Audrey Bridge,5182748685,http://www.capitalroots.org,Fri 1:30pm-2pm,Year-round,YR,N,Y,Y,Y,42.80923,-73.93822,"(42.80923, -73.93822)"
Dutchess,Amenia WINTER Farmers' Market,Amenia Town Hall 4988 Route 22,4988 New York 22,Amenia,NY,12501,Sophie Purdy Meili,4133297389,http://www.ameniafarmersmarket.com,"Saturday  10am-2pm, 1st & 3rd Saturday  Jan-Apr",November-April,M/X/W/P,N,Y,N,Y,41.851397,-73.554943,"(41.851397, -73.554943)"
Queens,Healthy Neighboorhood Market,145 Rd btwn Arthur St and Springfield Blvd. Queens,145 Rd @ Arthur st,Queens,NY,11413,"Mel Vail, Jr",,http://www.1026.org,Saturday 6am-6pm,May 16-November 21,,N,N,N,Y,40.66394,-73.75991,"(40.66394, -73.75991)"
Essex,Mountain Weavers' Farm Store,4322 Main Street Port Henry,4322 Main Street,Port Henry,NY,12974,Pam Munson,5185463386,http://www.mountainweaversguild.com,Mon-Fri 8am-4pm,Year-Round,YR,N,N,N,Y,44.04849,-73.45958,"(44.04849, -73.45958)"
Monroe,Rochester Public Market -Tuesday,280 N. Union St. off East Main St.,280 North Union St.,Rochester,NY,14609,Cindy De Coste,5854286907,http://www.cityofrochester.gov/publicmarket,Tuesday  6am-1pm,Year-round,YR,Y,Y,N,Y,43.1657,-77.59016,"(43.1657, -77.59016)"
Cortland,Cincinnatus Farmers' Market,"Cortland-Chenango Rural Services, 2704 Lower Cincinnatus Rd.",2704 Lower Cincinnatus Rd,Cincinnatus,NY,13040,Paul Halstead,6078368972,,Saturday  9am-12pm,May 30-October31,P/M,Y,N,N,Y,42.53812,-75.89662,"(42.53812, -75.89662)"
Chautauqua,Roberto Fred Farm Stand,10655 Temple Rd Dunkirk,10655 Temple Rd,Dunkirk,NY,14048,Roberto Fred,7163667200,,Daily  9am-6pm,June 1-November 30,P/M,N,Y,N,Y,42.464201,-79.361694,"(42.464201, -79.361694)"
New York,Harvest Home 125th Street Farm Stand,"Adam Clayton Powell Jr. State Office Bldg , 163 W 125th St. Plaza",163 W 125th St. Plaza,New York,NY,10027,Maritza Owens,2128283361,http://www.harvesthomefm.org,Tuesday  8am-4pm,June 2-November 24,M,Y,Y,N,Y,40.8085,-73.94712,"(40.8085, -73.94712)"
New York,Tucker Square Saturday Greenmarket,125 Columbus Ave btwn W 65th & W 66th Sts.,Columbus and West 66th St,New York,NY,10023,Siobahn Keys,2127887476,http://www.grownyc.org/greenmarket/manhattan/tuckerthursday,Saturday  8am-5pm,Year-round,YR,N,Y,N,Y,40.77361,-73.98158,"(40.77361, -73.98158)"
Hamilton,Speculator Farmers & Crafters Farmers' Market,Speculator Village Pavilion Route 30,State Route 30 and Elliot Ln,Speculator,NY,12164,Donna Benkovich,5185484521,http://www.speculatorchamber.com,Thursday  2pm-5pm,June 25-September 17,M,Y,N,N,Y,43.49679,-74.36073,"(43.49679, -74.36073)"
Madison,Poolville WINTER Farmers' Market,"Poolville Community Center (PCC), 7484 Willey Road",7484 Willey Road,Poolville,NY,13332,Chris Amman,3155273429,http://www.facebook.com/pages/Poolville-Winter-Farmers-Market/313469075439355,"10am-1pm Saturdays, alt Sat Nov-Dec 1pm, First Sat Jan-Apr","Nov 2-April 4, 1st Sat Jan-April",M/X/W/P,N,N,N,Y,42.77299,-75.50557,"(42.77299, -75.50557)"
Dutchess,Beacon Farmers' Market,"Veteran's Place, btwn Henry & Main st.",Veteran's Place,Beacon,NY,12508,Sember Weinman,8452314424,http://www.beaconfarmersmarket.org,Sunday  10am-3pm,May 3-November 16,P/M,N,Y,Y,Y,41.50377,-73.96848,"(41.50377, -73.96848)"
Queens,Socrates Sculpture Park Farm Stand,32-01 Vernon Blvd.  Long Island City,32-01 Vernon Blvd.,Long Island City,NY,11106,Robert McGrath,9178320992,http://socratessculpturepark.org,Saturday  10am-2pm,May 2-October 31,P/M,Y,Y,N,Y,40.7676,-73.93617,"(40.7676, -73.93617)"
Erie,Westside Tilth Market Farm Stand,246 Normal Ave. Buffalo,246 Normal Ave.,Buffalo,NY,14213,Carrie Nader,7163616591,http://www.westsidetilth.com,Sat 10am-2pm,July 4-October 31,M,Y,N,N,Y,42.90687,-78.88899,"(42.90687, -78.88899)"
Suffolk,Islip Farmers' Market,"Town Hall Pkg lot , 655 Montauk Hwy,Rt 27A",655 Main Street,Islip,NY,11751,Ethel Terry,6313233653,http://www.longislandgrowersmarket.com,Saturday 7am-12pm,June 6-November 28,M,Y,N,N,Y,40.72975,-73.21077,"(40.72975, -73.21077)"
Onondaga,Fayetteville Farmers' Market,Fayetteville Town Ctr 504 Burdick St.,504 Burdick Street,Fayetteville,NY,13066,Lacey Cashman,3013351434,http://www.fayettevillefarmersmarketcny.com,Thur 12pm-6pm,May 7-October 22,P/M,Y,N,N,Y,43.02764,-76.01608,"(43.02764, -76.01608)"
Montgomery,Haven of Hope Farm Stand,19 Cemetery St. Fonda,19 Cemetery Street,Fonda,NY,12068,Pat Brooking,5185223342,http://www.havenofhopefarm.org,"Fri/Sat 9am-4pm, Sunday 12pm-2pm",April 3-December 23,P/M/X,Y,Y,N,Y,42.95627,-74.36841,"(42.95627, -74.36841)"
Suffolk,Flanders Farm Fresh Food Market,"Crohan Community Senior Center, 655 Flanders Road (Rt 24)",655 Flanders Rd,Flanders,NY,11901,Nancy Lynott,6317022417,http://www.southamptontownny.gov,Saturday  10am-1pm,July 4-October 17,M,Y,Y,N,Y,40.90952,-72.63662,"(40.90952, -72.63662)"
Orleans,Navarras Farm Market and Greenhouses,3272 Eagle Harbor Road,3272 Eagle Harbor Road,Albion,NY,14411,Amanda Mrzyuka,5855894674,,"Mon-Sat 9am-8pm, Sunday 9am-5pm",Year-Round,YR,N,N,N,Y,43.18941,-78.25422,"(43.18941, -78.25422)"
Erie,Chiavetta's Potatoes & Greenhouse Farm Stand,9784 South Main St. Angola,9784 South Main St,Angola,NY,14006,Michael Chiavetta,7165490458,,"Sat/Sun 9am-5pm, Mon-Fri 9am-6pm",August 1-October 31,M,Y,Y,N,Y,42.61859,-79.01784,"(42.61859, -79.01784)"
Orange,Middletown Farmers' Market,Erie Way btwn Montgomery & Cottage Sts.,32-48 Cottage Street,Middletown,NY,10940,Anne Kelly,8453438075,http://www.middletownbid.org,Saturday  8am-1pm,June 6-October 24,M,Y,N,N,Y,41.44814,-74.41459,"(41.44814, -74.41459)"
Montgomery,Clancy Farms Farm Stand,265 Heiser Road Fort Plain,265 Heiser Road,Fort Plain,NY,13339,David Clancy,5189934806,http://www.facebook.com/clancyfarm,"Mo/Tu/We  10am-6pm, Saturday  1pm-6pm",June 22-October 31,M,Y,N,N,Y,42.91494,-74.62885,"(42.91494, -74.62885)"
Albany,Veggie Mobile-Steamboat Square Apts,20 Rensselaer St. Albany,20 Rensselaer Street,Albany,NY,12202,Audrey Bridge,5182748685,http://www.capitalroots.org,Wed 11am-11:45am,Year-round,YR,N,Y,Y,Y,42.64093,-73.75363,"(42.64093, -73.75363)"
Niagara,Niagara Falls City Wednesday Market,19th St. & Pine Ave.,1800-1808 Pine Ave,Niagara Falls,NY,14301,Victor Muto,7167540798,http://www.local-farmers-markets.com/market/3569/niagara-falls/niagara-falls-city-market,Wednesday  9am-3pm,Year-round,YR,Y,N,N,Y,43.09513,-79.03972,"(43.09513, -79.03972)"
Greene,Black Horse Farms Farm Stand,10094 Rt. 9W Athens,10094 Rte 9W,Athens,NY,12015,Chellie Apa,5187318776,http://www.blackhorsefarms.com,Daily  8am-6pm,March 20-December 24,W/P/M/X,Y,Y,N,Y,42.30634,-73.85043,"(42.30634, -73.85043)"
Westchester,Peekskill WINTER Farmers' Market,828 Main St Peekskill Parking lot,828 Main St,Peekskill,NY,10566,Corinna Makris,9144184920,http://www.peekskillfarmersmarket.com,Saturday  10am-2pm,December 7-April 24,X/W/P,N,N,N,Y,41.29141,-73.9231,"(41.29141, -73.9231)"
Westchester,White Plains (International) Wed Farmers' Market,125 Court St.  btwn Martine Ave. & Main St.,125 Court St,White Plains,NY,10601,Annemarie Guadagruo,8456412768,http://www.whiteplainsfarmersmarket.com,Wednesday  8am-4pm,April 24-November 25,P/M,N,N,N,Y,41.02944,-73.76659,"(41.02944, -73.76659)"
New York,Hamilton Heights Green Youth Market,"Johnny Hartman Plaza (North Corner), Amsterdam Ave btwn 143rd & 144th sts.",143rd Street and Amsterdam Ave,Manhattan,NY,10031,Wendy Flores,2122837044,http://brotherhood-sistersol.org/programs/environmental-program,Wed  11am-6pm,June 20-November 25,M,Y,Y,N,Y,40.82396,-73.94855,"(40.82396, -73.94855)"
Clinton,Plattsburgh Farmers' and Craft Sat Market,City parking lot  Durkee & Broad St.,Broad St and Durkee St,Plattsburgh,NY,12901,Julie Baughn,5188027164,http://www.facebook.com/pages/Plattsburgh-Farmers-and-Crafters-Market/121588034547095,Saturday  9am-2pm,May 11-October 31,P/M,N,Y,N,Y,44.69535,-73.45226,"(44.69535, -73.45226)"
Jefferson,Alexandria Bay Farmers' Market,Kinney Drugs Route 12,21 Route 12,Alexandria Bay,NY,13607,Keri Jobson,3154829531,http://www.visitalexbay.org,Friday  9am-3pm,May 25-September 14,P/M,N,N,N,Y,44.33191,-75.91425,"(44.33191, -75.91425)"
Bronx,Harvest Home Mt. Eden Farmers' Market,Claremont Park Mt. Eden & Morris Aves.,Mt Eden Pkwy and Morris Ave,Bronx,NY,10457,Maritza Owens,2128283361,http://www.harvesthomefm.org,Tue/Thu  8am-4pm,June 2-November 24,M,Y,Y,N,Y,40.84305,-73.90947,"(40.84305, -73.90947)"
Washington,Cambridge Valley Farmers' Market,"4 Broad Street, Green Space across from the Co-op",4 Broad Street,Cambridge,NY,12816,Lindsay Fisk,5185389467,http://www.cambridgevalleyfarmersmarket.com,Sunday  10am-2pm,May 24-October 25,P/M,Y,N,N,Y,43.02833,-73.38093,"(43.02833, -73.38093)"
Jefferson,Bushgardens Farm Stand,10371 NYS Route 26 Carthage,10371 NYS Route 26,Carthage,NY,13619,Chris Bush,3157836745,,"Daily  6am-6pm, Except Wed 3pm-6pm",May 15-November 1,M,Y,N,N,Y,43.91954,-75.58686,"(43.91954, -75.58686)"
Schoharie,Schoharie Co. Festival Wed Farmers' Market,"McCarthy Tire Center parking lot, 942 E. Main Rt. 7E Cobleskill",942 East Main St,Cobleskill,NY,12043,Donna Olsen,5182842609,http://www.facebook.com/festivalfarmersmarket/,Wednesday  3pm-5pm,July 11-October 10,M,N,Y,N,Y,42.68006,-74.46674,"(42.68006, -74.46674)"
New York,Union Square Wednesday Greenmarket,"31 Union Square W, NW side of Park",Broadway and East 17th St,New York,NY,10003,Siobahn Keys,2127887476,https://www.grownyc.org/greenmarket,Wednesday  8am-4pm,Year-round,YR,N,Y,N,Y,40.7371,-73.99032,"(40.7371, -73.99032)"
Monroe,Brighton Farmers' Market,"Brighton High School lot, 1150 Winton Rd. South",1150 Winton Rd South,Rochester,NY,14618,Sue Gardner-Smith,5852698918,http://www.brightonfarmersmarket.org,Sunday  9am-1pm,May 10-November 22,P/M,N,Y,Y,Y,43.12204,-77.56808,"(43.12204, -77.56808)"
Erie,East Aurora Wednesday Farmers' Market,Aurora Village (TOPS) Plaza 123 Grey St.,123 Grey St,East Aurora,NY,14052,Gail Fenton,5853439491,http://www.facebook.com/EastAuroraFarmersMarket,Wednesday  7am-1pm,May 6-November 25,P/M,Y,N,N,Y,42.76593,-78.63413,"(42.76593, -78.63413)"
Rensselaer,Kristy's Barn Farm Stand,2385 Brookview Rd. Castleton,2385 Brookview Road,Castleton,NY,12033,Kenneth Johnson,5184776250,http://www.kristysbarn.com,Mon-Fri  9am-7pm                     Sat/Sun 10am-5pm,May 1-November 30,P/M,Y,N,N,Y,42.56495,-73.70495,"(42.56495, -73.70495)"
Erie,Clinton Bailey Fri Farmers' Market,1443-1517 Clinton St. Buffalo,Bailey Ave and Clinton St,Buffalo,NY,14206,Sharon Baldi,7162080003,http://www.clintonbaileymarket.com,Friday 7am-6pm,May 2-October 31,P/M,N,Y,N,Y,42.87206,-78.81997,"(42.87206, -78.81997)"
Saratoga,Saratoga Farmers' Market-Wednesday,"High Rock Park, 112 High Rock Avenue",High Rock Ave and York Street,Saratoga Springs,NY,12866,Emily Meagher,5187083698,http://www.saratogafarmersmarket.org,Wednesday 3pm-6pm,May 6-October 28,P/M,Y,Y,Y,Y,43.08552,-73.78121,"(43.08552, -73.78121)"
Lewis,Lyons Falls Farmers' Market,Riverside Park 6904 Laura St.,6904 Laura St,Lyons Falls,NY,13368,Amanda Jones,6802225707,http://www.lyonsfallsalive.org,Tuesday  12pm-5pm,June 23October 13,M,N,N,N,Y,43.61458,-75.3562,"(43.61458, -75.3562)"
Fulton,Gloversville Farmers' Market,Elm Street Pavilion,9 Elm Street,Gloversville,NY,12078,Michael Tillson,5188829306,http://www.fmfma.org,Sat  8:30am-12:30pm,May 2-October 17,P/M,N,Y,N,Y,43.052604,-74.345796,"(43.052604, -74.345796)"
Broome,CHOW MM-Johnson City Senior Center,30 Brocton St. Johnson City,30 Brocton St.,Johnson City,NY,13790,Jack Seman,6077249130,http://www.broomecouncil.net,Thursday 10:30am-11:45am,Year-round,YR,N,Y,N,Y,42.11849,-75.95493,"(42.11849, -75.95493)"
Chautauqua,Lakewood Farmers' Market,Chautauqua Ave at E. Summit St,Chautauqua Ave and East Summit St,Lakewood,NY,14750,Mary Currie,7167638557,http://www.facebook.com/lakewoodnyfarmersmarket/,Thursday  10am-2pm,June 18-September 3,M,Y,N,N,Y,42.10338,-79.32624,"(42.10338, -79.32624)"
Orange,Healthy Orange Farmers' Market,"130 Broadway (lawn next to DMV bldg), btwn Johnston & Landers St. Newburgh",131 Broadway,Newburgh,NY,12550,Meg Oakes,8453606691,http://www.healthyorange.com/,Tuesday  10am-2pm,July 7-October 13,M,N,Y,N,Y,41.50009,-74.01254,"(41.50009, -74.01254)"
Albany,Delmar Tuesday Farmers' Market,"First United Methodist Church Lot, 428 Kenwood Ave.",428 Kenwood Ave,Delmar,NY,12054,Richard Rugen,5188634711,http://www.facebook.com/TuesdayDelmarFarmersMarket/,Tuesday  2:30pm-6pm,May 5-November 24,P/M,N,N,N,Y,42.62298,-73.83623,"(42.62298, -73.83623)"
Onondaga,Syracuse Farm Fresh Mobile Market,"Contact market for locations & times, 315-345-0600",500 West Newell Street,Syracuse,NY,13205,Diane Turner,3153450600,https://ssinterfaithcdc.org/projects/farm-fresh-mobile-market/,"Contact market for locations & times, 315-345-0600",Year-round,YR,N,Y,N,Y,43.016878,-76.153714,"(43.016878, -76.153714)"
Tioga,Candor Farmers Market,Town Hall 101 Owego Rd.,101 Owego Rd,Candor,NY,13743,Joellen Riggs,6077684072,http://www.candorfarmersmarket.org/,Thu 3:30pm-6:30pm,June 25-September 3,M,Y,Y,N,Y,42.23249,-76.33317,"(42.23249, -76.33317)"
Cortland,Dave's Veggies Farm Market,5178 NYS Route 41 Homer,5178 NY-41,Homer,NY,13077,David Root,6077494955,http://www.facebook.com/daves.veggies,Daily  12pm-6pm,May 10-October 31,P/M,Y,Y,N,Y,42.659118,-76.203042,"(42.659118, -76.203042)"
Queens,Jackson Heights Greenmarket,79th St. btw 34th Ave. & Northern Blvd.,78-99 34th Ave,Jackson heights,NY,11372,Siobahn Keys,2127887476,http://www.grownyc.org/greenmarket/queens/jackson-heights,Sunday  8am-2pm,Year-round,YR,N,Y,N,Y,40.7535,-73.88791,"(40.7535, -73.88791)"
Sullivan,Liberty Farmers' Market,119 N Main Street   Creekside Park,119 N Main St,Liberty,NY,12754,Beth Sullivan,8454391230,http://www.catskillmountainkeeper.org,Friday 3pm-6pm,June 19-September 11,M,Y,Y,N,Y,41.80129,-74.74684,"(41.80129, -74.74684)"
Niagara,North Tonawanda City Tue Farmers' Market,Robinson Rd. & Payne Ave.,310 Robinson Road,North Tonawanda,NY,14120,Matt Parrish,7166958555,http://www.northtonawanda.org/Departments/City%20Market.htm,Tuesday  7am-1pm,Year-round,YR,N,Y,N,Y,43.03377,-78.87021,"(43.03377, -78.87021)"
Oswego,Guppy's Berry Farm Farm Stand,512 County Route 26  West Monroe,512 County Route 26,West Monroe,NY,13617,Elaine Guppy,3156257920,http://www.guppysberryfarmllc.com,"Wed-Fri  9am-2pm, Saturday  9am-4pm, Sunday  9am-2pm",July 13-September 30,M,N,N,N,Y,43.35052,-76.03094,"(43.35052, -76.03094)"
Cattaraugus,Canticle Farm Market,3809 Old State Road Allegany,3809 Old State Road,Allegany,NY,14706,Mark Printz,7163789714,http://www.canticlefarm.org,"Tue/Fri  12pm-6pm, Dec-June: Tuesday only",June 16-November 24,M,Y,Y,N,Y,42.09601,-78.50618,"(42.09601, -78.50618)"
Chautauqua,Westfield Farmers' Market,Moore Park Rt 20 and Rt 394 Westfield,Rt 20 and Rt 394,Westfield,NY,14787,Nancy Scriven,7162699726,http://www.westfieldny.com/farmers-market,Saturday  9am-2pm,May 30-September 26,P/M,Y,N,N,Y,42.32203,-79.57812,"(42.32203, -79.57812)"
Madison,Village of Hamilton Farmers' Market,Village Green 3 Broad St.,Broad St and Payne St,Hamilton,NY,13346,Kim Taranto,3158241111,http://www.hamilton-ny.gov,Saturday  8am-1pm,May 9-October 31,P/M,Y,N,N,Y,42.82684,-75.54436,"(42.82684, -75.54436)"
Kings,Harvest Home Kings Co. Hospital Farmers' Market,Clarkson Ave btwn E 37th & E 38th Sts.,511 Clarkson Ave,Brooklyn,NY,11203,Maritza Owens,2128283361,http://www.harvesthomefm.org,Wednesday  8am-4pm,June 10-November 25,M,Y,Y,N,Y,40.65588,-73.94245,"(40.65588, -73.94245)"
Kings,Harvest Home Clinton Hill Farmers' Market,Lafayette & Washington Aves. Brooklyn,267 Lafayette St,Brooklyn,NY,11238,Maritza Owens,2128283361,http://www.harvesthomefm.org,Tuesday  8am-4pm,June 2-November 24,M,Y,Y,N,Y,40.6882,-73.96615,"(40.6882, -73.96615)"
Rensselaer,Veggie Mobile Sprout-Lansingburgh Apts,41 114th Street Troy,41 114th Street,Troy,NY,12182,Audrey Bridge,5182748685,http://www.capitalroots.org,Wed 2:30pm-3:15pm,Year-round,YR,N,Y,Y,Y,42.77223,-73.67258,"(42.77223, -73.67258)"
Wyoming,Warsaw Farmers' Market,"Full Gospel Church parking lot, 2444 N.Main St.",2444 N. Main St.,Warsaw,NY,14569,Patricia Reiter,5855911358,,Thursday  11am-3pm,July 11-September 26,M,N,N,N,Y,42.74796,-78.13257,"(42.74796, -78.13257)"
Albany,Veggie Mobile Sprout-St. Sophia/Holy Wisdom,426 Whitehall Road Albany,440 Whitehall Road,Albany,NY,12208,Audrey Bridge,5182748685,http://www.capitalroots.org,Wed 12:15pm-1pm,Year-round,YR,N,Y,Y,Y,42.65244,-73.81416,"(42.65244, -73.81416)"
Schenectady,Veggie Mobile-Ten Eyck Apts,375 Broadway Schenectady,375 Broadway,Schenectady,NY,12305,Audrey Bridge,5182748685,http://www.capitalroots.org,Fri 3:15pm-4pm,Year-round,YR,N,Y,Y,Y,42.80919,-73.94511,"(42.80919, -73.94511)"
Erie,Common Roots Urban Farm Stand,309 Peckham St Buffalo,309 Peckham St,Buffalo,NY,14206,Terra Dumas,7162929109,http://www.commonrootsurbanfarm.com,Saturday 11am-3pm,June 6-October 3,M,N,Y,N,Y,42.88783,-78.84284,"(42.88783, -78.84284)"
Rensselaer,Troy Waterfront Farmers' Market,Russell Sage College parking lot at First and Division sts,282 River St,Troy,NY,12180,Stephen Ridler,5187084216,http://www.troymarket.org,Saturday  8:30am-4pm,May 16-October 26,P/M,Y,Y,Y,Y,42.73214,-73.6905,"(42.73214, -73.6905)"
Saratoga,The Farmer's Wagon Farm Stand,534 Moe Rd @ corner of Grooms Rd  Clifton Park,Grooms Road & Moe Road,Clifton Park,NY,12065,Kevin Bowman,5183712042,,Daily 9am-5pm,May 1-October 31,P/M,Y,N,N,Y,42.84034,-73.79385,"(42.84034, -73.79385)"
Bronx,Harvest Home Jacobi  Hospital Tues Farmers' Market,1400 Pelham Parkway,1400 Pelham Pkwy,Bronx,NY,10461,Maritza Owens,2128283361,http://www.harvesthomefm.org,Tuesday  8am-4pm,May 19-November 24,P/M,Y,Y,N,Y,40.85431,-73.8467,"(40.85431, -73.8467)"
Rensselaer,Veggie Mobile Sprout-O'Neil Apts,2121 6th Ave. Troy,2121 6th Ave.,Troy,NY,12180,Audrey Bridge,5182748685,http://www.capitalroots.org,Wed 3:30pm-4:15pm,Year-round,YR,N,Y,Y,Y,42.73436,-73.68587,"(42.73436, -73.68587)"
Hamilton,Indian Lake Community Farmers' Market,Indian Lake Central School  6345 NY Route 30,Route 28 and Route 30,Indian Lake,NY,12842,Brenda Valentine,5186485636,http://www.facebook.com/IndianLakeFarmersMarket/,Saturday  10am-2pm,July 4-September 26,M,Y,N,N,Y,43.78247,-74.26541,"(43.78247, -74.26541)"
Albany,Veggie Mobile-Koinonia Primary Care,533 Clinton Ave. & N. Lake Ave. Albany,533 Clinton Avenue,Albany,NY,12206,Audrey Bridge,5182748685,http://www.capitalroots.org,Tue 2pm-2:45pm,Year-round,YR,N,Y,Y,Y,42.66508,-73.76804,"(42.66508, -73.76804)"
Chenango,Norwich WINTER Farmers' Market,75 N Broad St.,20 Conkey Avenue,Norwich,NY,13815,Drew Piaschyk,6073344928,https://www.facebook.com/NorwichNYFarmersMarket,Wednesday  10am-2pm,December 2-April 28 2021,X/W/P,N,Y,N,Y,42.5272,-75.52482,"(42.5272, -75.52482)"
Kings,Urban Oasis Farmers' Market,"Kingsboro Psychiatric Center, 681 Clarkson Ave. btwn Troy Ave & 43rd St.",681 Clarkson Ave,Brooklyn,NY,11203,Michelle Almonte,7182217132,,Wed  2pm-5:30pm,June 26-November 4,M,Y,N,N,Y,40.65621,-73.93741,"(40.65621, -73.93741)"
St. Lawrence,Hammond Farmers' and Artisans Market,"Hammond Museum , 1A North Main St. Route 37",1A North Main Street,Hammond,NY,13646,Lori Thistle,3153245032,http://www.facebook.com/thehammondfarmersmarket,Wednesday  3pm-6pm,June 19-September 18,M,Y,Y,N,Y,44.45118,-75.69312,"(44.45118, -75.69312)"
Otsego,Cooperstown Tuesday Farmers' Market,101 Main Street in Pioneer Alley near Keybank,101 Main Street,Cooperstown,NY,13326,Ellen Pope,6075478881,http://www.cooperstownfarmersmarket.org,Tuesday 3pm-7pm,June-September,M,Y,Y,N,Y,42.70063,-74.92524,"(42.70063, -74.92524)"
Franklin,Akwesasne Farmers' Market,"30 Margaret Terrance Memorial Way, Akwesasne",30 Margaret Terrance Memorial Way,Akwesasne,NY,13655,Kim McElwain,5183583141,,Thursday 11am-2pm                   Saturday 10am-2pm,June 25-October 3,M,N,N,N,Y,44.9867,-74.6755,"(44.9867, -74.6755)"
Broome,Broome Co Regional Sun Farmers' Market,840 Upper Front St. Binghamton,840 Upper Front St.,Binghamton,NY,13905,Amy Willis,6077728953,http://www.broomecountyregionalmarket.com,Sunday 10am-1pm,May 2-September 29,M,N,Y,N,Y,42.12921,-75.90609,"(42.12921, -75.90609)"
New York,Tucker Square Thursday Greenmarket,125 Columbus Ave btwn W 65th & W 66th Sts.,Columbus and West 66th St,New York,NY,10023,Siobahn Keys,2127887476,http://www.grownyc.org/greenmarket,Thursday  8am-5pm,Year-round,YR,N,Y,N,Y,40.77362,-73.98156,"(40.77362, -73.98156)"
Nassau,Seaford Farmers' Market,"Seaford Railroad Station 3rd Parking lot, Sunrise Highway & Washington St.",Sunrise Highway and Washington St.,Seaford,NY,11783,Ethel Terry,6313233653,http://www.longislandgrowersmarket.com,Saturday  7am-12pm,June 6-November 21,M,Y,N,N,Y,40.67572,-73.48657,"(40.67572, -73.48657)"
Delaware,Catskill Cattle Farm Stand,"96 Laurel Bank Ave, Deposit",96 Laurel Bank Ave,Deposit,NY,13754,Lonny Schaefer,6074675762,http://www.catskillcattle.com,"Mon-Sat  9am-6pm, Sunday 12pm-4pm, Winter:  hours change",Year-round,YR,N,N,N,Y,42.06673,-75.40725,"(42.06673, -75.40725)"
Saratoga,My Other Garden Farm Stand,2192 Cook Road Ballston Lake,2192 Cook Road,Ballston Lake,NY,12019,Maria Matthews,5188825416,https://www.facebook.com/My-Other-Garden-115864378623340/,"Su/Mo/We/Th/Fr/Sa 10am-6pm, closed Tuesday",June-November,M,Y,N,N,Y,42.97542,-73.99127,"(42.97542, -73.99127)"
Columbia,Martin's Farm Fresh Farm Stand,820 State Route 66 Hudson,820 State Route 66,Hudson,NY,12534,Daniel Martin,3152651246,,Mon-Sat  9am-5pm,June 6-November 25,M,N,N,N,Y,42.27318,-73.72226,"(42.27318, -73.72226)"
Madison,Dizzy Lizzie's Farm Farm Stand,3823 Sanderson Rd Erieville,3823 Sanderson Rd,Erieville,NY,13061,Elizabeth Blackburn,3156627565,http://www.dizzylizziesfarm.com,Tuesday 8:30am-11:30am,July-September,M,Y,N,N,Y,42.83934,-75.74399,"(42.83934, -75.74399)"
Monroe,The Mall at Greece Ridge Sat Farmers' Market,271 Greece Ridge Center Drive  Rochester,271 Greece Ridge Center Drive,Rochester,NY,14626,Melanie Fazio,5852251140,http://www.themallatgreeceridge.com,Saturday  8am-3pm,June 6-October 31,M,Y,N,N,Y,43.20677,-77.69406,"(43.20677, -77.69406)"
Dutchess,Pawling Farmers' Market,Pawling Village Green Charles Colman Blvd.,154 Charles Colman Blvd.,Pawling,NY,12564,Betsy Montgomery,9179418762,http://www.pawlingfarmersmarket.org,Saturday  9am-1pm,June 13-September 27,M,N,N,N,Y,41.56315,-73.60143,"(41.56315, -73.60143)"
Schenectady,Veggie Mobile-Father Leo Obrien,3151 Marra Lane Schenectady,3151 Marra Lane,Schenectady,NY,12303,Audrey Bridge,5182748685,http://www.capitalroots.org,Mon 1pm-1:45pm,Year-round,YR,N,Y,Y,Y,42.76062,-73.94004,"(42.76062, -73.94004)"
Otsego,Morris Farmers' Market,"Guy Rathbon Park 117 Main St., behind Firehouse",Main St and Church St,Morris,NY,13808,Paul Tourtellotte,6072635423,,Thursday  3pm-6pm,May 28-October 15,P/M,Y,N,N,Y,42.54813,-75.24686,"(42.54813, -75.24686)"
Broome,CHOW MM-Lee Barta Center,108 Liberty St. Binghamton,108 Liberty St,Binghamton,NY,13901,Jack Seman,6077249130,http://www.broomecouncil.net,Thursday 1pm-3pm,Year-round,YR,N,Y,N,Y,42.10911,-75.89979,"(42.10911, -75.89979)"
Orleans,Gardner's Gardens Farm Stand,14350 Northwood Dr. Albion,14350 Northwood Dr.,Albion,NY,14411,Shauna Gardner,5855902437,http://www.facebook.com/gardnersheirloom/,Monday 3pm-4:30pm,June 1-October 26,M,N,N,N,Y,43.25845,-78.19669,"(43.25845, -78.19669)"
Allegany,Belmont Farmers' Market,5429 NYS Route 19N,5429 NYS Route 19 N,Belmont,NY,14813,Debra Wagoner,5856108836,,Thursday  11am-5pm,June 4-October 8,P/M,N,Y,N,Y,42.2356,-78.05212,"(42.2356, -78.05212)"
New York,Tribeca Greenmarket Saturday,315 Greenwich St. at Chambers St,Greenwich St and Chambers St,New York,NY,10023,Siobahn Keys,2127887476,http://www.grownyc.org/greenmarket/manhattan/tribeca-sa,Saturday  8am-3pm,Year-round,YR,N,Y,N,Y,40.7163,-74.01097,"(40.7163, -74.01097)"
Herkimer,Little Falls Farmers' & Flea Market,M&T Bank parking lot  Albany St.,Albany Street and 2nd Street,Little Falls,NY,13365,Mary Davis,3158662619,,Saturday  8am-12pm,May 23-October 31,P/M,Y,N,N,Y,43.04284,-74.85828,"(43.04284, -74.85828)"
Saratoga,Gansevoort Farmers' Market,Gansevoort Village Park Catherine St.,Main St. at Catherine St.,Gansevoort,NY,12831,Linda Gifford,5187920198,,Tuesday  3pm-6pm,June 16-October 27,M,Y,N,N,Y,43.19612,-73.65167,"(43.19612, -73.65167)"
Steuben,Bath Saturday Farmers' Market,Pulteney Park Steuben St.,Steuben St and Liberty St,Bath,NY,14810,Phillip Glosick,6077763577,,Saturday  9am-2pm,May 4-October 26,P/M,Y,N,N,Y,42.33353,-77.31842,"(42.33353, -77.31842)"
Kings,Bartel-Pritchard Square Wed Greenmarket,205 Prospect Park at West 15th St. inside park,Prospect Park West and 14th Street,Brooklyn,NY,11215,Siobahn Keys,2127887476,http://www.grownyc.org/greenmarket,Wednesday 8am-3pm,Year-round,YR,N,Y,N,Y,40.6616,-73.97939,"(40.6616, -73.97939)"
Cayuga,Moravia Farmers' Market,Kinney Drug Store pkg lot 130 Main St.,130 Main St,Moravia,NY,13118,Barbara Flynn,3154962235,,Thursday  10am-5pm,June 4-October 29,M,Y,N,N,Y,42.71209,-76.42079,"(42.71209, -76.42079)"
Erie,Springville Farmers' Market,Gentner Auction 341 W. Main St. (Rt. 39),341 West Main St,Springville,NY,14141,Donna Goldhawk,7165600198,http://www.facebook.com/GENTNERSCOMMISSIONMARKET/,Wednesday  7am-3pm,Year-round,YR,N,N,N,Y,42.50906,-78.67989,"(42.50906, -78.67989)"
Suffolk,Red Fox Farm Farm Stand,1725 Brentwood Rd,1725 Brentwood Rd,Brentwood,NY,11717,Ernest Herrington,6312770159,http://www.redfoxfarmfarm,Thu/Sat 9am-5pm,May 30-October 31,M,Y,N,N,Y,40.77235,-73.24614,"(40.77235, -73.24614)"
Kings,TFFJ Fresh Farm Market-Brooklyn,85 Watkins St Brooklyn,85 Watkins St,Brooklyn,NY,11212,Katherine Soll,9292411029,http://www.teensforjustice.org,Tuesday 2:30pm-5pm,Year-Round,YR,N,Y,N,Y,40.67083,-73.90815,"(40.67083, -73.90815)"
Essex,Drinkwine Produce Farm Stand,Route 9N & 22 Street Road Ticonderoga,Route 9N and 22 Street Road,Ticonderoga,NY,12883,Henry Drinkwine,5185856346,,"Mon-Sat  10am-6pm, Sun 10am-6pm",July 18-October 30,M,Y,N,N,Y,43.88032,-73.44955,"(43.88032, -73.44955)"
Tompkins,Trumansburg Farmers' Market,1 Corey St Trumansburg,1 Corey St,Trumansburg,NY,14886,Victoria Badalmenti,6073876501,http://www.tburgfarmersmarket.com,Wednesday  4pm-7pm,May 6-October 28,P/M,N,N,N,Y,42.54205,-76.66668,"(42.54205, -76.66668)"
Allegany,Alfred Farmers' Market,3 South Main St.,3 South Main Street,Alfred,NY,14802,Mary Gardner-Ruch,6075879244,http://www.alfredfarmersmarket.com,Sunday  11am-3pm,June 14-October 24,M,Y,Y,N,Y,42.25359,-77.79036,"(42.25359, -77.79036)"
Albany,Veggie Mobile-Howe Library,Schuyler & Broad St. Albany,Schuyler St and Broad Street,Albany,NY,12202,Audrey Bridge,5182748685,http://www.capitalroots.org,Tue 3pm-3:45pm,Year-round,YR,N,Y,Y,Y,42.64112,-73.75802,"(42.64112, -73.75802)"
Chenango,Oxford WINTER Farmers' Market,"St. Paul's Parish House Comm Ctr, 34 Main St. Oxford",34 Main St.,Oxford,NY,13830,Mina Takahashi,6072266843,https://www.facebook.com/OxfordNYFarmersMarket,1st Saturday  10am-1pm,November-April,M/X/W/P,N,N,N,Y,42.440234,-75.594121,"(42.440234, -75.594121)"
Onondaga,Skaneateles Farmers' Market-Thursday,1 East Austin St. Austin Park Pavilion,One E. Austin St,Skaneateles,NY,13152,Sue Murphy,3157279320,http://www.townofskaneateles.com,Thurs 3:30pm-6:30pm,May 21-October 15,P/M,Y,N,N,Y,42.95089,-76.4309,"(42.95089, -76.4309)"
Erie,Clinton Bailey Tues Farmers' Market,1443-1517 Clinton St. Buffalo,Bailey Ave and Clinton St,Buffalo,NY,14206,Sharon Baldi,7162080003,http://www.clintonbaileymarket.com,Tuesday 4am-6pm,May 2-October 31,P/M,N,Y,N,Y,42.87206,-78.81997,"(42.87206, -78.81997)"
Cayuga,Auburn Tue Farmers' Co-op Market,96 State Street  Curley's Restaurant Pkg Lot,96 State Street,Auburn,NY,13021,Mark Soper,3157048609,http://www.auburnfarmerscoopmarketinc.com,Tue 7am-2pm,June 2-October 27,M,Y,Y,N,Y,42.93401,-76.57007,"(42.93401, -76.57007)"
Seneca,Seneca Falls Farmers' Market,People's Park  15 Water St.,Water St and Bridge St,Seneca Falls,NY,13148,Gregg Zellers,3153384359,http://www.senecamarket.com,Tuesday  3pm-7pm,June 16-October 13,M,N,Y,N,Y,42.91008,-76.80086,"(42.91008, -76.80086)"
Nassau,Kennedy Plaza Long Beach Farmers' Market,1 West Chester St. Long Beach,1 West Chester St,Long Beach,NY,11561,Bernadette Martin,5166705311,http://www.ligreenmarket.org,"Wednesday 9am-2pm, Saturday 9am-2pm",May 25-November 23,P/M,N,N,N,Y,40.58943,-73.66592,"(40.58943, -73.66592)"
New York,Columbia Sun Greenmarket,2910 Broadway btwn W 114th &  W 115th Sts.,Broadway and West 115th St,New York,NY,10027,Siobahn Keys,2127887476,http://www.grownyc.org/greenmarket,Sunday  8am-3pm,Year-round,YR,N,Y,N,Y,40.8073,-73.9643,"(40.8073, -73.9643)"
Westchester,Fable: From Farm to Table Farm Stand,1311 Kitchawan Rd.  Ossining,1311 Kitchawan Road,Ossining,NY,10562,Tom Deacon,9148620205,http://www.fablefoods.com,Sat/Sun  10am-3pm,Year-Round,YR,N,N,N,Y,41.21059,-73.81496,"(41.21059, -73.81496)"
Monroe,Village of Fairport Farmers' Market,"58 S. Main St. parking lot, behind Bank of America",58 South Main St,Fairport,NY,14450,Fritz May,5852236795,http://www.fairportny.com,Saturday  7am-12pm,May 2-November 21,P/M,Y,N,N,Y,43.09992,-77.44214,"(43.09992, -77.44214)"
Oneida,City of Utica Farmers' Market,Chancellor Park Elizabeth St.,Bleeker St and 1st St,Utica,NY,13501,Thalia Hunter,3157920114,,Wednesday  8am-5pm,June 24-October 28,M,Y,Y,N,Y,43.10043,-75.22483,"(43.10043, -75.22483)"
St. Lawrence,Potsdam Farmers' Market,Main St. near Ives Park adjacent to Clarkson Inn,Main St and Union St,Potsdam,NY,13676,Jennifer McAvoy,3155282454,http://www.facebook.com/thepotsdamfarmersmarket,Saturday  9am-2pm,May 9-October31,P/M,N,Y,N,Y,44.66865,-74.98493,"(44.66865, -74.98493)"
Rensselaer,Veggie Mobile-Renwyck Place,18 4th Ave. Rensselaer,18 4th Ave,Rensselaer,NY,12144,Audrey Bridge,5182748685,http://www.capitalroots.org,Thu 11:30am-12pm,Year-round,YR,N,Y,Y,Y,42.63925,-73.73936,"(42.63925, -73.73936)"
Clinton,Shield's Vegetables Farm Stand,6303 State Route 22  Plattsburgh,6303 State Route 22,Plattsburgh,NY,12901,Sam Dyer,5185610473,http://www.facebook.com/shieldsvegetables/,Daily  10am-6pm,July- October 31,M,Y,Y,N,Y,44.73789,-73.47064,"(44.73789, -73.47064)"
Monroe,Rochester Public Market -Thursday,280 N. Union St. off East Main St.,280 North Union St.,Rochester,NY,14609,Cindy De Coste,5854286907,http://www.cityofrochester.gov/publicmarket,Thursday  6am-1pm,Year-round,YR,Y,Y,Y,Y,43.1657,-77.59016,"(43.1657, -77.59016)"
Onondaga,Baltimore Woods WINTER Farmers' Market,"Baltimore Woods Nature Center, 4007 Bishop Hill Road",4007 Bishop Hill Road,Marcellus,NY,13108,Sue Jones,3156731350,https://www.facebook.com/winterfarmersmarketatbaltimorewoods/,2nd Saturday  10am-1pm,November-April,M/X/W/P,N,N,N,Y,42.964885,-76.344609,"(42.964885, -76.344609)"
Orange,Kirby Farm Hemlock Grove Farm Stand,25 Kinne Lane Middletown,25 Kinne Lane,Middletown,NY,10940,Charles F. Kirby,8453552718,,Daily 8am-6pm,Year-round,YR,N,N,N,Y,41.40479,-74.50332,"(41.40479, -74.50332)"
Otsego,Cooperstown Saturday Farmers' Market,101 Main St. in Pioneer Alley near Keybank,101 Main St,Cooperstown,NY,13326,Ellen Pope,6075478881,http://www.cooperstownfarmersmarket.org,"Jan-Apr 10am-2pm, May-Dec 9am-2pm",Year-round,YR,Y,Y,N,Y,42.70001,-74.92526,"(42.70001, -74.92526)"
Westchester,Pleasantville WINTER Farmers' Market,"Pleasantville Middle School, 40 Romer Ave",40 Romer Ave,Pleasantville,NY,10570,Steven Bates,9142054545,http://www.pleasantvillefarmersmarket.org,Saturday  8:30am-1pm,December 7-March 28,X/W,N,Y,N,Y,41.134501,-73.785274,"(41.134501, -73.785274)"
Sullivan,Callicoon Farmers' Market,Callicoon Creek Park  A Dorrer Drive,A Dorrer Drive,Callicoon,NY,12723,Alan Carroll,9142628979,http://www.callicoonfarmersmarket.org,Sunday  11am-2pm,March 22-November 29,P/M,N,N,N,Y,41.76559,-75.05797,"(41.76559, -75.05797)"
Bronx,Harvest Home St. Marys Park Farm Stand,E 149th St. btwn St. Ann & Jackson Aves.,646 E 149th St,Bronx,NY,10455,Maritza Owens,2128283361,http://www.harvesthomefm.org,Thursday  8am-4pm,June 4-November 19,M,Y,Y,N,Y,40.81099,-73.91173,"(40.81099, -73.91173)"
Jefferson,Clayton Chamber of Commerce Farmers' Market,Village Park Circle 425 Mary St.,425 Mary Street,Clayton,NY,13624,Tricia Bannister,3156863771,http://www.1000islands-clayton.com,Thursday  10am-4pm,June 4-September 24,M,Y,N,N,Y,44.23992,-76.08508,"(44.23992, -76.08508)"
Niagara,Lockport Community WINTER Farmers' Market,210 Walnut St.,210 Walnut Street,Lockport,NY,14094,Jessica Dittly,7164340212,http://www.lockportcommunitymarket.com,1st & 3rd Saturday  10am-2pm,November 2-May 16,M/X/W/P,N,Y,N,Y,43.16982,-78.68755,"(43.16982, -78.68755)"
Fulton,Johnstown Farmers' Market,City Park West Main St.,Main and William,Johnstown,NY,12095,Michael Tillson,5188829306,http://www.fmfma.org,Tuesday  3pm-6pm,June 23-October 13,M,N,N,N,Y,43.00636,-74.37421,"(43.00636, -74.37421)"
Bronx,Harvest Home Jacobi Hospital Fri Farmers Market,1400 Pelham Parkway,1400 Pelham Parkway,Bronx,NY,10461,Maritza Owens,2128283361,http://www.harvesthomefm.org,Fri  8am-4pm,May 15-November 20,P/M,Y,Y,N,Y,40.85738,-73.84631,"(40.85738, -73.84631)"
Cattaraugus,Perfectly Blended Farm Farm Stand,3819 Riceville Rd. Machias,3819 Riceville Rd,Machias,NY,14101,Melissa Keller,7162580645,http://www.perfectlyblendedfarm.com,Friday 5pm-8pm                        Sat/Sun 10am-2pm,May 2-October 17,P/M,Y,N,N,Y,42.43378,-78.51896,"(42.43378, -78.51896)"
Suffolk,Schneider's Farm Stand,316 Old Country Rd.  Melville,316 Old Country Road,Melville,NY,11747,Mary Schneider,6316735844,http://www.schneidersfarmmelville.com,Daily  9am-6pm,April 23-December 24,P/M/X,Y,N,N,Y,40.80186,-73.39911,"(40.80186, -73.39911)"
Kings,Brooklyn Borough Hall Saturday Greenmarket,211 Montague St. Supreme Court Plaza,Court St and Montague St,Brooklyn,NY,11201,Siobahn Keys,2127887476,http://www.grownyc.org/greenmarket,Saturday 8am-4pm,Year-round,YR,N,Y,N,Y,40.69374,-73.99043,"(40.69374, -73.99043)"
Kings,Cortelyou Greenmarket,Cortelyou Rd. btwn Argyle & Rugby Rds.,1399 Cortelyou Rd,Brooklyn,NY,11226,Siobahn Keys,2127887476,http://www.grownyc.org/greenmarket/brooklyn/cortelyou,Sunday  8am-3pm,Year-round,YR,N,Y,N,Y,40.64044,-73.96617,"(40.64044, -73.96617)"
Albany,Delmar Saturday Farmers' Market,"Elm Ave Park (new for May start), 261 Elm ave",261 Elm Ave,Delmar,NY,12054,Ken Myer,5184871991,http://www.delmarmarket.org,Saturday  9am-1pm,May 16-December 19,P/M,Y,Y,N,Y,42.60116,-73.84,"(42.60116, -73.84)"
Warren,Glens Falls Farmers' Market,South Street Market Pavilion,25 South Street,Glens Falls,NY,12801,Richard Sandora,5187920438,http://www.gffma.com,Saturday  8am-12pm,May 2-October 31,P/M,Y,Y,Y,Y,43.3099,-73.64699,"(43.3099, -73.64699)"
Oneida,Kids Farm Market,9282 Kellogg Rd Washington Mills,9282 Kellogg Rd,Washington Mills,NY,13479,Amy Braun,3157377171,https://m.facebook.com/profile.php?id=188960021191060,Daily 9am-6pm,May 1-December 24,P/M,N,N,N,Y,43.05287,-75.2725,"(43.05287, -75.2725)"
Schoharie,Schoharie Co. Festival Sat Farmers' Market,"McCarthy Tire Center parking lot, 942 E. Main Rt. 7E Cobleskill",942 E. Main Rt. 7E,Cobleskill,NY,12043,Donna Olsen,5182842609,,Saturday  10am-2pm,July 11-October 10,M,N,Y,N,Y,42.68005,-74.46673,"(42.68005, -74.46673)"
Orleans,Circle R Farm Market,13490 Roosevelt Highway  Waterport,13490 Roosevelt Highway,Waterport,NY,14571,Laurie Gregori,5856824435,http://www.facebook.com/CircleRFruitFarms/,Daily  9am-8pm,May 15-October 15,P/M,Y,N,N,Y,43.36049,-78.24848,"(43.36049, -78.24848)"
Monroe,Brighton WINTER Farmers' Market,Brookside Center  220 Idlewood Rd. Rochester,220 Idlewood Road,Rochester,NY,14618,Sue Gardner-Smith,5852698918,http://www.brightonfarmersmarket.org,Sunday  1pm-4pm,Dec 1-May 3,X/W/P,N,Y,N,Y,43.11275,-77.56809,"(43.11275, -77.56809)"
Queens,Forest Hills Greenmarket,10628 Queens Blvd. at 70th Ave. near Post Office,106-28 Queens Blvd.,Queens,NY,11375,Siobahn Keys,2127887476,http://www.grownyc.org/greenmarket/queens/forest-hills,Sunday  8am-2pm,Year-Round,YR,N,Y,N,Y,40.72193,-73.84676,"(40.72193, -73.84676)"
Dutchess,Beacon WINTER Farmers' Market,413 Main St. Beacon VFW Hall,413 Main Street,Beacon,NY,12508,Paloma Wake,5108514865,http://www.beaconfarmersmarket.org,Sunday  10am-2pm,December 8-April 26,X/W/P,N,Y,N,Y,41.50321,-73.96674,"(41.50321, -73.96674)"
New York,Harvest Home Metropolitan Farmers' Market,2nd Ave.between East 99th St. & E97th St,2nd Ave. at East 99th St.,New York,NY,10029,Maritza Owens,2128283361,http://www.harvesthomefm.org,Friday  8am-4pm,June 6-November 20,M,Y,Y,N,Y,40.78553,-73.94615,"(40.78553, -73.94615)"
New York,Harvest Home Lenox Ave. Farmers' Market,Lenox Ave. btwn W 117th & W 118th Sts. New York,150 Lenox Avenue,New York,NY,10027,Maritza Owens,2128283361,http://www.harvesthomefm.org,Saturday  8am-4pm,June 13-November 21,M,Y,Y,N,Y,40.80295,-73.9489,"(40.80295, -73.9489)"
Albany,Veggie Mobile-South Mall Towers,101 S. Pearl St. Albany,101 South Pearl Street,Albany,NY,12207,Audrey Bridge,5182748685,http://www.capitalroots.org,Fri  11am-12:15pm,Year-round,YR,N,Y,Y,Y,42.6465,-73.75482,"(42.6465, -73.75482)"
Orange,West Point/Town of Highlands Farmers' Market,"Main St. Municipal lot Highland Falls, across from Visitor's Center",Main St and Cozzens Ave,Highlands,NY,10928,Joanne Devereaux,8454462459,http://www.facebook.com/WPTOHfarmersmarket/,Sunday  9am-2pm,June 14-October 28,M,Y,N,N,Y,41.3723,-73.96434,"(41.3723, -73.96434)"
Erie,Broadway Farmers' Market,999 Broadway Buffalo parking entrances on Gibson or Lombard St.,999 Broadway,Buffalo,NY,14212,Kathleen Peterson,7168930705,,Mon-Sat  8am-5pm,year-round,YR,N,Y,N,Y,42.893162,-78.837667,"(42.893162, -78.837667)"
Erie,Kwilos Farm Farm Stand,7678 Erie Rd.  Derby,7678 Erie Rd.,Derby,NY,14074,Joseph Kwilos,7165496201,,"Mon-Sat  10am-6pm, Sunday  10am-4pm",May 8-October 31,P/M,Y,N,N,Y,42.67729,-79.02178,"(42.67729, -79.02178)"
Rensselaer,Veggie Mobile Sprout-Public Library Sr. Ctr,1501 Broadway #1 Watervliet,1501 Broadway,Watervliet,NY,12189,Audrey Bridge,5182748685,http://www.capitalroots.org,Thu 2pm-2:45pm,Year-round,YR,N,Y,Y,Y,42.72629,-73.70008,"(42.72629, -73.70008)"
Niagara,Niagara Falls City Monday Market,19th St. & Pine Ave.,1800-1808 Pine Ave,Niagara Falls,NY,14301,Victor Muto,7167540798,http://www.local-farmers-markets.com/market/3569/niagara-falls/niagara-falls-city-market,Monday  9am-3pm,Year-round,YR,Y,N,N,Y,43.09513,-79.03972,"(43.09513, -79.03972)"
Saratoga,Saratoga WINTER Farmers' Market,"Wilton Mall 3065 NY-50 Saratoga Springs, In Parking lot near Bon-Ton",3065 NY-50,Saratoga Springs,NY,12866,Justine Denison,5186642510,http://www.saratogafarmersmarket.org/saratoga-farmers-market/,Saturday  9:30am-1:30pm,"November 2-May 16,2020",M/X/W/P,N,Y,N,Y,43.06464,-73.79044,"(43.06464, -73.79044)"
Clinton,Champlain Farmers' Market,Paquette Park Gazebo Main Street (rte 9),Main Street,Champlain,NY,12919,Janet McFetridge,5182984152,http://www.vchamplain.com/,Saturday  9am-12pm,June 15-September 15,M,Y,N,N,Y,44.98721,-73.44961,"(44.98721, -73.44961)"
Lewis,Colwell's Farm Stand and Garden Center,6007 State Route 12 Glenfield,6007 State Route 12,Glenfield,NY,13343,Michael Colwell,3153767402,http://www.colwellsfarmmarket.com,Daily 9am-6pm,April 1-December 20,P/M/X,Y,Y,N,Y,43.71844,-75.41148,"(43.71844, -75.41148)"
Westchester,Saint John's Church Farmers' Market,Church Courtyard 1 Hudson St. Yonkers,1 Hudson St,Yonkers,NY,10701,George M. Morrison,9149633033,http://stjohnsfarmersmarket.blogspot.com,Thursday  7am-4pm,July 9-November 19,M,Y,N,N,Y,40.93364,-73.89879,"(40.93364, -73.89879)"
Suffolk,Thera Farms Farm Stand,1725 Brentwood Road corner of commack rd Brentwood,1725 Brentwood Road,Brentwood,NY,11717,Teddy Bolkas,6314785229,https://www.facebook.com/TheraFarms/,Daily 9am-5pm,June 1-October 1,M,Y,N,N,Y,40.77235,-73.24614,"(40.77235, -73.24614)"
Cortland,Cortland Saturday Farmers' Market,Main St. btwn Court & Orchard Sts.,Main St and Orchard St,Cortland,NY,13045,Laura Morak,6077588332,,Saturday  8am-2pm,May 16-October 31,M,Y,Y,N,Y,42.60028,-76.18044,"(42.60028, -76.18044)"
Onondaga,Brady Farm Farm Stand,150 Ford Ave Syracuse,150 Ford Ave,Syracuse,NY,13207,Jessi Lyons,3154204521,http://www.bradyfarm.org,Saturday 9am-12pm,June 6-October 24,M,N,Y,N,Y,43.01343,-76.15644,"(43.01343, -76.15644)"
Tompkins,Freeville Farmers Market,43 Main St Freeville,43 Main St.,Freeville,NY,13068,Jason Cuykendall,6073518248,http://freevillefarmersmarket.org,Sunday 12pm-3pm,May 3-Sepember 20,P/M,Y,N,N,Y,42.51179,-76.35084,"(42.51179, -76.35084)"
Suffolk,Andrews Family Farm Farm Stand,1038 Sound Ave Calverton,1038 Sound Ave,Calverton,NY,11933,Robert Andrews,6319295963,,Daily 9am-6pm,April 25-November 25,P/M,N,N,N,Y,40.94993,-72.80243,"(40.94993, -72.80243)"
Rensselaer,Veggie Mobile Sprout-Edward A. Kane Apts,115th Street & 2nd Ave Troy,5 115th Street,Troy,NY,12182,Audrey Bridge,5182748685,http://www.capitalroots.org,Thu 11am-11:30am,Year-round,YR,N,Y,Y,Y,42.7748,-73.67761,"(42.7748, -73.67761)"
Washington,Fort Edward Farmers' Market,Broadway Lanes 359 Broadway Route 4,359 Broadway,Fort Edward,NY,12828,Linda Gifford,5187920198,,Friday  10am-1pm,June 26-October 30,M,Y,N,N,Y,43.28393,-73.58721,"(43.28393, -73.58721)"
Erie,5 Loaves Farm Stand-Delavan Ave,70 West Delavan Ave Buffalo,70 West Delevan Ave,Buffalo,NY,14213,Matt Kauffman,7168039241,http://5loavesfarm.org,Friday 4pm-7pm,July 1-September 31,M,Y,N,N,Y,42.9223,-78.8969,"(42.9223, -78.8969)"
Broome,CHOW MM-First Ward Senior Ctr,226 Clinton St. Binghamton,226 Clinton St,Binghamton,NY,13905,Jack Seman,6077249130,http://www.broomecouncil.net,Tuesday 9am-10:30am,Year-round,YR,N,Y,N,Y,42.10687,-75.93015,"(42.10687, -75.93015)"
Albany,New Covenant Farmers' Market,"New Covenant Presbyterian Church, 916 Western Ave. Albany",916 Western Ave,Albany,NY,12203,Katy Stenta,5184828063,http://www.facebook.com/NewCovenantFarmersMarket/,Tuesday  3pm-6pm,May 19-September 29,P/M,N,N,N,Y,42.67228,-73.81026,"(42.67228, -73.81026)"
Jefferson,Carthage Farmers' Market,"Farmers Market Pavilion , 150 Riverside Dr. (behind Carthage Rescue Squad)",150 Riverside Drive,Carthage,NY,13619,Jeanette Turner,3154933590,http://www.carthageny.com,Friday  7am-2pm,May 29-October 9,P/M,Y,N,N,Y,43.97714,-75.61247,"(43.97714, -75.61247)"
Madison,Parry's Hardware WINTER Farmers' Market,100 Utica Street Hamilton,100 Utica Street,Hamilton,NY,13346,Gwenn Werner,3158240002,http://www.parryshamilton.com,2nd Sat  10am-1pm,November-April,M/X/W/P,N,N,N,Y,42.832844,-75.548027,"(42.832844, -75.548027)"
Chemung,Wisner Park Farmers' Market,Wisner Park 200 N Main Street Elmira,200 N Main St,Elmira,NY,14901,Kate Boland,6077340341,http://www.wisnermarket.org,Thursday  10am-2pm,May 28-September 24,P/M,N,Y,N,Y,42.08943,-76.80801,"(42.08943, -76.80801)"
Chautauqua,Fredonia WINTER Farmers' Market,329 East Main St. (Rt 20) Masonic Lodge,321 East Main St. (Rte 20),Fredonia,NY,14063,Rosemary Joy,7164107313,http://www.facebook.com/FredoniaFarmersMarket,"Saturday 10am-1pm, contact for ""drive-thru"" options",November 2-May 9,M/X/W/P,N,Y,N,Y,42.44764,-79.315,"(42.44764, -79.315)"
Kings,McGolrick Park Farmers' Market,"Center of McGolrick Park Greenpoint, Btw Driggs & Nassau Aves.",103 Russel Street,Brooklyn,NY,11222,Miriam Haas,9149234837,http://www.downtoearthmarkets.com,Sunday  10am-3pm,March1-December 31,P/M/X,N,Y,N,Y,40.72405,-73.94428,"(40.72405, -73.94428)"
Oneida,Wagner Farms Farm Stand,5841 Old Oneida Rd. Rome,5841 Old Oneida Rd,Rome,NY,13440,Ronald Wagner,3153395182,http://wagnerfarmsny.com/,Daily  10am-6pm,Year-round,YR,Y,N,N,Y,43.1805,-75.50086,"(43.1805, -75.50086)"
Yates,The Windmill Farmers' Market,3900 Route 14A at Hobson Road in Penn Yan,3900 State Route 14A,Penn Yan,NY,14527,Stephen D. Wilson,3155363032,http://www.thewindmill.com,Saturday  8am-4:30pm,May 23-November 28,P/M,Y,N,N,Y,42.57687,-77.03609,"(42.57687, -77.03609)"
Schenectady,Schenectady Greenmarket,Franklin St and Jay St. near City Hall Schenectady,Franklin St and Jay St,Schenectady,NY,12305,Cheryl Whilby,5189860318,http://www.schenectadygreenmarket.org,Sunday  10am-2pm,May 3-October 25,P/M,Y,Y,Y,Y,42.81372,-73.94015,"(42.81372, -73.94015)"
Columbia,Germantown Farmers Market,50 Palatine Park Road Germantown,50 Palatine Park Road,Germantown,NY,12526,Lauren Williams,5185675691,http://www.facebook.com/germantownfarmersmarketny,Saturday 10am-1pm,May 23-September 26,P/M,N,N,N,Y,42.135,-73.88551,"(42.135, -73.88551)"
Erie,Clarence Hollow Farmers' Market,10717 Main St. Bike Path pkng lot Clarence,10717 Main St,Clarence,NY,14031,Cheryl Anthony,7167591075,http://www.clarencefarmersmarket.com,Saturday  8am-1pm,June 6-October 31,M,Y,N,N,Y,42.9808,-78.58904,"(42.9808, -78.58904)"
New York,Union Square Monday Greenmarket,"31 Union Square W, NW side of Park",Broadway and East 17th St,New York,NY,10003,Siobahn Keys,2127887476,https://www.grownyc.org/greenmarket/manhattan-union-square-w,Monday  8am-4pm,Year-round,YR,N,Y,N,Y,40.73712,-73.99029,"(40.73712, -73.99029)"
Montgomery,Damin Farm Stand,8075 State Highway 5 St. Johnsville,8075 State Highway 5,St. Johnsville,NY,13452,Barb Damin,5185682643,,Daily  9am-6pm,Year-round,YR,Y,Y,N,Y,43.00497,-74.72233,"(43.00497, -74.72233)"
Putnam,Cold Spring WINTER Farmers' Market,"St. Mary's Episcopal Church Parish Hall, 1 Chestnut Street Cold Spring",1 Chestnut St,Cold Spring,NY,10516,Colin Wright,9179570695,http://www.csfarmmarket.org,Saturday  9:30am-1:30pm,November 2-April 26,M/X/W/P,N,Y,N,Y,41.419897,-73.954688,"(41.419897, -73.954688)"
Rensselaer,Troy Waterfront WINTER Farmers' Market,"Troy Atrium, Downtown Troy, 49 4th Street",49 4th Street,Troy,NY,12180,Stephen Ridler,5187084216,http://www.troymarket.org,"closed March 21; check for updates, Saturday  9am-2pm",November 2-April 25,M/X/W/P,N,Y,N,Y,42.73196,-73.68893,"(42.73196, -73.68893)"
Erie,Clinton Bailey Mon Farmers' Market,1443-1517 Clinton St. Buffalo,Bailey Ave and Clinton St,Buffalo,NY,14206,Sharon Baldi,7162080003,http://www.clintonbaileymarket.com,Monday 7am-6pm,May 2-October 31,P/M,N,Y,N,Y,42.87206,-78.81997,"(42.87206, -78.81997)"
Saratoga,Saratoga Nemer Farmers' Market,"Dodge-Jeep-Nemer Dealership, 617 Maple Ave Route 9 Saratoga Springs",617 Maple Ave Route 9,Saratoga Springs,NY,12866,Linda Gifford,5187920198,,Monday 10am-1pm,June 15-October 26,M,Y,N,N,Y,43.11797,-73.7695,"(43.11797, -73.7695)"
Clinton,Rulfs Orchard Farm Stand,531 Bear Swamp Road Peru,531 Bear Swamp Road,Peru,NY,12972,Shannon Wilkins,5186438636,http://www.rulfsorchard.com,Daily 6am-6pm,June-November,M,Y,Y,N,Y,44.5786,-73.49804,"(44.5786, -73.49804)"
Orleans,Roberts Farm Market,11170 Maple Ridge Rd. Medina,11170 Maple Ridge Rd.,Medina,NY,14103,Margaret Roberts,7165601200,http://www.robertsfarmmarket.com,"Mon-Sat 8am-6pm, Jan-Mar: Tue-Sat 9a-5p",Year-round,YR,Y,N,N,Y,43.20679,-78.40098,"(43.20679, -78.40098)"
Monroe,South Wedge Farmers' Market,357 Gregory St Rochester,151 Mt. Hope Ave,Rochester,NY,14620,Joan Brandenburg,5852561740,http://www.swfm.org,Thursday  4pm-7pm,June 18-September 18,M,N,Y,N,Y,43.1464,-77.60882,"(43.1464, -77.60882)"
Monroe,Kirby's Farm Market,9739 Ridge Road Brockport,9739 Ridge Rd,Brockport,NY,14420,Linda Kirby,5856372600,,"Mon-Sat 9am-7pm  , Sunday  10am-5pm",May 1-December 24,P/M/X,Y,N,N,Y,43.25194,-77.98451,"(43.25194, -77.98451)"
Saratoga,Arnolds Farm Fresh Produce Farm Stand,1319 Sacandaga Rd. West Charlton,1319 Sacandaga Rd,West Charlton,NY,12010,Jason Arnold,5182699562,http://www.arnoldsproduce.com,Daily 10am-6pm,June 1-November 23,M,Y,N,N,Y,42.96962,-74.02911,"(42.96962, -74.02911)"
Nassau,Rockville Centre Farmers' Market,"Sunrise Hwy & Longbeach Rd. , Village of Rockville Centre",Sunrise Hwy and Long Beach Rd,Rockville Centre,NY,11570,Ethel Terry,6313233653,http://www.longislandgrowersmarket.com,Sunday  7am-12pm,June 7-November 29,M,Y,N,N,Y,40.65712,-73.6321,"(40.65712, -73.6321)"
Dutchess,Millerton Farmers' Market,6 Dutchess Ave. Millerton Methodist Church,6 Dutchess Ave.,Millerton,NY,12546,John Nowak,5184077030,http://www.millertonfarmersmarket.org/,"Saturday 10am-2pm, 2nd & 4th Saturday Jan-May 9",Year-round,YR,N,Y,N,Y,41.9543,-73.50977,"(41.9543, -73.50977)"
