BusinessName,Address,Suite,City,State,Zip,BusinessType,OwnerName,X,Y,Location
RATHBONE MANSIONS,1227 ESPLANADE AVE,,NEW ORLEANS,LA,70116,4701 - HOTELS (EXC CASINO HOTELS) & MOTELS,BELLE MANSIONS LLC,3682458.19132,535751.679879,"(29.9671022269438, -90.0648967828842)"
WG CREOLE HOUSE,1724  CLIO ST,,NEW ORLEANS,LA,70113,4703 - BED & BREAKFAST INNS,WG CREOLE HOUSE,3679138.50799,526693.81171,"(29.9422967692081, -90.075694324818)"
DOUBLETREE NEW ORLEANS,300 CANAL ST,,NEW ORLEANS,LA,70130,4701 - HOTELS (EXC CASINO HOTELS) & MOTELS,"NORTHWEST AIRMOTIVE,INC",3682143.72834,529836.705729,"(29.9508476328934, -90.0660964437057)"
2028-30 IBERVILLE LLC,2028-30 IBERVILLE ST,,NEW ORLEANS,LA,70112,4701 - HOTELS (EXC CASINO HOTELS) & MOTELS,2028-30 IBERVILLE LLC,,,
BUDGET INN EXPRESS,8542 CHEF MENTEUR HWY,,NEW ORLEANS,LA,70127,4701 - HOTELS (EXC CASINO HOTELS) & MOTELS,BUDGET INN EXPRESS,3707060.68638,553179.547799,"(30.0142505299718, -89.9865557173739)"
WYNDHAM GARDEN HOTEL,10100 I 10 SERVICE RD,,NEW ORLEANS,LA,70127,4701 - HOTELS (EXC CASINO HOTELS) & MOTELS,NOLA EAST HOTEL LLC,,,
FRENCHMEN ORLEANS AT 519,519 FRENCHMEN ST,,NEW ORLEANS,LA,70116,4701 - HOTELS (EXC CASINO HOTELS) & MOTELS,"LATOUR HOTELS & RESORTS, INC",3684789.48412,534323.479877,"(29.9631040034846, -90.0575847720349)"
2036-38 IBERVILLE,2036-38 IBERVILLE ST,,NEW ORLEANS,LA,70112,4701 - HOTELS (EXC CASINO HOTELS) & MOTELS,"2036-38 IBERVILLE,LLC",,,
ALFREDS AWAY,800 COMMON ST,,NEW ORLEANS,LA,70112,"4704 - TRAVELER ACCOMMODATION, ALL OTH",ALFREDS AWAY LLC,3680543.81007,530518.449602,"(29.9527707550619, -90.0711244599928)"
HAMPTON INN & SUITES NEW ORLEANS-CONVENTION CENTER,1201 CONVENTION CENTER BLVD,,NEW ORLEANS,LA,70130,4701 - HOTELS (EXC CASINO HOTELS) & MOTELS,"INTERSTATE MANAGMENT COMPANY, LLC",3682617.3261,525900.845757,"(29.9400109307209, -90.0647386517114)"
NOLA PLACE,616 LOUISA ST,,NEW ORLEANS,LA,70117,4703 - BED & BREAKFAST INNS,JAMES F. EATON,3689101.40764,534158.973381,"(29.9625189583777, -90.043974118993)"
RESIDENCE INN BY MARRIOTT-[H/P],345 SAINT JOSEPH ST,,NEW ORLEANS,LA,70130,4701 - HOTELS (EXC CASINO HOTELS) & MOTELS,"RESIDENCE INN OF MARRIOTT, LLC.",,,
LUCKY INN HOTEL,3106 TAFT PARK,,METAIRIE,LA,70002,4701 - HOTELS (EXC CASINO HOTELS) & MOTELS,"JAE INVESTMENTS, LLC",,,
CARRIE'S COOL PROPERTIES,2307 RIVERSIDE FARMS RD,#A,AUSTIN,TX,78741,4703 - BED & BREAKFAST INNS,ALTEMUS CARRIE J,,,
PETER AND PAUL HOTEL,143 ROEBLING ST,STE 2,BROOKLYN,NY,11211,4701 - HOTELS (EXC CASINO HOTELS) & MOTELS,PETER AND PAUL MT LLC,,,
THE TROUBADOUR,1111 GRAVIER,,NEW ORLEANS,LA,70112,4701 - HOTELS (EXC CASINO HOTELS) & MOTELS,"EHP NOLA HOTEL,LLC",,,
EXTRA HOLIDAYS,2111 ST. CHARLES AVE,,NEW ORLEANS,LA,70130,4701 - HOTELS (EXC CASINO HOTELS) & MOTELS,"EXTRA HOLIDAYS, LLC",,,
NEW ORLEANS JAZZ QUARTERS,1129 ST. PHILLIP ST,,NEW ORLEANS,LA,70116,4701 - HOTELS (EXC CASINO HOTELS) & MOTELS,NEW ORLEANS JAZZ QUARTERS,,,
FEDERAL CITY INN & SUITES,740 HEBERT DR,,NEW ORLEANS,LA,70114,4701 - HOTELS (EXC CASINO HOTELS) & MOTELS,"FEDERAL CITY INN & SUITES, LLC",,,
THE CORSAIR HOTEL,4125 ST. CHARLES AVE,,NEW ORLEANS,LA,70115,4701 - HOTELS (EXC CASINO HOTELS) & MOTELS,"CORSAIR NEW ORLEANS, LLC.",,,
HOLIDAY INN EXPRESS,334 O KEEFE AVE,,NEW ORLEANS,LA,70112,4701 - HOTELS (EXC CASINO HOTELS) & MOTELS,HOLIDAY INN EXPRESS,,,
"LA FEMME FRANCAISE NATASHA, LLC",2028-2030 ST. CLAUDE AVE,,NEW ORLEANS,LA,70116,4703 - BED & BREAKFAST INNS,"LA FEMME FRANCAISE NATASHA, LLC",,,
HILTON NEW ORLEANS/ ST CHARLES AVENUE,200 SPECTRUM CENTER DR,21ST FL,IRVINE,CA,92618,4701 - HOTELS (EXC CASINO HOTELS) & MOTELS,"SUNSTONE ST. CHARLES LESSEE, INC",,,
DAYS INN & SUITES NEW ORLEANS EAST,10020 I-10 SERVICE RD,,NEW ORLEANS,LA,70127,4701 - HOTELS (EXC CASINO HOTELS) & MOTELS,"SHREE JALARAMBAPA,LLC",,,
INN AT THE OLD JAIL,2552 ST PHILIP ST,,NEW ORLEANS,LA,70119,4703 - BED & BREAKFAST INNS,DOWN BY LAW B & B LLC,3677856.91298,537442.043656,"(29.9718894038335, -90.0793692398078)"
LA MAISON MARIGNY B & B,1421 BOURBON ST,,NEW ORLEANS,LA,70116-2008,4703 - BED & BREAKFAST INNS,"DONIHOO, DEWEY          RAMSEY, JOHN",3683910.18069,534784.993094,"(29.9643998956067, -90.0603453121169)"
KERLEREC GUEST HOUSE,928 KERLEREC ST,,NEW ORLEANS,LA,70116,4703 - BED & BREAKFAST INNS,SCOTT WELLS,3683489.119,535257.292806,"(29.9657114128875, -90.061658437441)"
DONUTS & DUVETS,1661 INDUSTRY ST,,NEW ORLEANS,LA,70119,4703 - BED & BREAKFAST INNS,DONUTS & DUVETS LLC,3680466.4909,542713.511501,"(29.986305325278, -90.0709443670285)"
LE RICHELIEU,1234 CHARTRES ST,,NEW ORLEANS,LA,70116,4701 - HOTELS (EXC CASINO HOTELS) & MOTELS,"J HOSPITALITY & DEVELOPMENT, LLC",3684118.27682,533877.608325,"(29.961898541343, -90.0597200115729)"
BLUE60 GUEST HOUSE,1008 ELYSIAN FIELDS AVE,,NEW ORLEANS,LA,70117,4703 - BED & BREAKFAST INNS,"BLUE60 GUEST HOUSE,LLC",3684941.0685,536005.423239,"(29.9677241246168, -90.0570469271323)"
THE TOWNHOUSE,1332 MAGAZINE ST,,NEW ORLEANS,LA,70130,4703 - BED & BREAKFAST INNS,"MACIOR MANAGEMENT, LLC",3680515.01647,524954.705533,"(29.9374731911349, -90.0714088532692)"
HOTEL ROYAL,1006 ROYAL ST,,NEW ORLEANS,LA,70116,4701 - HOTELS (EXC CASINO HOTELS) & MOTELS,FRENCH QUARTER HOTEL COLLECTION LLC,3683285.8404,533377.97242,"(29.9605501291591, -90.0623662120733)"
ROYAL SONESTA HOTEL,300 BOURBON ST,,NEW ORLEANS,LA,70130,4701 - HOTELS (EXC CASINO HOTELS) & MOTELS,SONESTA INTERNATIONAL HOTELS CORPORATION,3681523.24488,531576.031683,"(29.9556490451257, -90.0679949678944)"
CKW INC,2624 URSULINES AVE,,NEW ORLEANS,LA,70119-3436,4702 - ROOMING & BOARDING HOUSES,CKW INC,3677844.68245,537881.083721,"(29.9730969815914, -90.079392692096)"
DEGAS HOUSE,2306 ESPLANADE AVE,,NEW ORLEANS,LA,70119,4703 - BED & BREAKFAST INNS,"THE DEGAS HOUSE, LLC",3679158.27259,538070.858377,"(29.9735792044608, -90.0752375350751)"
MAISON LAFAYETTE,1221 HARMONY ST,,NEW ORLEANS,LA,70115,4703 - BED & BREAKFAST INNS,JOHN E WHARTON,3675594.77537,520511.667768,"(29.9254043618078, -90.0870949749972)"
JELLY ROLL SUITES,320 ANDREW HIGGINS ST,,NEW ORLEANS,LA,70130,4701 - HOTELS (EXC CASINO HOTELS) & MOTELS,"VENTURE CCR OF N O,LLC",,,
HYATT PLACE NEW ORLEANS CONVENTION CENTER,881 CONVENTION CENTER BLVD,,NEW ORLEANS,LA,70130,4701 - HOTELS (EXC CASINO HOTELS) & MOTELS,"ISLAND HOSPITALITY MANAGEMENT II,LLC",3682594.03631,526801.392702,"(29.942487842452, -90.0647807045459)"
PIERRE COULON GUEST HOUSE,712-14 SPAIN ST,,NEW ORLEANS,LA,70117,4703 - BED & BREAKFAST INNS,CULTURAL EXCHANGE SVCS  LLC,,,
CASA LA LICIOUS,1367 SAINT ANTHONY AVE,,NEW ORLEANS,LA,70116,4703 - BED & BREAKFAST INNS,CASA LA LICIOUS,,,
ALDER HOTEL UPTOWN,4545 MAGNOLIA ST,,NEW ORLEANS,LA,70115,4701 - HOTELS (EXC CASINO HOTELS) & MOTELS,"ALDER HOTEL PARTNERS, LLC",3669788.35086,524763.249148,"(29.9372672181868, -90.1052802587339)"
COMFORT SUITES,7051 BULLARD AVE,,NEW ORLEANS,LA,70128-2307,4701 - HOTELS (EXC CASINO HOTELS) & MOTELS,"TULSI HOSPITALITY, LLC",3714519.34565,565770.890339,"(30.048628534129, -89.9625144153123)"
HOSTEEVA CALIFORNIA BUILDING BY HOSTEEVA,1111 TULANE AVE,,NEW ORLEANS,LA,70112,4701 - HOTELS (EXC CASINO HOTELS) & MOTELS,"HOSTEEVA, LLC",3679544.32066,531140.798274,"(29.9545122401432, -90.0742588081914)"
STAY ALFRED,822 PERDIDO ST,,NEW ORLEANS,LA,70112,4701 - HOTELS (EXC CASINO HOTELS) & MOTELS,"STAY ALFRED,INC",3680216.60872,529806.256705,"(29.9508223709029, -90.0721823664217)"
AULD SWEET OLIVE,2460 N RAMPART ST,,NEW ORLEANS,LA,70117,4703 - BED & BREAKFAST INNS,"OLIVE BLOSSOM, LLC",3686348.36412,536018.401287,"(29.967716633652, -90.0526022013441)"
723 MARIGNY,723 MARIGNY ST,,NEW ORLEANS,LA,70117,4703 - BED & BREAKFAST INNS,"BENOIT, MICHELLE A.",3685564.32834,535086.395846,"(29.9651780147465, -90.055111035849)"
MAISON PERRIER,4117 PERRIER ST,,NEW ORLEANS,LA,70115,4703 - BED & BREAKFAST INNS,"SCHOENBRUN, THOMAS F",3671867.25467,520200.862968,"(29.9246606970105, -90.0988721909619)"
HYATT HOUSE NEW ORLEANS DOWNTOWN,1250 POYDRAS ST,,NEW ORLEANS,LA,70113,4701 - HOTELS (EXC CASINO HOTELS) & MOTELS,SELECT HOTELS GROUP LLC,3678736.86037,529752.634305,"(29.9507196270331, -90.0768565173229)"
HOTEL ST MARIE,827 TOULOUSE ST,,NEW ORLEANS,LA,70112-3421,4701 - HOTELS (EXC CASINO HOTELS) & MOTELS,"HOTEL MANAGEMENT OF NEW ORLEANS, LLC",3681906.18293,532581.968004,"(29.9584033948198, -90.0667506755799)"
905 ROYAL HOTEL,905 ROYAL ST,,NEW ORLEANS,LA,70116,4701 - HOTELS (EXC CASINO HOTELS) & MOTELS,905 ROYAL HOTEL,3683024.79112,533123.2825,"(29.9598577782522, -90.0631994674944)"
W.M.COX,2109 CHARTRES ST,,NEW ORLEANS,LA,70116,4703 - BED & BREAKFAST INNS,W.M.COX LLC,3684826.66185,534524.719109,"(29.9636562037499, -90.0574602933431)"
ROYAL BARRACKS GUEST HOUSE,717 BARRACKS ST,,NEW ORLEANS,LA,70116,4702 - ROOMING & BOARDING HOUSES,ROYAL BARRACKS GUEST HOUSE INC,3683773.91612,534314.965125,"(29.9631116423374, -90.0607921087349)"
OLD LA LA'S CREOLE COTTAGE,2125 LAUREL ST,,NEW ORLEANS,LA,70130,4703 - BED & BREAKFAST INNS,OLD LA LA'S CREOLE COTTAGE LLC,3679422.33858,521628.256313,"(29.9283595935452, -90.0749738442848)"
MAISON MARAIS,2360 MARAIS ST,,NEW ORLEANS,LA,70117,8806 - .1(43) BED AND BREAKFAST 1 TO 2 ROOMS,GEORGIA SCOTT,3686268.79369,536741.632007,"(29.9697077115161, -90.0528279622884)"
MAGNOLIA MANSION HOTEL,2127 PRYTANIA ST,,NEW ORLEANS,LA,70130,4701 - HOTELS (EXC CASINO HOTELS) & MOTELS,MAGNOLIA MANSION LLC,3678027.66338,523409.185339,"(29.9332986071222, -90.0793150029912)"
AIRYN MONET,1816 MARENGO ST,,NEW ORLEANS,LA,70115,4703 - BED & BREAKFAST INNS,"HILLARD,RANDY",3671796.07163,521879.528762,"(29.9292785984644, -90.0990398120032)"
HOTEL DE LA MONNAIE OWNERS  ASSOCIATION INC,405 ESPLANADE AVE,,NEW ORLEANS,LA,70116,4701 - HOTELS (EXC CASINO HOTELS) & MOTELS,HOTEL DE LA MONNAIE OWNEASSOCIATION INC,3684951.26537,533814.223941,"(29.9616987714164, -90.0570917988922)"
QUEEN & CRESCENT HOTEL,344 CAMP ST,,NEW ORLEANS,LA,70130,4701 - HOTELS (EXC CASINO HOTELS) & MOTELS,"EHQ&C LIQUOR,LLC",3681226.95074,529538.247873,"(29.9500548215129, -90.0690015589368)"
FRENCH QUARTER MANSION BOUTIQUE HOTEL,730 DUMAINE ST,,NEW ORLEANS,LA,70116,4701 - HOTELS (EXC CASINO HOTELS) & MOTELS,"BISCUIT PALACE GUESTHOUSE,LLC",3682772.97532,533182.370372,"(29.9600279224559, -90.0639925780389)"
ROYAL SUNSHINE,3810 ROYAL ST,,NEW ORLEANS,LA,70117,4703 - BED & BREAKFAST INNS,ANTHONY & DIA NAPOLITANO,3690951.844,533891.875653,"(29.9617271497188, -90.0381402510938)"
SHERATON NEW ORLEANS HOTEL,500 CANAL ST,,NEW ORLEANS,LA,70130,4701 - HOTELS (EXC CASINO HOTELS) & MOTELS,SHERATON OPERATING CORP ATTN ACCOUNTS PAYABLE,3681620.18831,530215.835265,"(29.9519060214703, -90.0677362942651)"
"DELTA PROFICIENT MANAGEMENT, LLC",201 BARONNE ST,,NEW ORLEANS,LA,70112,4701 - HOTELS (EXC CASINO HOTELS) & MOTELS,BARONNE PLAZA HOTEL,3680155.78946,530664.581762,"(29.9531843163535, -90.0723445776528)"
NOPSI HOTEL,317 BARONNE ST,,NEW ORLEANS,LA,70112,4701 - HOTELS (EXC CASINO HOTELS) & MOTELS,MERRITT HOSPITALITY LLC,3680070.49019,530264.524289,"(29.9520868739067, -90.0726278141096)"
GRAVIER,427 GRAVIER ST,,NEW ORLEANS,LA,70130,4701 - HOTELS (EXC CASINO HOTELS) & MOTELS,"GRAVIER,LLC",3681815.52552,529663.721345,"(29.9503819607114, -90.0671387766084)"
BIENVILLE HOUSE MOTOR HOTEL,320 DECATUR ST,A,NEW ORLEANS,LA,70130,4701 - HOTELS (EXC CASINO HOTELS) & MOTELS,"NEW HOTEL MONTELEONE,LLC",3682413.31324,530959.820226,"(29.9539276166384, -90.0652059852819)"
ROSE MANOR,7214 PONTCHARTRAIN BLVD,,NEW ORLEANS,LA,70124,4701 - HOTELS (EXC CASINO HOTELS) & MOTELS,ROSE MANOR LLC,3666437.69677,555022.501785,"(30.020568307529, -90.114842650283)"
CLAIBORNE MANSION (THE),2111 DAUPHINE ST,,NEW ORLEANS,LA,70116,4703 - BED & BREAKFAST INNS,CLEO'S INN INC,3684797.81999,535321.755014,"(29.9658486601817, -90.0575233483612)"
1415 CREOLE GARDENS,1415 PRYTANIA ST,,NEW ORLEANS,LA,70130,4701 - HOTELS (EXC CASINO HOTELS) & MOTELS,"CREOLE GARDENS,LLC",3679696.82831,525413.506301,"(29.9387594926698, -90.0739760103387)"
WEBBER'S MOTEL,9300 CHEF MENTEUR HWY,,NEW ORLEANS,LA,70127,4701 - HOTELS (EXC CASINO HOTELS) & MOTELS,HARI OM LLC,3710066.57937,553782.809815,"(30.0158117790327, -89.9770361297319)"
TONY'S FRENCH QUARTER ROOMS,335 DAUPHINE ST,,NEW ORLEANS,LA,70112,4702 - ROOMING & BOARDING HOUSES,ESTATE OF ANTHONY J. SASSONE,3681244.88546,531979.758723,"(29.9567676067903, -90.0688598593748)"
MASON D'OR,1911 ROYAL ST,,NEW ORLEANS,LA,70116,4703 - BED & BREAKFAST INNS,OLGA MESCHERSKAYA,3684279.65218,534769.419334,"(29.9643457814521, -90.0591790987773)"
JACKS MOTEL,7700 CHEF MENTEUR HWY,,NEW ORLEANS,LA,70126,4701 - HOTELS (EXC CASINO HOTELS) & MOTELS,"SHIV SHAKTI UMA LAXMI, LLC",3703762.2145,552499.971542,"(30.0124881427712, -89.9970022002821)"
CATAHOULA HOTEL LLC,914 UNION ST,,NEW ORLEANS,LA,70112,4701 - HOTELS (EXC CASINO HOTELS) & MOTELS,KEELY WILLIAMS/ANDREW BROOKS,3679905.22152,530137.807041,"(29.9517434429462, -90.0731540555158)"
HOTEL LE MARAIS,717 CONTI ST,,NEW ORLEANS,LA,70130,4701 - HOTELS (EXC CASINO HOTELS) & MOTELS,"NEW ORLEANS HOTEL COLLECTION, LLC",3681763.43541,531723.179843,"(29.9560463572393, -90.0672313980382)"
THE DRIFTER HOTEL,3522 TULANE AVE,,NEW ORLEANS,LA,70119,4701 - HOTELS (EXC CASINO HOTELS) & MOTELS,"TULANE AVENUE INNS,LLC",3671282.40641,535214.774342,"(29.9659613582932, -90.1002083234743)"
THE DUCHESS,833 6TH ST,,NEW ORLEANS,LA,70115,4703 - BED & BREAKFAST INNS,JUANITA L JACKSON,3677121.64686,519877.745976,"(29.9236155313316, -90.0822969630205)"
MARCELIN'S ON NAPOLEON,3110 NAPOLEON AVE,,NEW ORLEANS,LA,70125,4703 - BED & BREAKFAST INNS,MARCELIN BRISCO,3670171.3483,526328.89491,"(29.9415609449304, -90.1040180789874)"
CHATEAU MANAGEMENT,527 MANDEVILLE ST,,NEW ORLEANS,LA,70117,4703 - BED & BREAKFAST INNS,"CHATEAU MANAGEMENT,LLC",3685970.79548,534465.475141,"(29.9634582238479, -90.0538493324191)"
COURTYARD BY MARRIOTT IMB-[H/P],124 ST CHARLES AVE,,NEW ORLEANS,LA,70130,4701 - HOTELS (EXC CASINO HOTELS) & MOTELS,COURTYARD MANAGEMENT COR,3681046.1949,530381.527042,"(29.9523790378898, -90.0695429222497)"
MAISON ROYAL,2036 ROYAL ST,,NEW ORLEANS,LA,70116,4703 - BED & BREAKFAST INNS,GRACIA O SIEGEL,3684508.01865,534789.997894,"(29.9643953809491, -90.0584572138744)"
ECONOMY INN,8310 CHEF MENTEUR HWY,,NEW ORLEANS,LA,70126,"4704 - TRAVELER ACCOMMODATION, ALL OTH",SEAVEN INCORPORATION,3706026.2442,552970.789591,"(30.0137099157555, -89.9898317435476)"
WESTIN NEW ORLEANS CANAL PLACE,100 IBERVILLE ST,,NEW ORLEANS,LA,70130,4701 - HOTELS (EXC CASINO HOTELS) & MOTELS,MERRITT HOSPITALITY LLC,3682746.02844,529908.779201,"(29.9510274809981, -90.0641921669027)"
THE PRYTANIA OAKS HOTEL,1618 PRYTANIA ST,,NEW ORLEANS,LA,70130,4701 - HOTELS (EXC CASINO HOTELS) & MOTELS,"THE PRYTANIA PARK HOTEL, LTD",3679403.82242,524791.190844,"(29.9370571825833, -90.0749226396131)"
DRURY INN NEW ORLEANS,820 POYDRAS ST,,NEW ORLEANS,LA,70112,4701 - HOTELS (EXC CASINO HOTELS) & MOTELS,DSW INNS LLC,3680155.40034,529418.415425,"(29.9497577899405, -90.0723891075552)"
THE ELIZA JANE HOTEL,315 MAGAZINE ST,,NEW ORLEANS,LA,70130,4701 - HOTELS (EXC CASINO HOTELS) & MOTELS,"URBAN MAGAZINE STREET HOTEL,LLC",3681573.81852,529596.227969,"(29.9502037186814, -90.067904314125)"
CHATEAU LEMOYNE  ATTN: FINANCE DEPT:,301 DAUPHINE ST,,NEW ORLEANS,LA,70112,4701 - HOTELS (EXC CASINO HOTELS) & MOTELS,HI CHAT-LEM INC,3681071.89531,531801.477827,"(29.9562826427676, -90.0694123162999)"
CASA PELICAN LLC,712 PELICAN ST,,NEW ORLEANS,LA,70114,4703 - BED & BREAKFAST INNS,CASA PELICAN LLC,,,
TERRELL HOUSE,1441 MAGAZINE ST,,NEW ORLEANS,LA,70130,4703 - BED & BREAKFAST INNS,"O'BRIEN TERRELL HOUSE, LLC",3680239.9588,524166.015356,"(29.9353128806252, -90.0723046318246)"
ROYAL ORLEANS HOTEL,621 ST LOUIS ST,,NEW ORLEANS,LA,70130-2119,4701 - HOTELS (EXC CASINO HOTELS) & MOTELS,OMNI NEW ORLEANS CORP,3682297.81064,531793.086915,"(29.9562223314342, -90.0655415834038)"
LE SHACKTEAU,2110 MARAIS ST,,NEW ORLEANS,LA,70116,8806 - .1(43) BED AND BREAKFAST 1 TO 2 ROOMS,MARIE VERDIER,3684670.90044,536608.611079,"(29.969390953609, -90.0578789201347)"
R & B ROOMS,1931 ORLEANS AVE,,NEW ORLEANS,LA,70116,4702 - ROOMING & BOARDING HOUSES,"SMOTHERS, RICHARD H     SMOTHERS, WILLIE B",3679105.96098,535350.26855,"(29.9661000939009, -90.0754970663654)"
631 DESIRE LLC,631 DESIRE ST,,NEW ORLEANS,LA,70117,4703 - BED & BREAKFAST INNS,631 DESIRE LLC,3689812.743,534098.413637,"(29.9623304119093, -90.0417299829632)"
ROYAL STREET COURTYARD,2438 ROYAL ST,,NEW ORLEANS,LA,70117,4701 - HOTELS (EXC CASINO HOTELS) & MOTELS,"LEGE SMITH, LLC",3686198.55337,534922.67847,"(29.9647083796932, -90.0531139679717)"
THE GRAND VICTORIAN BED &     BREAKFAST,2727 ST CHARLES AVE,,NEW ORLEANS,LA,70130-5929,4701 - HOTELS (EXC CASINO HOTELS) & MOTELS,"B A R, LLC",3675937.20494,522627.067898,"(29.9312107808917, -90.0859413358407)"
LE MERIDIEN NEW ORLEANS,333 POYDRAS ST,,NEW ORLEANS,LA,70130,4701 - HOTELS (EXC CASINO HOTELS) & MOTELS,CHSP TRS NEW ORLEANS,3682119.68354,529146.713216,"(29.9489511175088, -90.0661964576515)"
AC HOTEL NEW ORLEANS BOURBON/FRENCH QUARTER AREA,221 CARONDELET ST,,NEW ORLEANS,LA,70130,4701 - HOTELS (EXC CASINO HOTELS) & MOTELS,"COTTON EXCHANGE INVESTMENT PROPERTIES,LLC",3680519.79951,530366.105858,"(29.9523525883641, -90.0712055731135)"
CHATEAU ESPLANADE,1261 ESPLANADE AVE,,NEW ORLEANS,LA,70116-1947,4701 - HOTELS (EXC CASINO HOTELS) & MOTELS,HOTEL STORYVILLE LLC,3682245.88655,535893.628039,"(29.9674989960424, -90.0655622825085)"
"COUNTRY INN & SUITES,NEW ORLEANS I-10 EAST",5801 READ BLVD,,NEW ORLEANS,LA,70127,4701 - HOTELS (EXC CASINO HOTELS) & MOTELS,CIS NOLA LLC,3711130.32971,560962.831134,"(30.0355193458883, -89.9734059508498)"
LITTLE EAZY BED & BREAKFAST,1526 PAUGER ST,,NEW ORLEANS,LA,70116,4703 - BED & BREAKFAST INNS,"WALKER, MARGARET A",3683890.07209,535352.817926,"(29.9659618323431, -90.0603888928829)"
SUNBURST INN,819 MANDEVILLE ST,,NEW ORLEANS,LA,70117,4703 - BED & BREAKFAST INNS,"JOHNSON, DARRELL M",3685875.79446,535461.806278,"(29.9662007058991, -90.0541142093417)"
ROYAL ST CHARLES HOTEL,135 ST CHARLES AVE,,NEW ORLEANS,LA,70130,4701 - HOTELS (EXC CASINO HOTELS) & MOTELS,L-O NEW ORLEANS OPER LLC,3680949.94223,530383.971266,"(29.9523886773915, -90.0698467587673)"
PARISIAN COURTYARD INN,1726 PRYTANIA ST,,NEW ORLEANS,LA,70130,4703 - BED & BREAKFAST INNS,LANDMARK PROPERTIES OF LOUISIANA LLC,3679238.63496,524528.407612,"(29.9363396027548, -90.0754532531826)"
MARIE LAVAEAU GUEST HOUSE,1024 ST ANN ST,,NEW ORLEANS,LA,70116,4701 - HOTELS (EXC CASINO HOTELS) & MOTELS,"KFK ACQUISTIONS, LLC",3681728.56309,533526.476036,"(29.9610058673208, -90.0672785969097)"
HILTON NEW ORLEANS RIVERSIDE,2 POYDRAS ST,,NEW ORLEANS,LA,70130,4701 - HOTELS (EXC CASINO HOTELS) & MOTELS,HILTON MANAGEMENT LLC,3683045.57205,528712.8144,"(29.9477298559466, -90.0632882153656)"
ACE HOTEL,600 CARONDELET ST,,NEW ORLEANS,LA,70130,4701 - HOTELS (EXC CASINO HOTELS) & MOTELS,ACE GROUP NEW ORLEANS LLC,3680235.16879,528927.008512,"(29.9484041719003, -90.0721543198545)"
LANAUX MANSION,547 ESPLANADE AVE,,NEW ORLEANS,LA,70116,4703 - BED & BREAKFAST INNS,BODENHEIMER RUTH,3684418.35465,534215.685573,"(29.9628189628033, -90.0587605391945)"
COLLINWOOD,2408 DAUPHINE ST,,NEW ORLEANS,LA,70117,4703 - BED & BREAKFAST INNS,THOMAS COLLINS    CHARLES WOODALL,3685969.62825,535250.742214,"(29.9656174721651, -90.0538253277447)"
DOMIO BARONNE LLC,888 BARONNE ST,,NEW ORLEANS,LA,70113,4701 - HOTELS (EXC CASINO HOTELS) & MOTELS,DOMIO BARONNE LLC,3679515.48911,527704.463487,"(29.9450643426084, -90.0744690557983)"
MOTEL 6 -HOTEL-,4200 OLD GENTILLY RD,,NEW ORLEANS,LA,70126,4701 - HOTELS (EXC CASINO HOTELS) & MOTELS,BAYOU HOSPITALITY LLC,3690544.05321,548686.902995,"(30.0024208569741, -90.0389001942854)"
HISTORIC STREETCAR INN,1509 SAINT CHARLES AVE,,NEW ORLEANS,LA,70130,4701 - HOTELS (EXC CASINO HOTELS) & MOTELS,"1509 ST. CHARLES AVE, LLC",,,
ST. JAMES HOTEL,330 MAGAZINE ST,,NEW ORLEANS,LA,70130,4701 - HOTELS (EXC CASINO HOTELS) & MOTELS,"BM HOTELS, LLC",3681619.25736,529436.905921,"(29.9497642568617, -90.0677663985238)"
MAISON DE LAGNIAPPE,1021 KERLEREC ST,,NEW ORLEANS,LA,70116,4703 - BED & BREAKFAST INNS,"MAISON DE LAGNIAPPE, LLC",3683275.94882,535511.576966,"(29.9664171101074, -90.0623227127793)"
NEW ORLEANS MARRIOTT AT THE CONVENTION CENTER-[H/P,859 CONVENTION CENTER BLVD,,NEW ORLEANS,LA,70130,4701 - HOTELS (EXC CASINO HOTELS) & MOTELS,MARRIOTT HOTEL SERVICES INC,3682585.40232,527078.519806,"(29.9432501119176, -90.0647982775791)"
LOEWS NEW ORLEANS HOTEL,300 POYDRAS ST,,NEW ORLEANS,LA,70130,4701 - HOTELS (EXC CASINO HOTELS) & MOTELS,"IA LODGING NEW ORLEANS TRS, L.L.C.",3682130.82364,528855.199296,"(29.9481492137136, -90.066171462474)"
THE FRENCHMEN HOTEL,417 FRENCHMEN ST,,NEW ORLEANS,LA,70116,4701 - HOTELS (EXC CASINO HOTELS) & MOTELS,"FRENCHMEN OWNER, LLC",3684803.71516,534038.056773,"(29.9623187526419, -90.0575498676484)"
HOTEL INDIGO- MAIN,2203 ST CHARLES AVE,,NEW ORLEANS,LA,70130,4701 - HOTELS (EXC CASINO HOTELS) & MOTELS,"INTERSTATE MGMT CO, LLC",3677495.31573,523719.503355,"(29.9341678890235, -90.0809848850771)"
LA GALERIE,131 DECATUR ST,,NEW ORLEANS,LA,70130,4701 - HOTELS (EXC CASINO HOTELS) & MOTELS,"LA GALERIE,LLC",3681969.35208,530489.314306,"(29.9526473874606, -90.0666242553475)"
MARIGNY MANOR HOUSE,2125 N RAMPART ST,,NEW ORLEANS,LA,70116,4703 - BED & BREAKFAST INNS,"A BADILLO, LLC",3684822.063,535959.104455,"(29.9676004082426, -90.0574243778576)"
RELAX INN,13552 CHEF MENTEUR HWY,,NEW ORLEANS,LA,70129,4701 - HOTELS (EXC CASINO HOTELS) & MOTELS,"SHREEJEE, LLC",3726825.33881,559823.768925,"(30.0318658702836, -89.923852026504)"
ROYAL PALMS MOTEL,7800 CHEF MENTEUR HWY,,NEW ORLEANS,LA,70126,4701 - HOTELS (EXC CASINO HOTELS) & MOTELS,HITESH MISTRY,3704221.34007,552575.31919,"(30.0126805890446, -89.9955488506431)"
OMNI RIVERFRONT HOTEL,701 CONVENTION CENTER BLVD,,NEW ORLEANS,LA,70130,4701 - HOTELS (EXC CASINO HOTELS) & MOTELS,"RIVERFRONT LODGING, LLC",3682549.2685,527937.079423,"(29.945611962483, -90.0648823536018)"
CREOLE HOUSE,1013 ST ANN ST,,NEW ORLEANS,LA,70116,4701 - HOTELS (EXC CASINO HOTELS) & MOTELS,"KFK ACQUISITIONS, LLC",3681848.93237,533510.012804,"(29.9609569415225, -90.0668990679786)"
PARKS BOWMAN HOUSE,2705 CHESTNUT ST,,NEW ORLEANS,LA,70130,4703 - BED & BREAKFAST INNS,PARKS BOWMAN ADRIENNE,3676826.39893,521633.242745,"(29.9284514385653, -90.0831684927405)"
BOURBON ORLEANS HOTEL,717 ORLEANS AVE,,NEW ORLEANS,LA,70116,4701 - HOTELS (EXC CASINO HOTELS) & MOTELS,ST ANN LODGING LLC      TAX DEPT,3682502.39119,532793.756676,"(29.9589676067682, -90.0648606081599)"
RATHB0NE MANSIONS,1244 ESPLANADE AVE,,NEW ORLEANS,LA,70116,4701 - HOTELS (EXC CASINO HOTELS) & MOTELS,"BELLE MANSIONS, LLC",3682206.4084,535755.644103,"(29.9671207886867, -90.0656917759325)"
929 MARIGNY PAINTED LADY'S INN,929 MARIGNY ST,,NEW ORLEANS,LA,70117,4703 - BED & BREAKFAST INNS,"TISKUS,PETER",3685496.77769,535852.822599,"(29.9672874944982, -90.055297361098)"
MAZANT HOLDING LLC,906 MAZANT ST,,NEW ORLEANS,LA,70117,4703 - BED & BREAKFAST INNS,MAZANT HOLDING LLC,3691892.60329,534543.874757,"(29.9634906457807, -90.035146171629)"
JW MARRIOT NEW ORLEANS,614 CANAL ST,,NEW ORLEANS,LA,70130,4701 - HOTELS (EXC CASINO HOTELS) & MOTELS,"MARRIOT HOTEL SERVICES,",3681254.20789,530504.096514,"(29.9527097524767, -90.0688818422529)"
TULANE HOTEL GROUP INC,3900 TULANE AVE,,NEW ORLEANS,LA,70119,4701 - HOTELS (EXC CASINO HOTELS) & MOTELS,TULANE HOTEL GROUP INC,3670049.17703,535735.410695,"(29.9674293694511, -90.1040851984859)"
MARIGNY JEWEL,2466 BURGUNDY ST,,NEW ORLEANS,LA,70117,4703 - BED & BREAKFAST INNS,RONALD CHEE-AWAI,3686393.27042,535663.178439,"(29.966738514146, -90.052472926262)"
DAUPHINE ORLEANS HOTEL,415 DAUPHINE ST,,NEW ORLEANS,LA,70112,4701 - HOTELS (EXC CASINO HOTELS) & MOTELS,"415 RUE DAUPHINE, LLC",3681389.20968,532174.732931,"(29.9572993395706, -90.0683973333859)"
REEDVILLE LLC,201 MAGAZINE ST,,NEW ORLEANS,LA,70130,4701 - HOTELS (EXC CASINO HOTELS) & MOTELS,"HOSTEEVA, LLC",3681661.66914,529919.769985,"(29.9510906820734, -90.0676156439047)"
SONIAT HOUSE,1133 CHARTRES ST,,NEW ORLEANS,LA,70116,4701 - HOTELS (EXC CASINO HOTELS) & MOTELS,"SONIAT HOUSE INC        DERKS, GERALD",3683864.35426,533630.287429,"(29.9612262519371, -90.0605305332607)"
WELCOME ABROAD LLC,2233 BURGUNDY ST,,NEW ORLEANS,LA,70117,4703 - BED & BREAKFAST INNS,WELCOME ABROAD LLC,3685426.8966,535644.168646,"(29.9667159114861, -90.0555253942859)"
DAUZAT HOUSE,337 BURGUNDY ST,,NEW ORLEANS,LA,70112,4702 - ROOMING & BOARDING HOUSES,"DAUZAT, DOROTHY M",3680971.86677,532208.128515,"(29.9574038277462, -90.0697140121985)"
GARDEN DISTRICT B & B,2418 MAGAZINE ST,,NEW ORLEANS,LA,70130,4703 - BED & BREAKFAST INNS,"DURHAM,RAYNELL          VELEZ,LUIS",3677956.30075,521361.025849,"(29.9276689851813, -90.0796110372927)"
CWS HOME SERVICES,106 E OLD SETTLERS BLVD,BLDG D STE 108,ROUND ROCK,TX,78664,4701 - HOTELS (EXC CASINO HOTELS) & MOTELS,"CWS CORPORATE LEASING, LLC",,,
MARQUETTE HOUSE HOTEL,2253 CARONDELET ST,,NEW ORLEANS,LA,70130,4701 - HOTELS (EXC CASINO HOTELS) & MOTELS,MARQUETTE HOUSE HOTEL,3676973.57262,523798.761339,"(29.934401491949, -90.0826292798969)"
FLORVILLE MANOR,1447 N VILLERE ST,,NEW ORLEANS,LA,70116,4703 - BED & BREAKFAST INNS,FLORVILLE MANOR,3682066.19778,536534.697031,"(29.9692671802428, -90.0661073529398)"
QUALITY INN MAISON ST CHARLES,1319 ST CHARLES AVE,,NEW ORLEANS,LA,70130,4701 - HOTELS (EXC CASINO HOTELS) & MOTELS,QUALITY INN MAISON ST CHARLES,3679374.23752,525919.747901,"(29.9401612343594, -90.0749769130156)"
CHH-NOLA LLC,129 BURGUNDY ST,,NEW ORLEANS,LA,70112,4701 - HOTELS (EXC CASINO HOTELS) & MOTELS,NICHOLAS RUDOLPH,3680471.87599,531572.241091,"(29.9556705043782, -90.0713149479095)"
ENGINE 24 FIREHOUSE,2711 DAUPHINE ST,,NEW ORLEANS,LA,70117,4703 - BED & BREAKFAST INNS,SO WHAT LLC,3687231.21481,535253.828806,"(29.9655871629457, -90.0498411881917)"
THE ROSE,2232 ESPLANADE AVE,,NEW ORLEANS,LA,70119-2606,4703 - BED & BREAKFAST INNS,"DRETAR, DEBRA F",3679321.74991,537951.133769,"(29.9732450665584, -90.0747253923069)"
SUPER 8 MOTEL,6322 CHEF MENTEUR HWY,,NEW ORLEANS,LA,70126-5129,4701 - HOTELS (EXC CASINO HOTELS) & MOTELS,VENUS INVESTMENTS LLC,3698246.04771,551387.310997,"(30.0096044807327, -90.0144705809657)"
A CREOLE COTTAGE,1827 DAUPHINE ST,,NEW ORLEANS,LA,70116,4703 - BED & BREAKFAST INNS,"EASLEY, MADISON",3683930.05525,535175.059398,"(29.9654718363194, -90.0602688642412)"
MELROSE MANSION,937 ESPLANADE AVE,,NEW ORLEANS,LA,70116,4701 - HOTELS (EXC CASINO HOTELS) & MOTELS,FRENCH QUARTER HOTEL COLLECTION LLC,3683279.54261,535108.493446,"(29.9653086597149, -90.0623254834738)"
BISHOP'S BED BREAKFAST & BEYOND,7520 HAYNE BLVD,,NEW ORLEANS,LA,70126,4701 - HOTELS (EXC CASINO HOTELS) & MOTELS,CROCKETT REV. JOAN,3700186.98954,561994.670815,"(30.0387090828358, -90.0079508672611)"
HI-NEW ORLEANS HOSTELLING INTERNATIONAL USA,1028 CANAL ST,,NEW ORLEANS,LA,70112,4701 - HOTELS (EXC CASINO HOTELS) & MOTELS,"AMERICAN YOUTH HOSTELS, INC",3680054.03842,531415.673411,"(29.9552526435586, -90.0726397698633)"
INDIA HOUSE BACKPACKERS HOTEL,124 S LOPEZ ST,,NEW ORLEANS,LA,70119-6214,4701 - HOTELS (EXC CASINO HOTELS) & MOTELS,"SADDINGTON, MARK",3673800.0578,535992.501319,"(29.968025104864, -90.0922310379987)"
THE QUEEN ANNE HOTEL,1625 PRYTANIA ST,,NEW ORLEANS,LA,70130,4701 - HOTELS (EXC CASINO HOTELS) & MOTELS,"PRYTANIA PARK HOTEL, LTD",3679316.96482,524838.397116,"(29.9371896068797, -90.0751952175749)"
GLENROSE MOTEL,7930 CHEF MENTEUR HWY,,NEW ORLEANS,LA,70126-5344,4701 - HOTELS (EXC CASINO HOTELS) & MOTELS,VIDHYUT LODGING LLC,3704841.65419,552656.111766,"(30.0128828096036, -89.9935860301339)"
BON MAISON GUEST HOUSE,835 BOURBON ST,,NEW ORLEANS,LA,70116-3106,4702 - ROOMING & BOARDING HOUSES,BON MAISON GUEST HOUSE,3682642.82792,533211.5481,"(29.960112114912, -90.0644025345515)"
COURTYARD NEW ORLEANS DOWNTOWN/IBERVILLE,910 IBERVILLE ST,,NEW ORLEANS,LA,70130,4701 - HOTELS (EXC CASINO HOTELS) & MOTELS,COURTYARD MANAGEMENT CORPORATION,3680748.53819,531520.528643,"(29.9555199311646, -90.0704431468846)"
THE NATCHEZ NEW ORLEANS MT,530 NATCHEZ ST,,NEW ORLEANS,LA,70130,4701 - HOTELS (EXC CASINO HOTELS) & MOTELS,"THE NATCHEZ NEW ORLEANS MT, LLC",3681314.0454,529450.096385,"(29.9498097918655, -90.0687296323732)"
HYATT FRENCH QUARTER,800 IBERVILLE ST,,NEW ORLEANS,LA,70112,4701 - HOTELS (EXC CASINO HOTELS) & MOTELS,HRI LODGING LLC,3681110.35407,531230.922882,"(29.9547126434303, -90.0693107509001)"
BYWATER BED & BREAKFAST,1026 CLOUET ST,,NEW ORLEANS,LA,70117,4703 - BED & BREAKFAST INNS,"BURT,MARTY              SELLEN,BETTY",3688911.82191,535784.392263,"(29.9669941576769, -90.0445150696178)"
THE OLD NO. 77 HOTEL & CHANDLERY - MAIN,535 TCHOUPITOULAS ST,,NEW ORLEANS,LA,70130,4701 - HOTELS (EXC CASINO HOTELS) & MOTELS,HOTEL AMBASSADOR NOLA LLC,3681770.35599,528753.487296,"(29.9478804961101, -90.067313153129)"
THE HOTEL MODERN,936 SAINT CHARLES AVE,,NEW ORLEANS,LA,70130,4701 - HOTELS (EXC CASINO HOTELS) & MOTELS,MODERN GUMBO LODGING,3680311.02203,527218.761855,"(29.9437047691426, -90.0719741938121)"
HG NEW ORLEANS CONVENTION CENTER,1001 S PETERS ST,,NEW ORLEANS,LA,70130,4701 - HOTELS (EXC CASINO HOTELS) & MOTELS,"INTERSTATE MANAGEMENT COMPANY, LLC.",3682223.61666,526508.956862,"(29.9416950126385, -90.0659604150431)"
APARIUM HOTEL GROUP,2031 SAINT CHARLES AVE,STE #A,NEW ORLEANS,LA,70130,4701 - HOTELS (EXC CASINO HOTELS) & MOTELS,APARIUM HOTEL GROUP LLC,3677933.48789,524054.419644,"(29.9350756233905, -90.0795900214212)"
BOURGOYNE GUEST HOUSE,839 BOURBON ST,,NEW ORLEANS,LA,70116,4703 - BED & BREAKFAST INNS,STANLEY TYBURSKI,3682661.27868,533234.78906,"(29.9601754577615, -90.064343458286)"
CHIMES BED & BREAKFAST (THE),1146 CONSTANTINOPLE ST,,NEW ORLEANS,LA,70115,4703 - BED & BREAKFAST INNS,ABBYAD JILL             ABBYAD CHARLES,3672388.88775,519896.428664,"(29.9238081372383, -90.097235933889)"
HOSTEEVA,4333 CANAL ST,,NEW ORLEANS,LA,70119,4701 - HOTELS (EXC CASINO HOTELS) & MOTELS,HOSTEEVA LLC,3670145.81108,539281.230346,"(29.9771763302441, -90.1036598553152)"
HOMEWOOD SUITES - NEW ORLEANS,901 POYDRAS ST,,NEW ORLEANS,LA,70112,4701 - HOTELS (EXC CASINO HOTELS) & MOTELS,"APPLE SEVEN HOSPITALITY MANAGEMENT, INC",3679896.88411,529657.320385,"(29.9504225182386, -90.0731970658559)"
CHEZ PALMIERS BED & BREAKFAST,1744 N RAMPART ST,,NEW ORLEANS,LA,70116,4703 - BED & BREAKFAST INNS,CHEZ PALMIERS CORP,3683387.4813,535779.804743,"(29.9671512417022, -90.061961096692)"
SERENITY IN THE MARIGNY,1900 N RAMPART ST,,NEW ORLEANS,LA,70116,8807 - .1(43) BED AND BREAKFAST 3 TO 5 ROOMS,FERDINAND JEFFERSON,3683962.59285,535815.709511,"(29.9672324088267, -90.060143632127)"
HOMEWOOD SUITES NEW ORLEANS FRENCH QUARTER,317 N RAMPART ST,,NEW ORLEANS,LA,70112,4701 - HOTELS (EXC CASINO HOTELS) & MOTELS,"RAMPART MIXED-USE COMPLEX,LLC",3680552.70562,532386.586755,"(29.9579072309305, -90.0710313890109)"
FLEUR DE LIS MANSION,1216 ANNUNCIATION ST,,NEW ORLEANS,LA,70130,4703 - BED & BREAKFAST INNS,"FLEUR DE LIS MANSION, LLC",3681437.92149,525320.328189,"(29.9384505518922, -90.068482437876)"
FRENCH MARKET INN,501 DECATUR ST,,NEW ORLEANS,LA,70130,4701 - HOTELS (EXC CASINO HOTELS) & MOTELS,501 RUE DECATUR LLC.,3682698.61692,531451.455555,"(29.9552707615668, -90.0642879211091)"
1830 DAUPHINE HOUSE,1830 DAUPHINE ST,,NEW ORLEANS,LA,70116,4703 - BED & BREAKFAST INNS,JEFFRIES KAREN,3683898.46607,535097.164806,"(29.9652586180562, -90.0603713541045)"
FRENCHMEN HOUSE LLC,1125 FRENCHMEN ST,,NEW ORLEANS,LA,70116,4703 - BED & BREAKFAST INNS,FRENCHMEN HOUSE LLC,3684660.2198,536494.022983,"(29.9690762030132, -90.0579166783977)"
ST CHARLES GUEST HOUSE,1748 PRYTANIA ST,,NEW ORLEANS,LA,70130,4703 - BED & BREAKFAST INNS,"ST CHARLES GUEST HOUSE, INC",3679128.7373,524362.516348,"(29.935886773333, -90.0758059515547)"
ELYSAIN FIELDS INN,930 ELYSIAN FIELDS AVE,,NEW ORLEANS,LA,70117,4703 - BED & BREAKFAST INNS,"ELYSAIN FIELDS INN, INC",3684957.62831,535828.899655,"(29.9672382387658, -90.0570008404182)"
RIVER HOUSE NEW ORLEANS,625 MARIGNY ST,,NEW ORLEANS,LA,70117,4703 - BED & BREAKFAST INNS,"RIVER HOUSE NEW ORLEANS, LLC",3685577.73929,534770.980742,"(29.9643103210079, -90.0550797965532)"
DAYS INN & SUITES,4180 OLD GENTILLY RD,,NEW ORLEANS,LA,70126,4701 - HOTELS (EXC CASINO HOTELS) & MOTELS,4180 GENTILLY HOSPITALITY,3690261.8872,548705.375699,"(30.0024804118233, -90.03979093026)"
BEST WEST ST CHRIS HOTEL,114 MAGAZINE ST,,NEW ORLEANS,LA,70130,4701 - HOTELS (EXC CASINO HOTELS) & MOTELS,114 MAGAZINE OPERATING COMPANY LLC,3681755.46101,530010.965505,"(29.9513385898562, -90.0673163147529)"
FIVE CONTINENTS,1731 ESPLANADE AVE,,NEW ORLEANS,LA,70116,4703 - BED & BREAKFAST INNS,FIVE CONTINENTS,3680829.19087,537005.166344,"(29.9705983676472, -90.0699975311805)"
LA DAUPHINE,2316 DAUPHINE ST,,NEW ORLEANS,LA,70117,4703 - BED & BREAKFAST INNS,RUIZ RAYMOND,3685647.06697,535191.64455,"(29.9654648740989, -90.0548460437539)"
KATHERINE B SENTER,43 FONTAINEBLEAU DR,,NEW ORLEANS,LA,70125,4703 - BED & BREAKFAST INNS,"SENTER, KATHERINE B",3666291.31751,531387.804931,"(29.9555851984752, -90.1160984836188)"
PARKVIEW GUEST HOUSE,7004 ST CHARLES AVE,,NEW ORLEANS,LA,70118,4701 - HOTELS (EXC CASINO HOTELS) & MOTELS,PARKVIEW INN LLC,3663296.78605,524243.819068,"(29.9360286576526, -90.1257919179354)"
JEAN LAFITTE HOUSE,613 ESPLANADE AVE,,NEW ORLEANS,LA,70116-2018,"4704 - TRAVELER ACCOMMODATION, ALL OTH",JEAN LAFITTE HOUSE OWNERASSOCIATION,3684273.4038,534314.664581,"(29.963095553633, -90.0592147991196)"
NEW ORLEANS MARRIOTT HOTEL-[H/P],555 CANAL ST,A,NEW ORLEANS,LA,70130,4701 - HOTELS (EXC CASINO HOTELS) & MOTELS,MARRIOTT INTERNATIONAL IROGER HAMILTON,3681657.1156,530427.761794,"(29.9524876262548, -90.0676123037327)"
MARGARET PLACE,1133 MARGARET PL,,NEW ORLEANS,LA,70130,4701 - HOTELS (EXC CASINO HOTELS) & MOTELS,"MARGARET PLACE,LLC",3680167.4733,526167.541438,"(29.9408186072843, -90.0724639370304)"
EMBASSY SUITES CONVENTION CENTER,315 JULIA ST,,NEW ORLEANS,LA,70130,4701 - HOTELS (EXC CASINO HOTELS) & MOTELS,"STONEBRIDGE ES NOLA MANAGER, LLC",3682106.51797,527638.180735,"(29.9448035608569, -90.0662906960978)"
THE GREEN HOUSE INN,1212 MAGAZINE ST,,NEW ORLEANS,LA,70130,4703 - BED & BREAKFAST INNS,"GREEN HOUSE INN, LLC",3680644.31823,525483.642749,"(29.9389236767493, -90.0709822418899)"
HENRY HOWARD HOTEL,2041 PRYTANIA ST,,NEW ORLEANS,LA,70130,4701 - HOTELS (EXC CASINO HOTELS) & MOTELS,"2041 OPS, LLC",3678226.50318,523609.348539,"(29.9338430051227, -90.0786803588393)"
"SUPERIOR RESTAURANT GROUP, LLC",3636 SAINT CHARLES AVE,,NEW ORLEANS,LA,70115,4701 - HOTELS (EXC CASINO HOTELS) & MOTELS,BEST WESTERN PLUS ST. CHARLES INN,3673311.79393,521063.456377,"(29.9269896805502, -90.0942828128379)"
LA BELLE ESPLANADE,2216 ESPLANADE AVE,,NEW ORLEANS,LA,70119,4703 - BED & BREAKFAST INNS,"LA BELLE ESPLANADE, LLC",3679424.8813,537915.214793,"(29.9731431864984, -90.0744009289622)"
WYNDHAM NEW ORLEANS,124 ROYAL ST,,NEW ORLEANS,LA,70130,4701 - HOTELS (EXC CASINO HOTELS) & MOTELS,"BHR LODGING TENANT CO - POYDRAS PARTNERS, LLC",3681355.49378,530845.47949,"(29.9536453665486, -90.0685501287426)"
AUBERGE NOUVELLE ORLEANS,1628 CARONDELET ST,,NEW ORLEANS,LA,70130,4703 - BED & BREAKFAST INNS,LABALIZE PROPERTIES,3678556.41762,525306.471549,"(29.9384995972566, -90.0775801168904)"
THE QUISBY,1225 ST CHARLES AVE,,NEW ORLEANS,LA,70130,4701 - HOTELS (EXC CASINO HOTELS) & MOTELS,AUDUBON ST CHARLES OPERATOR LLC,3679535.82018,526197.515134,"(29.9409201218296, -90.0744571369549)"
CREOLE INN RUE DAUPHINE LLC,2471 DAUPHINE ST,,NEW ORLEANS,LA,70117,8807 - .1(43) BED AND BREAKFAST 3 TO 5 ROOMS,CREOLE INN RUE DAUPHINE LLC,3686469.98818,535375.44743,"(29.9659449955824, -90.0522408115212)"
NEW ORLEANS COURTYARD HOTEL,1101 N RAMPART ST,,NEW ORLEANS,LA,70116,4701 - HOTELS (EXC CASINO HOTELS) & MOTELS,"RAMPART HOTEL VENTURES, LLC",3682247.68156,534592.556165,"(29.9639214409151, -90.0656020727493)"
THE JUNG HOTEL & RESIDENCES,1500 CANAL ST,,NEW ORLEANS,LA,70112,4701 - HOTELS (EXC CASINO HOTELS) & MOTELS,INTERSTATE MANAGEMENT COMPANY LLC,3679081.04053,532173.512067,"(29.9573658441731, -90.0756858747129)"
NEW ORLEANS INN,5035 CHEF MENTEUR HWY,,NEW ORLEANS,LA,70126,"4704 - TRAVELER ACCOMMODATION, ALL OTH","CHANDRAKANT, B PATEL    NAYAN B, PATEL",3693062.23427,550655.183572,"(30.0077544419487, -90.0308742991757)"
CRYSTAL INN,4025 TULANE AVE,,NEW ORLEANS,LA,70119,4701 - HOTELS (EXC CASINO HOTELS) & MOTELS,"R R LODGING, LLC",3669752.88622,536169.809799,"(29.9686325584817, -90.1050061867321)"
FAIRCHILD HOUSE,1518 PRYTANIA ST,,NEW ORLEANS,LA,70130-4416,4701 - HOTELS (EXC CASINO HOTELS) & MOTELS,VIATRIX INC,3679597.52936,525065.130621,"(29.937804575385, -90.0743015931494)"
SONDER,508 CHARTRES ST,,NEW ORLEANS,LA,70116,4701 - HOTELS (EXC CASINO HOTELS) & MOTELS,"SONDER USA,INC",3682501.52213,531697.195331,"(29.9559524630943, -90.0649016837192)"
OLIVIER HOUSE HOTEL,828 TOULOUSE ST,,NEW ORLEANS,LA,70112-3422,4701 - HOTELS (EXC CASINO HOTELS) & MOTELS,"DANNER, JAMES",3681761.7565,532463.443396,"(29.9580818814019, -90.067210870741)"
B ON CANAL,1300 CANAL ST,,NEW ORLEANS,LA,70112,4701 - HOTELS (EXC CASINO HOTELS) & MOTELS,INSITE NEW ORLEANS ONE LLC.,3679515.34165,531836.453187,"(29.9564259319667, -90.0743261770644)"
1503 GUEST HOUSE LLC,1503 TCHOUPITOULAS ST,,NEW ORLEANS,LA,70130,4703 - BED & BREAKFAST INNS,1503 GUEST HOUSE LLC,3682225.65532,523280.484411,"(29.9328177259658, -90.0660667095787)"
SONESTA ES SUITES NEW OLEANS,212 LOYOLA AVE,,NEW ORLEANS,LA,70112,4701 - HOTELS (EXC CASINO HOTELS) & MOTELS,SONESTA INTERNATIONAL HOTELS CORPORATION,3679374.08296,531003.245378,"(29.954139158462, -90.0748011227687)"
PONTCHARTRAIN HOTEL,2031 SAINT CHARLES AVE,,NEW ORLEANS,LA,70130,4701 - HOTELS (EXC CASINO HOTELS) & MOTELS,"AJ PONTCHARTRAIN OWNER,LLC",3677933.48789,524054.419644,"(29.9350756233905, -90.0795900214212)"
MONTE CARLO MOTEL,6061 CHEF MENTEUR HWY,,NEW ORLEANS,LA,70125,4701 - HOTELS (EXC CASINO HOTELS) & MOTELS,SAILAXMI LLC,3697070.17898,551822.851414,"(30.0108392155705, -90.0181697510768)"
STAYBRIDGE SUITES NEW ORLEANS,501 TCHOUPITOULAS ST,,NEW ORLEANS,LA,70130,4701 - HOTELS (EXC CASINO HOTELS) & MOTELS,"KIMPTON HOTEL RESTAURANT GROUP, LLC",3681811.71298,528981.979328,"(29.9485075157807, -90.0671746007679)"
BLUE LAGOON NOLA,4417 DRYADES ST,,NEW ORLEANS,LA,70115,4701 - HOTELS (EXC CASINO HOTELS) & MOTELS,"PEOPLE SPEAK,LLC",3670505.04142,522023.371578,"(29.9297122964817, -90.1031104851898)"
MONROSE ROW B & B,1303 GOVERNOR NICHOLLS ST,,NEW ORLEANS,LA,70116,4703 - BED & BREAKFAST INNS,1303 B & B LTD,3681943.56802,535386.748742,"(29.9661144460927, -90.0665347067278)"
JEFF DAVIS,2011 IBERVILLE ST,,NEW ORLEANS,LA,70112-3332,4702 - ROOMING & BOARDING HOUSES,"JEFF DAVIS PROPERTIES, I",3677744.83253,533939.329925,"(29.9622615057352, -90.0798442216657)"
THE MERCHANTILE HOTEL,727 S PETERS ST,,NEW ORLEANS,LA,70130,4701 - HOTELS (EXC CASINO HOTELS) & MOTELS,INNISFREE HOTELS INC.,3682204.11989,527915.005567,"(29.9455617682364, -90.0659728705608)"
CHATEAU HOTEL,1001 CHARTRES ST,,NEW ORLEANS,LA,70130,4701 - HOTELS (EXC CASINO HOTELS) & MOTELS,1001 CHARTRES STREET LLC,3683541.43081,533241.886852,"(29.960168142689, -90.0615638793688)"
MARK & RON'S B&B,1625 PAUGER ST,,NEW ORLEANS,LA,70116,8806 - .1(43) BED AND BREAKFAST 1 TO 2 ROOMS,"2MEN, LLC",3683945.58863,535711.913351,"(29.9669475247736, -90.060200973604)"
HOTEL MAISON PIERRE LAFITTE   LTD,108 UNIVERSITY PL,,NEW ORLEANS,LA,70112-2502,4701 - HOTELS (EXC CASINO HOTELS) & MOTELS,HOTEL MAISON PIERRE LAFILTD,3680279.08687,531225.76621,"(29.9547236526666, -90.071935751179)"
ESPLANADE GUEST HOUSE,1206 ESPLANADE AVE,,NEW ORLEANS,LA,70116,4703 - BED & BREAKFAST INNS,"ESPLANADE GUEST HOUSE, LLC",3682463.8278,535570.047878,"(29.966602629909, -90.0648853325669)"
THE BEN LOUIE,3610 TULANE AVE,,NEW ORLEANS,LA,70119,4701 - HOTELS (EXC CASINO HOTELS) & MOTELS,"BFLO PROPERTIES LLC BK ONE ASSOCIATES, LLC AND ABD",3670994.05703,535309.890694,"(29.9662314258878, -90.1011156945354)"
ST CHARLES COACH HOUSE,2001 ST CHARLES AVE,,NEW ORLEANS,LA,70130,4701 - HOTELS (EXC CASINO HOTELS) & MOTELS,GRAND BOUTIQUE HOTEL,3678096.03714,524165.972284,"(29.9353774650231, -90.0790729993194)"
PRINCE CONTI HOTEL,830 CONTI ST,B,NEW ORLEANS,LA,70112-3440,4701 - HOTELS (EXC CASINO HOTELS) & MOTELS,"FUSELIER, ANN VALENTINO VALENTINO, WARREN PAUL",3681394.18178,531901.761859,"(29.9565486108807, -90.0683911485525)"
COURTYARD BY MARRIOTT #1MK-[H/P],300 JULIA ST,,NEW ORLEANS,LA,70130,4701 - HOTELS (EXC CASINO HOTELS) & MOTELS,COURTYARD MANAGEMENT COR,3682118.57461,527528.878975,"(29.9445026510975, -90.0662564458014)"
OAKVIEW BED & BREAKFAST,1172 CITY PARK AVE,,NEW ORLEANS,LA,70119,4703 - BED & BREAKFAST INNS,RUSSELL BOWIE,3673668.7371,541386.067468,"(29.9828594861658, -90.092461296772)"
FOUR POINTS BY SHERATON FRENCH QUARTER,541 BOURBON ST,,NEW ORLEANS,LA,70130,4701 - HOTELS (EXC CASINO HOTELS) & MOTELS,"SPRINGFIELD, L.L.C.",3681942.674,532323.070467,"(29.9576904055684, -90.0666444841706)"
BLUEGREEN RESORTS MANAGEMENT,115 DECATUR ST,,NEW ORLEANS,LA,70130,4701 - HOTELS (EXC CASINO HOTELS) & MOTELS,BLUEGREEN RESORTS MANAGEMENT INC,3681895.3037,530392.642114,"(29.9523838222829, -90.0668614404316)"
OLDE TOWN INN,1001 MARIGNY ST,,NEW ORLEANS,LA,70117,4701 - HOTELS (EXC CASINO HOTELS) & MOTELS,OLDE TOWN MANAGEMENT LLC,3685478.07618,536015.155975,"(29.9677344284778, -90.0553507028858)"
B & W COURTYARDS BED & BREAKFAST,2425 CHARTRES ST,,NEW ORLEANS,LA,70117,1004 - NOT OPERATING PENDING APPRVL BY S & P,B & W COURTYARDS BED & BREAKFAST,3686130.22671,534620.938694,"(29.9638807987302, -90.0533403827539)"
"2532 N RAMPART STREET, LLC",2532 N RAMPART ST,,NEW ORLEANS,LA,70117,4703 - BED & BREAKFAST INNS,"2532 N RAMPART STREET, LLC",3686805.40278,536043.240199,"(29.9677708776907, -90.0511579866841)"
"MONARCH NEW ORLEANS, LP",210 O'KEEFE AVE,,NEW ORLEANS,LA,70112,4701 - HOTELS (EXC CASINO HOTELS) & MOTELS,"MONARCH NEW ORLEANS, LP",3679876.32213,530778.312898,"(29.9535054923382, -90.0732230649622)"
ENTROPY ROOMS,300 S JEFFERSON DAVIS PKWY,,NEW ORLEANS,LA,70119-6232,4702 - ROOMING & BOARDING HOUSES,ENTROPY ENTERPRISES,3672825.83284,535970.148551,"(29.9679926212517, -90.0953084444741)"
LE PAVILLON HOTEL HOTEL TAX,833 POYDRAS ST,,NEW ORLEANS,LA,70112,4701 - HOTELS (EXC CASINO HOTELS) & MOTELS,"REMINGTON LODGING & HOSPITALITY, LLC",3680011.55458,529610.537345,"(29.9502904125285, -90.072836621273)"
LOFT 523,523 GRAVIER ST,,NEW ORLEANS,LA,70130-2701,4701 - HOTELS (EXC CASINO HOTELS) & MOTELS,"INTERNATIONAL HOUSE, LLC",3681471.57871,529830.689857,"(29.95085151408, -90.0682189596129)"
LAFAYETTE HOTEL,600 ST CHARLES AVE,,NEW ORLEANS,LA,70130,4701 - HOTELS (EXC CASINO HOTELS) & MOTELS,501 RUE DECATUR LLC.,3680589.62594,528688.248768,"(29.9477369305066, -90.0710434565838)"
LOOKOUT INN NEW ORLEANS,833 POLAND AVE,,NEW ORLEANS,LA,70117,4701 - HOTELS (EXC CASINO HOTELS) & MOTELS,LOOKOUT INN NEW ORLEANS LLC,3692887.86205,534089.692165,"(29.9622107611043, -90.0320195529497)"
MARAIS HOUSE,1123 MARAIS ST,,NEW ORLEANS,LA,70116,4703 - BED & BREAKFAST INNS,MARAIS HOUSE,3681553.89218,535351.395206,"(29.966029076082, -90.0677665258845)"
MONTELEONE HOTEL,214 ROYAL ST,A,NEW ORLEANS,LA,70130,4701 - HOTELS (EXC CASINO HOTELS) & MOTELS,"NEW HOTEL MONTELEONE,LLC",3681611.07157,531183.872066,"(29.9545680720516, -90.0677313198674)"
BED AND BREAKFAST  ON THE POINT,405 DELARONDE ST,,NEW ORLEANS,LA,70114,4701 - HOTELS (EXC CASINO HOTELS) & MOTELS,BED AND BREAKFAST ON THE POINT LLC,3686648.77346,531002.116738,"(29.9539143480815, -90.0518306739301)"
HOTEL PROVINCIAL,1024 CHARTRES ST,,NEW ORLEANS,LA,70116,4701 - HOTELS (EXC CASINO HOTELS) & MOTELS,"HOTEL PROVINCIAL, LLC",3683737.81845,533184.219076,"(29.9600035811516, -90.0609457518802)"
THE ROOSEVELT HOTEL WAC,123 BARONNE ST,,NEW ORLEANS,LA,70112,4701 - HOTELS (EXC CASINO HOTELS) & MOTELS,"FCH SUB-TENANT, LLC",3680371.07893,530940.837378,"(29.9539374097094, -90.071655182224)"
SUN OAK MUSEUM AND GUEST HOUSE,2020 BURGUNDY ST,,NEW ORLEANS,LA,70116,4703 - BED & BREAKFAST INNS,SUN OAK MUSEUM AND GUEST HOUSE,3684488.37705,535509.685382,"(29.9663748738259, -90.0584939546251)"
STATELY HOME GUEST HOUSE,1247 ESPLANADE AVE,,NEW ORLEANS,LA,70116,4703 - BED & BREAKFAST INNS,"STATELY HOME GUEST HOUSE,LLC",3682323.41461,535838.931975,"(29.9673462418768, -90.0653193590801)"
TESSIER HOUSE,1617 PENISTON ST,,NEW ORLEANS,LA,70115,4703 - BED & BREAKFAST INNS,GIBSON WALTER S,3672883.05627,521265.558969,"(29.9275581386221, -90.0956293366179)"
SUPREME BRIGHT NOLA II,1600 CANAL ST,,NEW ORLEANS,LA,70112,4701 - HOTELS (EXC CASINO HOTELS) & MOTELS,SUBTENANT LLC,3678593.30325,532525.416708,"(29.9583481738685, -90.0772138210042)"
CAMBRIA NEW ORLEANS DOWNTOWN,632 TCHOUPITOULAS ST,,NEW ORLEANS,LA,70130,4701 - HOTELS (EXC CASINO HOTELS) & MOTELS,FH TCH LLC,3681815.26069,528367.977216,"(29.9468191087104, -90.0671848212897)"
ST. PHILIP FRENCH QUARTER APARTMENTS,612 ST PHILIP ST,,NEW ORLEANS,LA,70116,4701 - HOTELS (EXC CASINO HOTELS) & MOTELS,GOTHAM ST. PHILIP PROPERTIES,3683391.22671,533161.426756,"(29.9599514881259, -90.0620410103638)"
LONDON LODGE MOTEL,9301 AIRLINE HWY,,NEW ORLEANS,LA,70118,4701 - HOTELS (EXC CASINO HOTELS) & MOTELS,"AIRLINE COURTYARD INN,LLC",3664275.14247,537463.271368,"(29.9723494750492, -90.1222621091529)"
SITE 61 HOSTEL,3701 ULLOA ST,,NEW ORLEANS,LA,70119,4702 - ROOMING & BOARDING HOUSES,SITE 61 HOSTEL,3670901.01915,535583.228806,"(29.9669857649718, -90.1014002264642)"
HISTORIC URSULINES COTTAGE,1520 URSULINES AVE,,NEW ORLEANS,LA,70116,4703 - BED & BREAKFAST INNS,BENJAMMIN SHANE HARWOOD,3681047.18939,535442.019974,"(29.9662936417766, -90.069363521883)"
THE TREME INN,1100 N PRIEUR ST,,NEW ORLEANS,LA,70116,4701 - HOTELS (EXC CASINO HOTELS) & MOTELS,"FOUCHA INVESTMENTS, LLC",3679901.36463,536472.335559,"(29.9691613613754, -90.0729462247849)"
ASTOR CROWN PLAZA NEW ORLEANS ATTN: DIR. OF FIN.,739 CANAL ST,,NEW ORLEANS,LA,70130,4701 - HOTELS (EXC CASINO HOTELS) & MOTELS,MERRITT HOSPITALITY LLC,3681011.37141,530920.698434,"(29.953862633153, -90.0696341031303)"
BEST WAY INN & SUITES & TRAILOR PARK,6042 CHEF MENTEUR HWY,,NEW ORLEANS,LA,70126,4701 - HOTELS (EXC CASINO HOTELS) & MOTELS,"MH RAMA, LLC",3697039.48599,551082.256597,"(30.0088038257333, -90.0182935750577)"
DOUBLETREE HOTEL,300 CANAL ST,,NEW ORLEANS,LA,70130,4701 - HOTELS (EXC CASINO HOTELS) & MOTELS,AVR NOLA CANAL STREET TENANT LLC,3682143.72834,529836.705729,"(29.9508476328934, -90.0660964437057)"
BEST WESTERN FRENCH QUARTER   LANDMARK HOTEL,920 N RAMPART ST,,NEW ORLEANS,LA,70116-3011,4701 - HOTELS (EXC CASINO HOTELS) & MOTELS,NORTH RAMPART CORP,3682008.16271,534059.252613,"(29.9624623231638, -90.0663770715928)"
RENAISSANCE ARTS HOTEL,700 TCHOUPITOULAS ST,,NEW ORLEANS,LA,70130,4701 - HOTELS (EXC CASINO HOTELS) & MOTELS,RENAISSANCE HOTEL MANAG,3681790.4134,528093.443135,"(29.9460649871294, -90.0672728506824)"
LAFITTE GUEST HOUSE,1003 BOURBON ST,,NEW ORLEANS,LA,70116,4701 - HOTELS (EXC CASINO HOTELS) & MOTELS,C-J'S 1003 BOURBON STREET LLC,3682910.07733,533639.572101,"(29.9612808938629, -90.0635436409099)"
BLAKE HOTEL NEW ORLEANS,500 ST CHARLES AVE,,NEW ORLEANS,LA,70130,4701 - HOTELS (EXC CASINO HOTELS) & MOTELS,"JM HOTELS, LLC",3680716.76725,529174.737728,"(29.9490707599578, -90.0706250944808)"
THE BURGUNDY BED AND BREAKFAST,2513 BURGUNDY ST,,NEW ORLEANS,LA,70117,4703 - BED & BREAKFAST INNS,THE BURGUNDY BED AND BREAKFAST,3686681.0253,535744.589127,"(29.9669535174702, -90.0515613237341)"
BUDGET INN EXPRESS,8542 CHEF MENTEUR HWY,,NEW ORLEANS,LA,70127,4701 - HOTELS (EXC CASINO HOTELS) & MOTELS,"JHAVERY, JITENDRA       JHAVERY, BHARATI",3707060.68638,553179.547799,"(30.0142505299718, -89.9865557173739)"
1851 INN ON ST CHARLES,2409 ST CHARLES AVE,,NEW ORLEANS,LA,70130,4703 - BED & BREAKFAST INNS,PAULA R GEORGE,3676820.87445,523210.971707,"(29.932789844734, -90.0831315906279)"
SCHIRO'S GUEST HOUSE,2483 ROYAL ST,,NEW ORLEANS,LA,70117,4703 - BED & BREAKFAST INNS,SCHIRO'S SUPER FOOD STORINC,3686561.67721,535009.762054,"(29.9649366687229, -90.0519641750527)"
LE RICHELIEU CORP,1234 CHARTRES ST,B,NEW ORLEANS,LA,70116,4701 - HOTELS (EXC CASINO HOTELS) & MOTELS,"ROCHEFORT, FRANK        ROCHEFORT, FRANK",3684118.27682,533877.608325,"(29.961898541343, -90.0597200115729)"
LA RUE ESPLANADE,1834 ESPLANADE AVE,,NEW ORLEANS,LA,70116,4703 - BED & BREAKFAST INNS,VERANIECE WILLIAMS,3680406.09858,537143.063304,"(29.970990356551, -90.071328909555)"
THE CORNSTALK HOTEL,915 ROYAL ST,,NEW ORLEANS,LA,70116,4701 - HOTELS (EXC CASINO HOTELS) & MOTELS,HRI LODGING LLC,3683047.22428,533166.505668,"(29.9599759434133, -90.0631271156077)"
ASHTON'S BED & BREAKFAST,2023 ESPLANADE AVE,,NEW ORLEANS,LA,70116,4701 - HOTELS (EXC CASINO HOTELS) & MOTELS,PATRICK ASHTON,3680029.59739,537628.955528,"(29.972337789583, -90.0725010639725)"
BOUGAINVILLEA HOUSE,924 GOVERNOR NICHOLLS ST,,NEW ORLEANS,LA,70116,4703 - BED & BREAKFAST INNS,GREGORY & PATRICIA KAHN,3682905.37749,534461.121989,"(29.9635400175289, -90.0635297324136)"
SKELETON KEY RESERVATIONS,1816 MARENGO ST,,NEW ORLEANS,LA,70115,"3346 - TRAVEL ARRNGMNT/RESERVN SVCS, ALL OTH",SKELETON KEY RESERVATIONS LLC,3671796.07163,521879.528762,"(29.9292785984644, -90.0990398120032)"
RENAISSANCE PERE MARQUETTE,817 COMMON ST,B,NEW ORLEANS,LA,70112,4701 - HOTELS (EXC CASINO HOTELS) & MOTELS,RENAISSANCE HOTEL MGT COLLC,3680475.86792,530608.104258,"(29.9530193328643, -90.0713358730272)"
MAISON DUBOIS,1419 DAUPHINE ST,,NEW ORLEANS,LA,70116,4701 - HOTELS (EXC CASINO HOTELS) & MOTELS,PEOPLE SPEAK LLC,3683559.42645,535037.079878,"(29.9651037575276, -90.0614441286419)"
HILTON N O RIVERSIDE HOTEL,2 POYDRAS ST,2ND FL,NEW ORLEANS,LA,70130,4701 - HOTELS (EXC CASINO HOTELS) & MOTELS,"INTERNATIONAL RIVERCENTER LESSEE, L.L.C.",3683045.57205,528712.8144,"(29.9477298559466, -90.0632882153656)"
RUFFINO'S GUEST HOUSE,631 ST PHILIP ST,,NEW ORLEANS,LA,70116,4702 - ROOMING & BOARDING HOUSES,"FRENCH QUARTER HOTEL COLLECTION, LLC",3683342.86101,533279.930436,"(29.9602788080758, -90.0621895871545)"
NEW ORLEANS FESTIVAL HOUSE,1653 N BROAD ST,STE 100,NEW ORLEANS,LA,70119,4703 - BED & BREAKFAST INNS,MORGAN CLEVENGER,3679332.66651,540588.565323,"(29.9804967619687, -90.0745994134344)"
THE GENTRY HOUSE,1031 ST ANN ST,,NEW ORLEANS,LA,70116,4703 - BED & BREAKFAST INNS,BRIAN/CHARLOTTE FURNESS,3681740.07759,533596.483717,"(29.9611980147085, -90.0672397935647)"
SPRINGHILL SUITES BY MARRIOTT H/P,301 ST JOSEPH ST,,NEW ORLEANS,LA,70130,4701 - HOTELS (EXC CASINO HOTELS) & MOTELS,SPRINGHILL SMC CORP,3682122.67036,527050.575294,"(29.9431873517638, -90.0662602135417)"
PRYTANIA PARK HOTEL,1525 PRYTANIA ST,,NEW ORLEANS,LA,70130,4701 - HOTELS (EXC CASINO HOTELS) & MOTELS,PRYTANIA PARK HOTEL LTD,3679494.77384,525096.502717,"(29.9378939424183, -90.0746249125391)"
LIONS INN,2517 CHARTRES ST,,NEW ORLEANS,LA,70117,4703 - BED & BREAKFAST INNS,"LIONS INN BED & BREAKFAST NEW ORLEANS, LLC",3686426.52463,534639.934598,"(29.963923926526, -90.0524040334696)"
BOHEME DE MARIGNY,735 TOURO ST,,NEW ORLEANS,LA,70116,4703 - BED & BREAKFAST INNS,BOHEME DE MARIGNY LLC,3684352.1229,535084.923526,"(29.9652110930664, -90.0589391612329)"
"MAISON GRACE, LLC",2222 BURGUNDY ST,,NEW ORLEANS,LA,70117,4703 - BED & BREAKFAST INNS,"MAISON GRACE, LLC",3685295.95573,535571.558086,"(29.9665202720511, -90.0559414604206)"
ROYAL ST. CHARLES HOTEL,135 ST CHARLES AVE,,NEW ORLEANS,LA,70130,4701 - HOTELS (EXC CASINO HOTELS) & MOTELS,"CRESCENT HOTELS & RESORTS, LLC",3680949.94223,530383.971266,"(29.9523886773915, -90.0698467587673)"
NEW ORLEANS GUEST HOUSE,1118 URSULINES AVE,,NEW ORLEANS,LA,70116,4701 - HOTELS (EXC CASINO HOTELS) & MOTELS,NOGH LLC,3682108.93615,534627.713606,"(29.9640223319493, -90.0660389894792)"
SUITE JAZZ ON FRENCHMEN,628 FRENCHMEN ST,,NEW ORLEANS,LA,70116,4703 - BED & BREAKFAST INNS,SYLVIA PATTERSON & JASON PATTERSON,3684690.57161,534704.103686,"(29.9641536154133, -90.0578837462014)"
HOTEL VILLA CONVENTO,616 URSULINES AVE,,NEW ORLEANS,LA,70116,4701 - HOTELS (EXC CASINO HOTELS) & MOTELS,HOTEL VILLA CONVENTO,3683605.57532,533463.050756,"(29.9607743098676, -90.0613535721913)"
CREOLE INN RUE DAUPHINE,2471 DAUPHINE ST,,NEW ORLEANS,LA,70117,4703 - BED & BREAKFAST INNS,RAYMOND LEDET/SILAS WILLOUGHBY,3686469.98818,535375.44743,"(29.9659449955824, -90.0522408115212)"
HOUSE OF THE RISING SUN,335 PELICAN AVE,,NEW ORLEANS,LA,70114-2347,4703 - BED & BREAKFAST INNS,"HERRIDGE, KEVIN",3686466.77052,530408.117378,"(29.9522866489113, -90.0524263302249)"
A & C CORPORATION,7418 CHEF MENTEUR HWY,,NEW ORLEANS,LA,70126,4701 - HOTELS (EXC CASINO HOTELS) & MOTELS,A & C CORPORATION,3702787.00727,552270.623318,"(30.0118887587892, -90.0000917217)"
HUBBARD MANSION BED & BREAKFAST,3535 ST CHARLES AVE,,NEW ORLEANS,LA,70115,4703 - BED & BREAKFAST INNS,"HUBBARD,DON C",3673577.80142,521439.679737,"(29.9280162615835, -90.0934302440832)"
ANTEBELLUM GUEST HOUSE,1333 ESPLANADE AVE,,NEW ORLEANS,LA,70116,4703 - BED & BREAKFAST INNS,"TEACHOUT,KEITH E II",3681977.05096,536105.172103,"(29.9680888453114, -90.0664038833073)"
MAISON MACARTY,3820 BURGUNDY ST,,NEW ORLEANS,LA,70117,4703 - BED & BREAKFAST INNS,MACARTY HOUSE LLC,3691196.23792,534582.114757,"(29.9636174674623, -90.0373438449648)"
THE MAGEE MANOR,3046 DUMAINE ST,,NEW ORLEANS,LA,70119,4703 - BED & BREAKFAST INNS,LINDA MAGEE,3675794.41281,538514.865737,"(29.9749012002608, -90.0858460623078)"
RESIDENCE INN BY MARRIOT,360 ST CHARLES AVE,,NEW ORLEANS,LA,70130,4701 - HOTELS (EXC CASINO HOTELS) & MOTELS,"ST CHARLES AVE. PRIME PROPERTIES, LLC",3680873.58472,529787.599297,"(29.9507511704119, -90.0701086204368)"
KATE & DAVES BED & BREAKFAST,715 ST FERDINAND ST,,NEW ORLEANS,LA,70117-7367,4703 - BED & BREAKFAST INNS,DAVE MEEKS & KATE HINDS,3687413.4799,534943.823942,"(29.9647291424097, -90.0492765746206)"
ZORA-A NEW ORLENS B & B,420 BOUNY ST,,NEW ORLEANS,LA,70114,4703 - BED & BREAKFAST INNS,VICKIE D FILIP,3686024.82831,529926.003393,"(29.9509745769855, -90.053838775376)"
THE LAUREL GUEST HOME,3626 DELGADO DR,,NEW ORLEANS,LA,70119,4703 - BED & BREAKFAST INNS,LAURA & ELIOT KAMENITZ,3674200.76731,540465.066571,"(29.9803111969, -90.0908124179932)"
PLACE D'ARMES HOTEL,625 ST ANN ST,,NEW ORLEANS,LA,70116-3212,4701 - HOTELS (EXC CASINO HOTELS) & MOTELS,"HOTEL MANAGEMENT OF NEW ORLEANS, LLC",3682938.90351,532682.783108,"(29.9586491729688, -90.0634860965598)"
FLEUR DE MARIGNY,919 TOURO ST,,NEW ORLEANS,LA,70116,4703 - BED & BREAKFAST INNS,LAURA B ANDREWS,3684307.38325,535689.772039,"(29.9668755856128, -90.0590592047366)"
INTERNATIONAL HOUSE HOTEL,221 CAMP ST,,NEW ORLEANS,LA,70130,4701 - HOTELS (EXC CASINO HOTELS) & MOTELS,"INTERNATIONAL HOUSE, LLC",3681242.44879,529949.815745,"(29.9511860242385, -90.0689382847115)"
"MAISON DES LUNES, LLC",601 ELYSIAN FIELDS AVE,,NEW ORLEANS,LA,70117,4703 - BED & BREAKFAST INNS,"MAISON DES LUNES, LLC",3685231.96367,534546.884613,"(29.9637047358987, -90.0561796136561)"
ROYAL INN OF NEW ORLEANS,4950 CHEF MENTEUR HWY,,NEW ORLEANS,LA,70126,4701 - HOTELS (EXC CASINO HOTELS) & MOTELS,HP11 LLC,3692769.16221,550242.836884,"(30.0066297975822, -90.031814993349)"
925 COMMON,925  COMMON ST,,NEW ORLEANS,LA,70112,4701 - HOTELS (EXC CASINO HOTELS) & MOTELS,"BELMONT DELAWARE,LLC",3679946.17397,530891.414786,"(29.9538143719881, -90.0729985743263)"
THE VICTORIAN HOUSE,914 N RAMPART ST,,NEW ORLEANS,LA,70116,4703 - BED & BREAKFAST INNS,"914 N. RAMPART, LLC",3681955.23093,534009.285125,"(29.9623265388455, -90.066545967078)"
CANAL STREET INN,3620 CANAL ST,,NEW ORLEANS,LA,70119,4701 - HOTELS (EXC CASINO HOTELS) & MOTELS,CANAL STREET INN,3672371.72487,537235.813256,"(29.9714862557268, -90.0966993991387)"
HOTEL MAZARIN,730 BIENVILLE ST,,NEW ORLEANS,LA,70130,4701 - HOTELS (EXC CASINO HOTELS) & MOTELS,"NEW ORLEANS HOTEL COLLECTION, LLC",3681443.58831,531377.700419,"(29.9551061198496, -90.0682534091731)"
HOLIDAY INN EXPRESS,7049 BULLARD AVE,,NEW ORLEANS,LA,70128,4701 - HOTELS (EXC CASINO HOTELS) & MOTELS,LAKSHMI LLC,3714667.98623,565718.719714,"(30.0484801958181, -89.9620466020469)"
WINDSOR COURT HOTEL,300 GRAVIER ST,,NEW ORLEANS,LA,70130,4701 - HOTELS (EXC CASINO HOTELS) & MOTELS,WINDSOR COURT HOTEL PARTNERS LLC,3682094.21813,529453.277569,"(29.9497948404032, -90.0662661592716)"
HOTEL ST PIERRE,911 BURGUNDY ST,,NEW ORLEANS,LA,70116,4701 - HOTELS (EXC CASINO HOTELS) & MOTELS,FQ HOTELS LLC,3682147.72936,533778.825413,"(29.9616870003334, -90.065946134853)"
HOTEL MAISON DE VILLE,727 TOULOUSE ST,,NEW ORLEANS,LA,70130,4701 - HOTELS (EXC CASINO HOTELS) & MOTELS,727  TOULOUSE LLC,3682160.84156,532326.761347,"(29.9576939208768, -90.0659554461366)"
A CRESCENT CITY GUEST,612 MARIGNY ST,,NEW ORLEANS,LA,70117,4703 - BED & BREAKFAST INNS,HARRING MATTHEW,3685519.43606,534668.187974,"(29.9640294647124, -90.0552675337646)"
CORNSTALK HOTEL,915 ROYAL ST,001,NEW ORLEANS,LA,70116,4701 - HOTELS (EXC CASINO HOTELS) & MOTELS,SPENCER INVESTMENTS CORP,3683047.22428,533166.505668,"(29.9599759434133, -90.0631271156077)"
LAMOTHE HOUSE,621 ESPLANADE AVE,,NEW ORLEANS,LA,70130,4701 - HOTELS (EXC CASINO HOTELS) & MOTELS,"KFK AQUISITION , LLC",3684236.55516,534348.340357,"(29.9631892770117, -90.0593299801524)"
HOLIDAY INN DTN SUPERDOME HTM,330 LOYOLA AVE,,NEW ORLEANS,LA,70112,4701 - HOTELS (EXC CASINO HOTELS) & MOTELS,CIVIC SITE DVMENT CO INC,3679294.58299,530648.055362,"(29.9531649061825, -90.0750644675439)"
BENACHI HOUSE,2257 BAYOU RD,,NEW ORLEANS,LA,70119,4703 - BED & BREAKFAST INNS,JAMES G. DERBES,3679394.63528,538330.333705,"(29.9742855342305, -90.074482048582)"
NONI'S NOLA ON FRENCHMAN,726 FRENCHMEN ST,,NEW ORLEANS,LA,70116,4703 - BED & BREAKFAST INNS,"R&B ON FRENCHMAN, LLC",3684659.78793,535055.56871,"(29.965120965031, -90.0579686046821)"
NOLA10LLC,6303 CHEF MENTEUR HWY,,NEW ORLEANS,LA,70126,4701 - HOTELS (EXC CASINO HOTELS) & MOTELS,NOLA10LLC,3698077.36887,551900.110806,"(30.0110198249587, -90.0149848536)"
HYATT REGENCY NEW ORLEANS,601 LOYOLA AVE,,NEW ORLEANS,LA,70113,4701 - HOTELS (EXC CASINO HOTELS) & MOTELS,HYATT REGENCY NEW ORLEANS,3678884.56987,529323.933185,"(29.9495363880042, -90.0764049746947)"
ECONO LODGE,4940 CHEF MENTEUR HWY,,NEW ORLEANS,LA,70126-5016,4701 - HOTELS (EXC CASINO HOTELS) & MOTELS,CUB'S MOTEL CORPORATION,3692664.04035,550162.042772,"(30.0064109263661, -90.0321499976564)"
SOUTHERN COMFORT BED & BREAKFAST,1739 MARENGO ST,,NEW ORLEANS,LA,70115-4729,4703 - BED & BREAKFAST INNS,CYNTHIA L QUICK,3671983.04334,521665.961721,"(29.928685818426, -90.0984568422355)"
FAIRFIELD INN & SUITES,346 BARONNE ST,,NEW ORLEANS,LA,70112,4701 - HOTELS (EXC CASINO HOTELS) & MOTELS,"NEW ORLEANS HOTEL MANAGEMENT, LLC",3680067.08187,529922.562625,"(29.9511466974797, -90.0726504557239)"
CAMPECHE,634 N. WHITE ST,,NEW ORLEANS,LA,70119,4703 - BED & BREAKFAST INNS,CAMPECHE,,,
MAISON DUPUY HOTEL,1001 TOULOUSE ST,,NEW ORLEANS,LA,70112,4701 - HOTELS (EXC CASINO HOTELS) & MOTELS,"NEW ORLEANS HOTEL COLLECTION,LLC.",3681378.5261,532924.284036,"(29.9593606745007, -90.0684049404374)"
HARRAH'S POYDRAS HOTEL,228 POYDRAS ST,,NEW ORLEANS,LA,70130,2060 - CASINO HOTELS,"JCC FULTON DEVELOPMENT, LLC",3682272.06844,528907.947328,"(29.9482899573016, -90.0657236530428)"
H H WHITNEY HOUSE,1923 ESPLANADE AVE,,NEW ORLEANS,LA,70116,4703 - BED & BREAKFAST INNS,SAIZAN RANDALL J        MILLER GLEN D,3680325.67701,537396.8306,"(29.971690564501, -90.0715740661946)"
INTER - CONTINENTAL ROOMS,444 ST CHARLES AVE,,NEW ORLEANS,LA,70130,4701 - HOTELS (EXC CASINO HOTELS) & MOTELS,SWVP NEW ORLEANS LLC,3680823.64776,529600.982337,"(29.9502395502587, -90.0702727910079)"
EMPRESS HOTEL,1317 URSULINES AVE,,NEW ORLEANS,LA,70116,4701 - HOTELS (EXC CASINO HOTELS) & MOTELS,BROOKS JOAN,3681584.3053,535114.295366,"(29.9653762092022, -90.0676787526137)"
W FRENCH QUARTER HOTEL,316 CHARTRES ST,,NEW ORLEANS,LA,70130,4701 - HOTELS (EXC CASINO HOTELS) & MOTELS,CHSP TRS FRENCH QUARTER LLC,3682048.77532,531162.123394,"(29.9544949700263, -90.0663499824243)"
BELLEVILLE COTTAGE BED &      BREAKFAST,317 BELLEVILLE ST,,NEW ORLEANS,LA,70114,4703 - BED & BREAKFAST INNS,ROBERT E GOESER,3687837.26806,530614.13485,"(29.952810929002, -90.0480916466138)"
1896 O'MALLEY HOUSE,120 S PIERCE ST,,NEW ORLEANS,LA,70119-6033,4701 - HOTELS (EXC CASINO HOTELS) & MOTELS,WATTS LARRY,3671392.88167,537869.347913,"(29.9732572735325, -90.0997691963093)"
"MAISON TOURISTE, LLC",430 BERMUDA ST,,NEW ORLEANS,LA,70114,4703 - BED & BREAKFAST INNS,"MAISON TOURISTE, LLC",3686680.42082,530289.320449,"(29.9519534291342, -90.0517559181533)"
FRENCH QUARTER SUITES,1119 N RAMPART ST,,NEW ORLEANS,LA,70116,4701 - HOTELS (EXC CASINO HOTELS) & MOTELS,"RAMPART HOTEL VENTURES, LLC",3682331.76936,534701.63239,"(29.9642188047582, -90.0653327198382)"
GRENOBLE HOUSE,329 DAUPHINE ST,,NEW ORLEANS,LA,70112,4701 - HOTELS (EXC CASINO HOTELS) & MOTELS,GRENOBLE HOUSE LTD,3681150.03816,531976.486915,"(29.9567614880811, -90.0691594706169)"
MASON MOTEL INC,2309 S CLAIBORNE AVE,,NEW ORLEANS,LA,70125,4701 - HOTELS (EXC CASINO HOTELS) & MOTELS,"HUANG, AMY",3674244.97697,527548.905535,"(29.9447947734847, -90.0911150452678)"
SULLY MANSION,2631 PRYTANIA ST,,NEW ORLEANS,LA,70130,4702 - ROOMING & BOARDING HOUSES,"GROUP 42, LLC",3676487.99496,522350.71225,"(29.9304343942213, -90.0842120715491)"
WHITNEY HOTEL,610 POYDRAS ST,,NEW ORLEANS,LA,70130,4701 - HOTELS (EXC CASINO HOTELS) & MOTELS,601 POYDRAS ACQUISITION LLC,3680998.16392,529214.179904,"(29.9491706830473, -90.0697352294657)"
ANDREW JACKSON HOTEL,919 ROYAL ST,,NEW ORLEANS,LA,70116,4701 - HOTELS (EXC CASINO HOTELS) & MOTELS,"FQ HOTELS, LLC",3683077.16258,533188.62842,"(29.9600358608292, -90.0630318026356)"
COLUMNS HOTEL,3811 ST CHARLES AVE,,NEW ORLEANS,LA,70115,4701 - HOTELS (EXC CASINO HOTELS) & MOTELS,"COLUMNS HOTEL SANDSTONE OPERATOR,LLC",3672720.05832,521198.497913,"(29.9273785825005, -90.0961461681236)"
HAUNTED HOTEL ON URSULINES,623 URSULINES AVE,,NEW ORLEANS,LA,70116,4702 - ROOMING & BOARDING HOUSES,URSULINES NEW ORLEANS LLC,3683581.0006,533548.882693,"(29.9610110683465, -90.0614281657062)"
BY H20 BEAUTY,1025 ALVAR ST,,NEW ORLEANS,LA,70117,4703 - BED & BREAKFAST INNS,BY H20 BEAUTY B& B,3691467.57654,535150.43239,"(29.9651717001607, -90.0364666764789)"
MENTONE BED & BREAKFAST,1437 PAUGER ST,,NEW ORLEANS,LA,70116,4703 - BED & BREAKFAST INNS,"COCO, CHARLENE D   &     KIMBRELL, RAGAN",3684011.79426,534908.55335,"(29.9647365392649, -90.0600200888747)"
INN ON URSULINES,708 URSULINES AVE,,NEW ORLEANS,LA,70116,4701 - HOTELS (EXC CASINO HOTELS) & MOTELS,KFK AQUISITIONS LLC,3683316.36706,533682.225413,"(29.9613857895425, -90.06225915735)"
ALOFT NEW ORLEANS DOWNTOWN,225 BARONNE ST,,NEW ORLEANS,LA,70112,4701 - HOTELS (EXC CASINO HOTELS) & MOTELS,225 BARONNE COMPLEX SUBTENANT,3680112.84251,530444.840962,"(29.9525814026875, -90.072487820335)"
AUDUBON COTTAGES,509 DAUPHINE ST,,NEW ORLEANS,LA,70116,4701 - HOTELS (EXC CASINO HOTELS) & MOTELS,509 RUE DAUPHINE LLC.,3681564.63752,532403.911875,"(29.9579241775608, -90.0678353933293)"
FRENCHMEN OASIS,1242 FRENCHMEN ST,,NEW ORLEANS,LA,70116,4703 - BED & BREAKFAST INNS,FRENCHMEN ASSOCIATES,3684503.75113,536971.994888,"(29.9703952477741, -90.0583940212036)"
ST. PETER GUEST HOUSE,1005 ST PETER ST,,NEW ORLEANS,LA,70116,4701 - HOTELS (EXC CASINO HOTELS) & MOTELS,"KFK AQUISTIONS, LLC",3681654.22882,533136.698692,"(29.9599363707562, -90.0675269276504)"
THE PELHAM HOTEL,444 COMMON ST,,NEW ORLEANS,LA,70130,4701 - HOTELS (EXC CASINO HOTELS) & MOTELS,"PELMAN HOSPITALITY, LLC",3681787.72476,529872.271553,"(29.9509562480917, -90.0672192807159)"
THE CONCIERGE CONNECTION,216 BARONNE ST,,NEW ORLEANS,LA,70112,"4704 - TRAVELER ACCOMMODATION, ALL OTH","THE CONCIERGE CONNECTION,LLC",3680226.81455,530492.369986,"(29.9527086426135, -90.072126296443)"
THE RITZ CARLTON HOTEL CO LLC,921 CANAL ST,,NEW ORLEANS,LA,70112,4701 - HOTELS (EXC CASINO HOTELS) & MOTELS,THE RITZ CARLTON HOTEL C,3680638.96635,531414.574531,"(29.9552319133722, -90.0707928216254)"
GLADSTONE RESTAURANT HOTEL LOUNGE,3435 DRYADES ST,,NEW ORLEANS,LA,70115-5220,4701 - HOTELS (EXC CASINO HOTELS) & MOTELS,JONES BELINDA,3673440.65396,522445.607482,"(29.9307863182422, -90.0938288373345)"
