Agency Name,Contact Name,CEO Title,Street Address,Street Address 2,City,Zip,County Name,Voice Number,Fax Number,Agency_Type
13th Judicial Court Marshal's Office,Benjamin Pruett,Marshal,705 East Walnut,,Columbia,65201,BOONE,5738864474,5738864146,Court
19th Circuit Court Marshal's Office,Donald Schulte,Marshal,PO Box 1870,,Jefferson City,65102,COLE,5736349161,5736342584,Court
Adair County Sheriff's Office,Robert Hardwick,Sheriff,215 N Franklin,,Kirksville,63501,ADAIR,6606654644,6607853224,County
Adrian Police Dept.,Christopher Dillon,Chief,PO Box 246,16 E 5th Street,Adrian,64720,BATES,8162972106,8162972888,Municipal
Advance Police Dept.,Donnie Bohnsack,Chief,PO Box 648,103 N. Oak Street,Advance,63730,STODDARD,5737223603,5737225487,Municipal
Alma Police Dept.,Nick Boehmer,Chief,205 S County Rd,,Alma,64001,LAFAYETTE,6606742475,6606742491,Municipal
Alton Police Dept.,Rusty Warren,Chief,PO Box 247,,Alton,65606,OREGON,4177787115,4177787941,Municipal
Amtrak Police Department,Neil Trugman,Chief,531 S. 16th Street,,St. Louis,63103,ST. LOUIS,3143313350,,Rail Road
Anderson Police Dept.,Seth Daniels,Chief,713 Business 71 Highway,PO Box 397,Anderson,64831,MCDONALD,4178452681,4178456565,Municipal
Andrew County Sheriff's Office,Bryan Atkins,Sheriff,400 E Main Street,,Savannah,64485,ANDREW,8163245801,8163240574,County
Annapolis Police Dept,Phillip Starnes,Chief,204 School Street,,Annapolis,63620,IRON,5735983531,5735983631,Municipal
Appleton City Police Dept.,Jason Gillespie,Chief,114 E Fourth St   PO Box 134,,Appleton City,64724,ST. CLAIR,6604762631,6604762651,Municipal
Arbyrd Police Dept.,Jerry Gentry,Chief,200 Broadway,P.O. Box 338,Arbyrd,63821,DUNKLIN,5736543834,5736543507,Municipal
Arcadia Police Dept.,Charles Helton,Chief,150 W Orchard    PO Box 86,,Arcadia,63621,IRON,5735467573,5735463756,Municipal
Archie Police Dept.,Gary Hacker,Chief,401 S Main Street,PO Box 346,Archie,64725,CASS,8164305242,8166706093,Municipal
Arnold Police Dept.,Robert Shockey,Chief,2101 Jeffco Boulevard,,Arnold,63010,JEFFERSON,6362963204,6362826620,Municipal
Ash Grove Police Dept.,Darin Chance,Chief,PO Box 235,,Ash Grove,65604,GREENE,4177512333,4177513814,Municipal
Ashland Police Dept.,Francis Woolford,Chief,109 E Broadway,PO Box 135,Ashland,65010,BOONE,5736579062,5736577018,Municipal
Atchison County Sheriff's Office,Dennis Martin,Sheriff,511 W Clay,,Rock Port,64482,ATCHISON,6607446271,6607446274,County
Audrain County Sheriff's Office,Matthew Oller,Sheriff,1100 Littleby Road,,Mexico,65265,AUDRAIN,5739754060,5735812924,County
Aurora Police Dept.,Richard Witthuhn,Chief,PO Box 30     106 S Elliott,,Aurora,65605,LAWRENCE,4176785025,4176785211,Municipal
Auxvasse Police Dept.,Kevin Suedmeyer,Chief,104 S Main   PO Box 489,,Auxvasse,65231,CALLAWAY,5733862326,5733865555,Municipal
Ava Police Dept.,Reggie Johnson,Chief,PO Box 518,504 NW 12th Avenue,Ava,65608,DOUGLAS,4176832900,4176835166,Municipal
Ballwin Police Dept.,Douglas Schaeffler,Chief,300 Park Drive,,Ballwin,63011,ST. LOUIS,6362279636,6362072340,Municipal
Barry County Sheriff's Office,Gary Davis,Sheriff,505 East Street,,Cassville,65625,BARRY,4178476556,4178476422,County
Barton County Sheriff's Office,Larry Shaw,Sheriff,1010 Cherry St,,Lamar,64759,BARTON,4176825515,4176825805,County
Bates City Police Dept.,Jana Mackay,Chief,203 N 2nd Street,,Bates City,64011,LAFAYETTE,8166906575,8166906586,Municipal
Bates County Sheriff's Office,Harold Anderson,Sheriff,6 W Fort Scott,,Butler,64730,BATES,6606793232,6606794147,County
Battlefield Police Dept.,Robert McPhail,Chief,5434 Tower Dr,,Battlefield,65619,GREENE,4178909876,4174470084,Municipal
Bel-Nor Police Dept.,Scott Ford,Chief,8416 Natural Bridge Rd,,Bel-Nor,63121,ST. LOUIS,3143812971,3143814902,Municipal
Bel-Ridge Police Dept.,Mark Harris,Chief,8920 Natural Bridge,,Bel-Ridge,63121,ST. LOUIS,3144292878,3144295333,Municipal
Bell City Police Dept.,Howard Pikey,Mayor,PO Box 206,,Bell City,63735,STODDARD,5737334255,5737334661,Municipal
Bella Villa Police Dept.,Jeffrey Welge,Chief,"751 Avenue ""H""",,Bella Villa,63125,ST. LOUIS,3146388840,3146384783,Municipal
Belle Police Dept.,Joseph Turnbough,Marshal,PO Box 813,,Belle,65013,MARIES,5738593535,5738593440,Municipal
Bellefontaine Neighbors Police Dept.,Jeremy Ihler,Chief,9641 Bellefontaine Rd,,Bellefontaine Neighbors,63137,ST. LOUIS,3148670080,3148670214,Municipal
Bellflower Police Dept.,Chief of Police,Chief,PO Box 87,,Bellflower,63333,MONTGOMERY,5739293512,5739293949,Municipal
Belton Police Dept.,James Person,Chief,7001 E 163rd St,,Belton,64012,CASS,8163484414,8163484455,Municipal
Benton County Sheriff's Office,Eric Knox,Sheriff,PO Box 67,174 W. Washington,Warsaw,65355,BENTON,6604386135,6604383053,County
Benton Police Dept.,Roy Moore,Chief,PO Box 185,,Benton,63736,SCOTT,5735453558,5735453558,Municipal
Berger Police Dept.,Tracey Gutierrez,Chief,784 Hwy 19,,Hermann,63014,FRANKLIN,5732524389,,Municipal
Berkeley Police Dept.,Art Jackson,Chief,8340 Frost Ave.,,Berkeley,63134,ST. LOUIS,3145243311,3142642198,Municipal
Bernie Police Dept.,Justin Allen,Chief,PO Box 536,206 W Crumb Ave,Bernie,63822,STODDARD,5732934454,5732935584,Municipal
Bertrand Police Dept.,Leonard Harrison,Chief,PO Box 27,,Bertrand,63823,MISSISSIPPI,5736833051,,Municipal
Bethany Police Dept.,Brian Groom,Chief,1501 Central Street,,Bethany,64424,HARRISON,6604253199,6604257906,Municipal
Bevier Police Dept.,Chief of Police,Chief,PO Box 63,,Bevier,63552,MACON,6607735314,6607735128,Municipal
Billings Police Dept.,David Taylor,Chief,PO Box 207,202 NE Hwy 60,Billings,65610,CHRISTIAN,4177442582,4177442954,Municipal
Birch Tree Police Dept.,Chief of Police,Chief,PO Box 240,3106 East First Street,Birch Tree,65438,SHANNON,5732923414,5732923352,Municipal
Bismarck Police Dept.,Steven Poole,Chief,917 Maple Street,PO Box 27,Bismarck,63624,ST. FRANCOIS,5737342777,5737346280,Municipal
Blackburn Police Dept.,Steven Smithson,Chief,207 N Main St,,Blackburn,65321,SALINE,6605384487,6605384489,Municipal
Bland Police Dept.,Patrick Boatman,Chief,PO Box  40,,Bland,65014,GASCONADE,5736463850,5736465210,Municipal
Bloomfield Police Dept.,James Dew,Chief,500 South Prairie,PO Box 350,Bloomfield,63825,STODDARD,5735683576,5735682916,Municipal
Blue Springs Police Dept.,Robert Muenz,Chief,1100 SW Smith Street,,Blue Springs,64015,JACKSON,8162280164,8162280147,Municipal
Blue Springs School District Police Department,Tom Phillips,Director,1501 NW Jefferson Street,,Blue Springs,64015,JACKSON,8162241383,8162241778,University
BNSF Railway Police Department,Greg Sandsness,Chief,8310 Nieman Road,,"Lenexa, Kansas",66214,No County Affiliation,9132074873,8173527536,Rail Road
Bolivar Police Dept.,Mark Webb,Chief,211 West Walnut Street,,Bolivar,65613,POLK,4173285831,4173266076,Municipal
Bollinger County Sheriff's Office,Darin Shell,Sheriff,202 High Street,,Marble Hill,63764,BOLLINGER,5732382633,5732385095,County
Bonne Terre Police Dept.,Douglas Calvert,Chief,118 North Allen Street,,Bonne Terre,63628,ST. FRANCOIS,5734313131,5733582977,Municipal
Boone County Sheriff's Office,Robert Carey,Sheriff,2121 East County Drive,,Columbia,65202,BOONE,5738751111,5738748953,County
Boonville Police Dept.,John Welliver,Chief,401 E Morgan St,,Boonville,65233,COOPER,6608822727,6608826604,Municipal
Bourbon Police Dept.,Jeffry Zwetow,Chief,P.O. Box 984,,Bourbon,65441,CRAWFORD,5737324838,5737323160,Municipal
Bowling Green Police Dept.,Donald Nacke,Chief,15 West Church Street,,Bowling Green,63334,PIKE,5733243200,5733245478,Municipal
Branson Police Dept.,Jeffrey Matthews,Chief,110 West Maddux Street,#100,Branson,65616,TANEY,4173343300,4173358751,Municipal
Branson West Police Dept.,Steven Dalton,Chief,PO Box 2229,110 Silver Lady Lane,Branson West,65737,STONE,4172723400,4172728152,Municipal
Braymer Police Dept.,Christina Vessar,Chief,PO Box 125,108 East 2nd Street,Braymer,64624,CALDWELL,6606452355,6606452390,Municipal
Breckenridge Hills Police Dept.,John Griffin,Chief,9623 St Charles Rock Rd,,Breckenridge Hills,63114,ST. LOUIS,3144261214,3144270813,Municipal
Brentwood Police Dept.,Joseph Spiess,Chief,272 Hanley Industrial Ct,,Brentwood,63144,ST. LOUIS,3146447100,3146467907,Municipal
Bridgeton Police Dept.,Donald Hood,Chief,12355 Natural Bridge Rd,,Bridgeton,63044,ST. LOUIS,3147397557,3143733699,Municipal
Brookfield Police Dept.,Joel Dixon,Chief,116 W Brooks St,,Brookfield,64628,LINN,6602583385,6602587279,Municipal
Browning Police Dept.,Rhonda Gulley,Chief,313 W Main St    PO Box 195,,Browning,64630,LINN,6609464215,6609464215,Municipal
Brunswick Police Dept.,Kenny Clark,Acting Chief,509 Harrison,,Brunswick,65236,CHARITON,6605483491,6605483360,Municipal
Buchanan County Sheriff's Office,William Puett,Sheriff,501 Faraon St,,St Joseph,64501,BUCHANAN,8162368898,8169011758,County
Bucklin Police Dept.,Jeffrey Gulley,Chief,P.O Box 76,,Bucklin,64631,LINN,6606953773,,Municipal
Buckner Police Dept.,Michael Buffalow,Chief,315 Hudson Street,,Buckner,64016,JACKSON,8166503939,8166509777,Municipal
Buffalo Police Dept.,Richard Wilkinson,Chief,311 North Poplar Street,PO Box 410,Buffalo,65622,DALLAS,4173452709,4173458107,Municipal
Bunceton Police Dept.,Chief of Police,Chief,103 E. Main Street,,Bunceton,65237,COOPER,6604275515,6606728051,Municipal
Bunker Police Dept.,Gary Conway Jr,Mayor,PO Box 102,,Bunker,63629,REYNOLDS,5736892444,5736892901,Municipal
Butler County Sheriff's Office,Mark Dobbs,Sheriff,200 Phillip Kearbey Blvd,,Poplar Bluff,63901,BUTLER,5737788042,5737856837,County
Butler Police Dept.,Jerret Wheatley,Chief,309 N Fulton St,,Butler,64730,BATES,6606796131,6606796133,Municipal
Butterfield Police Dept.,Kyle Kuhn,Chief,PO Box 235,,Cassville,65625,BARRY,4174427975,4174427975,Municipal
Byrnes Mill Police Dept.,Frank Selvaggio,Chief,141 Osage Executive Circle,,Byrnes Mill,63051,JEFFERSON,6366777727,6366775533,Municipal
Cabool Police Dept.,Jerald Sigman,Chief,510 Cedar Street,PO Box 710,Cabool,65689,TEXAS,4179623993,4179625294,Municipal
Caldwell County Sheriff's Office,Jerry Galloway,Sheriff,54 North Franklin,PO Box 158,Kingston,64650,CALDWELL,8165862751,8165862103,County
California Police Dept.,Daniel Hurt,Chief,500 S Oak St,,California,65018,MONITEAU,5737962818,5737963186,Municipal
Callao Police Dept.,Chief of Police,Chief,113 Market Street,P.O. Box 70,Callao,63534,MACON,6607685414,6607685593,Municipal
Callaway County Sheriff's Office,John Chism,Sheriff,PO Box 817,1201 St. Rd. O,Fulton,65251,CALLAWAY,5736427291,5735922440,County
Calverton Park Police Dept.,James Buchanan,Chief,52 Young Drive,,Calverton Park,63135,ST. LOUIS,3145241212,3145243065,Municipal
Camden County Sheriff's Office,Tony Helms,Sheriff,1 Court Circle - Suite 13,,Camdenton,65020,CAMDEN,5733462243,5733462513,County
Camden Point Police Dept.,Mark Wagoner,Mayor,101 3rd Street,PO Box 69,Camden Point,64018,PLATTE,8165060062,8168584230,Municipal
Camden Police Department,Richard Pacheco,Chief,PO Box 224,,Henrietta,64036,RAY,8162905337,8164945340,Municipal
Camdenton Police Dept.,Laura Wright,Chief,437 W. US Hwy 54,,Camdenton,65020,CAMDEN,5733463604,5733467920,Municipal
Cameron Police Dept.,Richard Bashor,Chief,101 N. Chestnut St.,,Cameron,64429,CLINTON,8166326521,8166322309,Municipal
Campbell Police Dept.,William Hill,Chief,204 West Grand Avenue,,Campbell,63933,DUNKLIN,5732462541,5732462141,Municipal
Canadian Pacific Police Service,Richard Douglas,Mr.,4747 Front St,,Kansas City,64120,JACKSON,8169205457,,Rail Road
Canalou Police Dept.,John Slayton,Chief,PO Box 3,110 East Madison Street,Canalou,63828,NEW MADRID,5736679840,5736679807,Municipal
Canton Police Dept.,Ryan Crandell,Chief,108 N Fifth Street,PO Box 231,Canton,63435,LEWIS,5732884412,5732884498,Municipal
Cape Girardeau Co. Sheriff's Office,Ruth Dickerson,Sheriff,216 N Missouri Street,,Jackson,63755,CAPE GIRARDEAU,5732433551,5732042909,County
Cape Girardeau Police Dept.,James Blair,Chief,2530 Maria Louise Lane,,Cape Girardeau,63701,CAPE GIRARDEAU,5733396621,5733396362,Municipal
Cardwell Police Dept.,Freddie Williams,Chief,PO Box 216,,Cardwell,63829,DUNKLIN,5736543535,5736542417,Municipal
Carl Junction Police Dept.,Delmar Haase,Chief,302 North Main,PO Box 447,Carl Junction,64834,JASPER,4176497070,4176493273,Municipal
Carroll County Sheriff's Office,William McCoy,Sheriff,106 S Folger,,Carrollton,64633,CARROLL,6605421121,6605421539,County
Carrollton Police Dept.,Christopher Looney,Chief,206 West Washington Street,1320 North Hwy 65,Carrollton,64633,CARROLL,6605423128,6605428202,Municipal
Carter County Sheriff's Office,Richard Stephens,Sheriff,15 Sycamore Street,P.O. Box 8127,Van Buren,63965,CARTER,5733234510,5733234182,County
Carterville Police Dept.,Clinton Worley,Chief,1200 E 1st Street,,Carterville,64835,JASPER,4176732616,4176732278,Municipal
Carthage Police Dept.,Greg Dagnan,Chief,310 W 4th Street,,Carthage,64836,JASPER,4172377200,4172377205,Municipal
Caruthersville Police Dept.,Tony Jones,Chief,1400 Ward Avenue,,Caruthersville,63830,PEMISCOT,5733330216,5733330227,Municipal
Cass County Sheriff's Office,Jeffrey Weber,Sheriff,2501 W. Mechanic,Suite 100,Harrisonville,64701,CASS,8163805200,8163808558,County
Cassville Police Dept.,Dana Kammerlohr,Chief,302 Main Street,,Cassville,65625,BARRY,4178474700,4178473126,Municipal
Cedar County Sheriff's Office,James McCrary,Sheriff,202 South High Street,,Stockton,65785,CEDAR,4172765133,4172765135,County
Center Police Dept.,Dennis McMillen,Mayor,103 S Public Street,PO Box 241,Center,63436,RALLS,5732673770,5732673710,Municipal
Centerview PD,Trenton Neal,Chief,206 S Main Street,,Centerview,64019,JOHNSON,6606563688,6606563688,Municipal
Centralia Police Dept.,Robert Bias,Chief,114 S Rollins St,,Centralia,65240,BOONE,5736822132,5736825571,Municipal
Chaffee Police Dept.,James Chambers,Chief,222 W Yoakum,,Chaffee,63740,SCOTT,5738876911,5738873480,Municipal
Chamois Police Dept.,Chief of Police,Chief,200 South Main St.,,Chamois,65024,OSAGE,5737635541,5737635541,Municipal
Chariton County Sheriff's Office,Richard Hershey,Sheriff,307 S Cherry Street,,Keytesville,65261,CHARITON,6602883277,6602883612,County
Charleston Police Dept.,Robert Hearnes,Chief,204 N Main Street,,Charleston,63834,MISSISSIPPI,5736833737,5736836131,Municipal
Chesterfield Police Dept.,Dorthel Johnson,Chief,690 Chesterfield Parkway West,,Chesterfield,63017,ST. LOUIS,6365373000,6365376799,Municipal
Chilhowee Police Dept.,Robert Vick,Chief,110 South Pennsylvania Ave,,Chilhowee,64733,JOHNSON,6606873738,6607477511,Municipal
Chillicothe Police Dept.,Jonathan Maples,Chief,613 Walnut Street,,Chillicothe,64601,LIVINGSTON,6606462121,6606466511,Municipal
Christian County Sheriff's Office,Bradley Cole,Sheriff,110 W Elm Street  Room#70,,Ozark,65721,CHRISTIAN,4175812332,4175811641,County
Clarence Police Dept.,Raymond Barton,Chief,100 W. Maple,P.O. Box 9,Clarence,63437,SHELBY,6606993700,6606993742,Municipal
Clark County Sheriff's Office,Shawn Webster,Sheriff,518 North Lincoln Street Suite #1,,Kahoka,63445,CLARK,6607272416,6607272445,County
Clark Police Dept.,Logan Sutherland,Chief,206 S Main Street,,Clark,65243,RANDOLPH,5736415713,,Municipal
Clarksburg Police Dept.,Chief of Police,Chief,Box 134,,Clarksburg,65025,MONITEAU,5737873297,,Municipal
Clarksdale Police Dept.,Marshal,Marshal,P.O. Box 317,,Clarksdale,64430,DEKALB,8163935270,,Municipal
Clarkton Police Dept.,David Dillard,Chief,208 S Main   PO Box 98,,Clarkton,63837,DUNKLIN,5734483322,5734485114,Municipal
Clay County Parks Dept.,John Davis,Chief,17201 Paradesian,,Smithville,64089,CLAY,8169350588,8164073411,County
Clay County Sheriff's Office,Paul Vescovo,Sheriff,12 S Water Street,,Liberty,64068,CLAY,8164073749,8164073751,County
Claycomo Police Dept.,Stephen Coonce,Chief,115 E 69 Highway,,Claycomo,64119,CLAY,8164524613,8164528872,Municipal
Clayton Police Dept.,Mark Smith,Acting Chief,10 S. Brentwood Blvd.,,Clayton,63105,ST. LOUIS,3142908406,3148630285,Municipal
Cleveland Police Dept.,Shaun Smith,Chief,209 W Main Street,,Cleveland,64734,CASS,8166183059,8166183243,Municipal
Clever Police Dept.,Jeffrey Lofton,Chief,PO Box 52,210 S Clarke,Clever,65631,CHRISTIAN,4177435109,4177432470,Municipal
Clinton County Sheriff's Office,Larry Fish,Sheriff,207 N Main Suite 6,,Plattsburg,64477,CLINTON,8165392156,8165392346,County
Clinton Police Dept.,Kevin Miller,Chief,101 E Ohio Street,,Clinton,64735,HENRY,6608852679,6608857096,Municipal
Cole Camp Police Dept.,Phillip Robinett,Chief,401 W Main St   PO Box 36,,Cole Camp,65325,BENTON,6606682321,6606682300,Municipal
Cole County Sheriff's Office,John Wheeler,Sheriff,PO Box 426,350 East High,Jefferson City,65102,COLE,5736349160,5736342336,County
Columbia Police Dept.,Geoffrey Jones,Chief,600 E Walnut,,Columbia,65201,BOONE,5738175015,5738743142,Municipal
Concordia Police Dept.,Paul Mapes,Chief,618 S Main    PO Box 847,,Concordia,64020,LAFAYETTE,6604632140,6604637421,Municipal
Cooper County Sheriff's Office,Jerry Wolfe,Sheriff,200 Main St,,Boonville,65233,COOPER,6608822772,6608827075,County
Cooter Police Dept.,JERRY RUSHING,Mayor,P.O. Box 205,,Cooter,63839,PEMISCOT,5736954812,5736954812,Municipal
Corder Police Dept.,Derrick Morgan,Chief,PO Box 275,,Corder,64021,LAFAYETTE,6603942422,6603942440,Municipal
Cottleville Police Dept.,Steven James,Chief,5490 Fifth Street,,Cottleville,63304,ST. CHARLES,6364986464,6364986573,Municipal
Country Club Hills Police Dept.,Daniel Boyer,Acting Chief,7422 Eunice Ave,,Country Club Hills,63136,ST. LOUIS,3142610845,3142612575,Municipal
Country Club Village Police Dept.,Francis Till,Chief,6601 North Belt Hwy,PO Box 8572,St. Joseph,64506,ANDREW,8162324621,8169019593,Municipal
Crane Police Dept.,John Elmore,Chief,PO Box 17,,Crane,65633,STONE,4177238305,4177238486,Municipal
Crawford County Sheriff's Office,Darin Layman,Sheriff,PO Box BE,212 South Third Street,Steelville,65565,CRAWFORD,5737752125,5737752126,County
Creighton Police Dept.,Donna Burton,Mayor,104 W 2nd,,Creighton,64739,CASS,8168044614,6604992613,Municipal
Crestwood Police Dept.,Ronald Compton,Chief,One Detjen Drive,,Crestwood,63126,ST. LOUIS,3147294800,3147294841,Municipal
Creve Coeur Police Dept.,Glennon Eidman,Chief,300 N New Ballas,,Creve Coeur,63141,ST. LOUIS,3148722523,3144325691,Municipal
Crocker Police Dept.,Nicholas Pappas,Chief,PO Box 116,,Crocker,65452,PULASKI,5737362211,5737365438,Municipal
Crystal City Police Dept.,Chad Helms,Chief,130 Mississippi Ave,,Crystal City,63019,JEFFERSON,6369374601,6369376263,Municipal
Crystal Lakes Police Dept.,Daniel Clayton,Chief,14739 Crystal Drive,,Crystal Lakes,64024,RAY,8166632266,8166376677,Municipal
Cuba Police Dept.,Douglas Shelton,Chief,602 S Franklin,,Cuba,65453,CRAWFORD,5738857979,5738851449,Municipal
Dade County Sheriff's Office,Maxie Huffman,Sheriff,201 E Water Street,,Greenfield,65661,DADE,4176372312,4176372508,County
Dallas County Sheriff's Office,Scotty Rice,Sheriff,204 S Poplar St,,Buffalo,65622,DALLAS,4173452441,4173456238,County
Daviess County Sheriff's Office,Benjamin Becerra,Sheriff,102 N Main,Court House,Gallatin,64640,DAVIESS,6606632031,6606632149,County
Deepwater Police Dept.,Mishon Clark,Chief,P.O. Box 18,,Deepwater,64740,HENRY,6606962310,6606962711,Municipal
DeKalb County Sheriff's Office,Andrew Clark,Sheriff,PO Box 137,107 West Main Street,Maysville,64469,DEKALB,8164495802,8164495241,County
Delta Police Dept.,Verlan Graham,Chief,PO Box 757,,Delta,63744,CAPE GIRARDEAU,5737940911,5737940911,Municipal
Dent County Sheriff's Office,Robert Wells,Sheriff,112 East Fifth Street,Suite 7,Salem,65560,DENT,5737293241,5737293058,County
Des Peres Department of Public Safety,Eric Hall,Chief,1000 N Ballas Road,,Des Peres,63131,ST. LOUIS,3148356200,3148356205,Municipal
Desloge Police Dept.,James Bullock,Chief,1000 N Desloge St,,Desloge,63601,ST. FRANCOIS,5734311463,5734314490,Municipal
DeSoto Police Dept.,Jeffrey McCreary,Chief,17 Boyd Street,,DeSoto,63020,JEFFERSON,6365868891,6365868893,Municipal
Dexter Police Dept.,Trevor Pulley,Acting Chief,305 Cooper Street,,Dexter,63841,STODDARD,5736245512,5736248889,Municipal
Diamond Police Dept.,Michael Jones,Chief,PO Box 8,301 E Market,Diamond,64840,NEWTON,4173255411,4173257112,Municipal
Dixon Police Dept.,Gary Brankel,Chief,PO Box 177,303 South Elm,Dixon,65459,PULASKI,5737596610,5737596121,Municipal
Doniphan Police Dept.,Mark Rodgers,Chief,126 Jefferson St,,Doniphan,63935,RIPLEY,5739967123,5739962444,Municipal
Doolittle Police Dept.,Carl Swanson,Chief,380 Eisenhower St,,Doolittle,65401,PHELPS,5737622601,5737620133,Municipal
Douglas County Sheriff's Office,Christopher Degase,Sheriff,Po Box 907,,Ava,65608,DOUGLAS,4176831020,4176833100,County
Drexel Police Dept.,Forrest Routen,Chief,P.O. Box 710,120 South Second,Drexel,64742,CASS,8166192323,8166193684,Municipal
Duenweg Police Dept.,Robert Vice,Chief,PO Box 105,118 Webb Street,Duenweg,64841,JASPER,4176232263,4176232176,Municipal
Dunklin County Sheriff's Office,Robert Holder,Sheriff,PO Box 801,1175 Floyd,Kennett,63857,DUNKLIN,5738882424,5738882604,County
Dunklin R-5 School District Police Department,Mark Grobe,Director,497 Joachim Ave,,Herculaneum,63048,JEFFERSON,6364795200,6364796208,School District
Duquesne Police Dept.,Tommy Kitch,Chief,1501 S Duquesne Rd,,Joplin,64801,JASPER,4177819494,4177814570,Municipal
East Lynne Police Dept.,Susan Lett,Chief,402 E Main St,,East Lynne,64743,CASS,8168693002,8168693002,Municipal
East Prairie Police Dept.,Mark Higgins,Chief,219 N Washington St,,East Prairie,63845,MISSISSIPPI,5736493511,5736495965,Municipal
Easton Police Dept.,William Webb,Chief,106 N. Woodward,P.O. Box 64,Easton,64443,BUCHANAN,8164734571,8164734571,Municipal
Edgar Springs Police Dept.,Joseph Hohner,Chief,PO Box 13,,Edgar Springs,65462,PHELPS,5734356334,5734350224,Municipal
Edgerton Police Dept.,Christopher Stackhouse,Chief,411 Frank Street,,Edgerton,64444,PLATTE,8167903484,8167903333,Municipal
Edina Police Dept.,Ryan Bishop,Chief,204 E. Monticello St,,Edina,63537,KNOX,6603973251,6603972628,Municipal
Edmundson Police Dept.,David Ansell,Chief,4430 Holman Lane,,Edmundson,63134,ST. LOUIS,3144284577,3144286581,Municipal
El Dorado Springs Police Dept.,Jarrod Schiereck,Chief,1207 S Main Street,,El Dorado Springs,64744,CEDAR,4178762313,4178766512,Municipal
Eldon Police Dept.,Brian Kidwell,Chief,111 South Oak Street,,Eldon,65026,MILLER,5733925611,5733923607,Municipal
Ellington Police Dept.,Ryan Barnes,Chief,PO Box 7,100 Tubbs,Ellington,63638,REYNOLDS,5736637717,5736632565,Municipal
Ellisville Police Dept.,Steven Lewis,Chief,37 Weis Ave,,Ellisville,63011,ST. LOUIS,6362277777,6362277744,Municipal
Ellsinore Police Dept.,Dustin Boyer,Chief,11 W Cleveland,,Ellsinore,63937,CARTER,5734290006,5733228376,Municipal
Elsberry Police Dept.,Randall Davis,Chief,106 #A North Third Street,,Elsberry,63343,LINCOLN,5738985456,5738989089,Municipal
Eminence Police Dept.,Steven Hogan,Chief,PO Box 387,,Eminence,65466,SHANNON,5732263717,5732265658,Municipal
Emma Police Department,James Lynn,Chief,101 Elm St,PO Box 140,Emma,65327,SALINE,6604632150,6604630199,Municipal
Eolia Police Department,Chief of Police,Chief,PO Box 7,,Eolia,63344,PIKE,5734857310,5734857310,Municipal
Essex Police Dept.,Donnie Foster,Mayor,PO Box 357,211 Cypress Street,Essex,63846,STODDARD,5732835990,5733612114,Municipal
Eureka Police Dept.,Michael Wiegand,Chief,120 City Hall Drive,,Eureka,63025,ST. LOUIS,6369386600,6369386602,Municipal
Everton Police Dept.,Konnie Brewer,Mayor,PO Box 87,116 W Commercial,Everton,65646,DADE,4175354000,4175356025,Municipal
Excelsior Springs Police Dept.,Clinton Reno,Chief,301 S Main,,Excelsior Springs,64024,CLAY,8166300240,8166304104,Municipal
Exeter Police Dept.,Willie Stephens,Chief,116 Front Street,,Exeter,65647,BARRY,4178352823,4178352066,Municipal
Fair Grove Police Dept.,Richard Mallory,Chief,81 South Orchard Blvd,PO Box 107,Fair Grove,65648,GREENE,4177596482,4177596480,Municipal
Fair Play Police Dept.,Ricky Gooding,Chief,PO Box 55,,Fair Play,65649,POLK,4176542000,4176542518,Municipal
Fairview Police Dept.,Erin Scofield,Chief,100 South Central,PO Box 100,Fairview,64842,NEWTON,4174384746,4176324935,Municipal
Farber Police Dept.,Raymond Bumbales,Chief,214 E Hwy 54   PO Box 37,,Farber,63345,AUDRAIN,5735943344,5732492489,Municipal
Farmington Police Dept.,Richard Baker,Chief,310 Ste Genevieve Ave,,Farmington,63640,ST. FRANCOIS,5737566686,5737560622,Municipal
Fayette Police Dept.,Jeffrey Oswald,Chief,117 S Main Street,,Fayette,65248,HOWARD,6602482241,6602482168,Municipal
Ferguson Police Dept.,Jason Armstrong,Chief,222 S Florissant Rd,,Ferguson,63135,ST. LOUIS,3145223100,3145245290,Municipal
Ferrelview Police Dept.,Daniel Clayton,Chief,205 NW Heady Ave,,Ferrelview,64163,PLATTE,8164645010,8164642383,Municipal
Festus Police Dept.,Timothy Lewis,Chief,100 Park Avenue,,Festus,63028,JEFFERSON,6369373646,6369378086,Municipal
Fleming Police Dept.,Christopher George,Chief,P.O. Box 234,,Henrietta,64036,RAY,8165411839,8164945340,Municipal
Florissant Police Dept.,Timothy Fagan,Chief,1700 North Hwy 67,,Florissant,63033,ST. LOUIS,3148316011,3148306045,Municipal
Foley Police Dept.,Charles Hobby,Chief,617 Elm Street,P.O. Box 81,Foley,63347,LINCOLN,6366622557,6366622067,Municipal
Fordland Police Dept.,Leonard Sanders,Chief,126 East Main,,Fordland,65652,WEBSTER,4177672244,4177674706,Municipal
Foristell Police Dept.,Douglas Johnson,Chief,121 Mulberry Street,,Foristell,63348,ST. CHARLES,6364632123,6366731088,Municipal
Forsyth Police Dept.,Steven Huggins,Acting Chief,PO Box 545,,Forsyth,65653,TANEY,4175463731,4175462052,Municipal
Frankford Police Dept.,Joshua Baker,Chief,PO Box 55,,Frankford,63441,PIKE,5737842618,,Municipal
Franklin County Sheriff's Office,Steven Pelton,Sheriff,#1 Bruns Drive,,Union,63084,FRANKLIN,6365832560,6365832560,County
Fredericktown Police Dept.,Eric Hovis,Chief,120 West Main Street,PO Box 549,Fredericktown,63645,MADISON,5737837401,5737836687,Municipal
Freeman Police Dept.,Jason Lindsey,Chief,105 E Main St   PO Box 98,,Freeman,64746,CASS,8162502902,8168992480,Municipal
Frontenac Police Dept.,Mark Guttmann,Chief,10555 Clayton Road,,Frontenac,63131,ST. LOUIS,3149949300,3149940184,Municipal
Fulton Police Dept.,Steve Myers,Chief,P.O. Box 756,935 South Business 54,Fulton,65251,CALLAWAY,5735923100,5735923109,Municipal
Galena Police Dept.,John Coones,Mayor,PO Box 234,111 Main Street,Galena,65656,STONE,4173576226,4173578033,Municipal
Gallatin Police Dept.,Christopher Richards,Chief,112 E Grand,,Gallatin,64640,DAVIESS,6606633580,6606633937,Municipal
Garden City Police Dept.,Daniel Cantrell,Mayor,107 N Main St,PO Box 20,Garden City,64747,CASS,8167738201,8168627139,Municipal
Gasconade County Sheriff's Office,Mark Williams,Sheriff,119 E First St - Room 22,,Hermann,65041,GASCONADE,5734862424,5734863693,County
Gasconade Police Dept.,Riley Lewis,Chief,General Delivery,,Gasconade,65061,GASCONADE,5732947348,,Municipal
Gentry County Sheriff's Office,Timothy Davis,Sheriff,104 N. Polk St.  PO Box 37,,Albany,64402,GENTRY,6607263721,,County
Gerald Police Dept.,James Helton,Chief,106 East Fitzgerald,,Gerald,63037,FRANKLIN,5737643424,5737644841,Municipal
Gideon Police Dept.,Rinda Dillard,Acting Chief,PO Box 396,109 Main Street,Gideon,63848,NEW MADRID,5734483500,5734483122,Municipal
Gladstone Dept. of Public Safety,Michael Hasty,Chief,7010 N Holmes,,Gladstone,64118,CLAY,8164234021,8164363553,Municipal
Glasgow Police Dept.,Charles Polson,Chief,100 market street,,Glasgow,65254,HOWARD,6603382583,6603385137,Municipal
Glendale Police Dept.,Charles Beaton,Chief,424 N Sappington Rd,,Glendale,63122,ST. LOUIS,3149650000,3149652912,Municipal
Goodman Police Dept.,Benjamin Shoemaker,Chief,203 W Barlow St,,Goodman,64843,MCDONALD,4173648479,4173648650,Municipal
Gordonville Police Dept.,Chief of Police,Chief,PO Box 83,,Gordonville,63752,CAPE GIRARDEAU,5732047602,5732047181,Municipal
Gower Police Dept.,Adam Hill,Chief,94 N 4th Street,,Gower,64454,CLINTON,8164243077,8164243877,Municipal
Grain Valley Police Dept.,James Beale,Acting Chief,711 Main Street,,Grain Valley,64029,JACKSON,8168476250,8168476259,Municipal
Granby Police Dept.,Jacob Kelley,Chief,224 North Beaver Avenue,,Granby,64844,NEWTON,4174723535,4174727139,Municipal
Grandin Police Dept.,Rick Julian,Mayor,PO Box 59,#1 Walnut Street,Grandin,63943,CARTER,5735934237,5735934235,Municipal
Grandview Police Dept.,Charles Iseman,Chief,1200 Main Street,lower level,Grandview,64030,JACKSON,8163164920,8167639774,Municipal
Green City Police Dept.,Klayton Munden,Chief,PO Box 235,4 South Grant Street,Green City,63545,SULLIVAN,6608745900,6608745813,Municipal
Green Ridge Police Dept.,Allan Rohrbach,Mr.,104 W. Pettis Street,,Green Ridge,65332,PETTIS,6605273541,6605273726,Municipal
Greene County Sheriff's Office,James Arnott,Sheriff,1010 North Boonville,,Springfield,65802,GREENE,4178296283,4178296525,County
Greenfield Police Dept.,Timothy Larkin,Chief,115 N Main Street,,Greenfield,65661,DADE,4176372834,4176372836,Municipal
Greenville Police Dept.,Carroll Rainwater,Mayor,108 Walnut St    PO Box 427,,Greenville,63944,WAYNE,5732245358,5732243470,Municipal
Greenwood Police Dept.,Thomas Wright,Chief,709 W Main Street,,Greenwood,64034,JACKSON,8165375020,8165375632,Municipal
Grundy County Sheriff's Office,Rodney Herring,Sheriff,610 Main Street,,Trenton,64683,GRUNDY,6603592828,6603593761,County
Hale Police Dept.,Chief of Police,Chief,P.O. Box 67,413 Oak Street,Hale,64643,CARROLL,6605652916,6605652445,Municipal
Hallsville Police Dept.,Bryan Schultz,Chief,202 Highway 124 E,,Hallsville,65255,BOONE,5736963838,5736960605,Municipal
Hamilton Police Dept.,April Melte,Chief,104 West School,PO Box 217,Hamilton,64644,CALDWELL,8164650870,8165832752,Municipal
Hannibal Police Dept.,Lyndell Davis,Chief,777 Broadway,PO Box 793,Hannibal,63401,MARION,5732210987,5732213966,Municipal
Hardin Police Dept.,Theodore Kuhlman,Chief,100 E. Main Street,,Hardin,64035,RAY,6603984715,6603984880,Municipal
Harrison County Sheriff's Office,Trevor Place,Sheriff,1501 Central Street,,Bethany,64424,HARRISON,6604253199,6604257906,County
Harrisonville Police Dept.,John Hofer,Chief,205 North Lexington,,Harrisonville,64701,CASS,8163808929,8163808935,Municipal
Hartville Police Dept.,Adam Stigall,Chief,200 South Main,PO Box 37,Hartville,65667,WRIGHT,4177417334,4177411461,Municipal
Hawk Point Police Dept.,Robert Bone,Chief,161 W. Lincoln Street,PO Box 302,Hawk Point,63349,LINCOLN,6363384867,6363384867,Municipal
Hayti Police Dept.,Paul Sheckell,Chief,300 E Main Street,PO Box 332,Hayti,63851,PEMISCOT,5733591259,5733590353,Municipal
Hazelwood Police Dept.,Gregg Hall,Chief,415 Elm Grove Lane,,Hazelwood,63042,ST. LOUIS,3148385000,3148385169,Municipal
Henrietta Police Dept.,Richard Pacheco,Acting Chief,406 Main Street,,Henrietta,64036,RAY,8162905337,8164945342,Municipal
Henry County Sheriff's Office,James Oberkrom,Sheriff,200 North Main Street,,Clinton,64735,HENRY,6608857300,6608853173,County
Herculaneum Police Dept.,Mark Tulgetske,Chief,#1 Parkwood Court,,Herculaneum,63048,JEFFERSON,6364794791,6364757213,Municipal
Hermann Police Dept.,Marlon Walker,Chief,1902 Jefferson Street,,Hermann,65041,GASCONADE,5734862211,5734865079,Municipal
Hickory County Sheriff's Office,Brian Whalen,Sheriff,18682 Jackson Street,,Hermitage,65668,HICKORY,4177456415,4177456205,County
Higginsville Police Dept.,Thomas Long,Chief,1922 Main St   PO Box 110,,Higginsville,64037,LAFAYETTE,6605843354,6605843392,Municipal
High Hill Police Dept.,James Dean,Chief,P.O. Box 42,,High Hill,63350,MONTGOMERY,6365851309,,Municipal
Highlandville Police Dept.,Jackie Weeks,Chief,PO Box 157,216 Kentling Avenue,Highlandville,65669,CHRISTIAN,4178396463,4174436096,Municipal
Hillsboro Police Dept.,Steve Meinberg,Chief,101 Main Street,,Hillsboro,63050,JEFFERSON,6367975229,6367892476,Municipal
Hillsdale Police Dept.,John Bernsen,Chief,6614 Jesse Jackson Ave,,St. Louis,63121,ST. LOUIS,3143810527,3143830646,Municipal
Holcomb Police Dept.,Alvin Roberts,Chief,214 W. Main Street,,Holcomb,63852,DUNKLIN,5737923611,5737923782,Municipal
Holden Police Dept.,Trenton Neal,Chief,1110 W Third St,,Holden,64040,JOHNSON,8168504154,8167324155,Municipal
Hollister Police Dept.,Preston Schmidt,Chief,#1 Gage Dr.,,Hollister,65672,TANEY,4173346565,4173392252,Municipal
Holt County Sheriff's Office,David McClain,Sheriff,PO Box 229,107 South Main,Oregon,64473,HOLT,6604463305,6604462020,County
Holts Summit Police Dept.,Gordon McIntyre,Chief,245 S Summit Drive   PO Box 429,,Holts Summit,65043,CALLAWAY,5738968432,5738968297,Municipal
Hornersville Police Dept.,Sabrina Kellums,Chief,300 Main Street,,Hornersville,63855,DUNKLIN,5737372172,5737372704,Municipal
Houston Police Dept.,Timothy Ceplina,Chief,601 S Grand Ave,,Houston,65483,TEXAS,4179673348,4179674252,Municipal
Howard County Sheriff's Office,Michael Neal,Sheriff,100 N Mulberry,,Fayette,65248,HOWARD,6602482477,6602481444,County
Howardville Police Dept.,Eric Williamson,Chief,105 Howard Street,,Howardville,63869,NEW MADRID,5736882774,5736885445,Municipal
Howell County Sheriff's Office,James Shannon,Sheriff,1106 Missouri Ave,,West Plains,65775,HOWELL,4172562544,4172566464,County
Humansville Police Dept.,Justin Weathers,Chief,202 W. Buffalo St,,Humansville,65674,POLK,4177548110,4177548276,Municipal
Huntsville Police Dept.,Randall Mathews,Chief,205 S Main Street,,Huntsville,65259,RANDOLPH,6602774500,6602774551,Municipal
Iberia Police Dept.,Samuel Musick,Acting Chief,803 Hwy 42,,Iberia,65486,MILLER,5737932300,5737932665,Municipal
Independence Police Dept.,Brad Halsey,Chief,223 N Memorial Drive,,Independence,64051,JACKSON,8163257300,8163257809,Municipal
Indian Point Police Dept.,Edward Hamlin,Chief,957 Indian Point Rd,,Branson,65616,STONE,4173864203,4173385279,Municipal
Iron County Sheriff's Office,Roger Medley,Sheriff,220 S Shepherd St,,Ironton,63650,IRON,5735467051,5735467139,County
Iron Mountain Lake Police Dept.,John Washburn,Chief,538 Gallatin Drive,,Bismarck,63624,ST. FRANCOIS,5737342042,5737346390,Municipal
Ironton Police Dept.,Thomas Anderson,Chief,123 N Main Street,,Ironton,63650,IRON,5735467132,5735467770,Municipal
Jackson County Parks & Rec,Joseph Piccinini,Chief,22807 Woods Chapel Road,,Blue Springs,64015,JACKSON,8165034890,8167950986,County
Jackson County Sheriff's Office,Darryl Forte',Sheriff,4001 NE Lakewood Court,,Lee's Summit,64064,JACKSON,8165418017,8167951969,County
Jackson Police Dept.,James Humphreys,Chief,525 S Hope Street,,Jackson,63755,CAPE GIRARDEAU,5732433151,5732439797,Municipal
Jamestown Police Dept.,Gregg Laster,Chief,103 E Row,,Jamestown,65046,MONITEAU,6608492339,6608492335,Municipal
Jasper County Sheriff's Office,Randee Kaiser,Sheriff,231 South Main Street,,Carthage,64836,JASPER,4173588177,4173598620,County
Jasper Police Dept.,Chadwick Karr,Chief,PO Box 247,109 South Main Street,Jasper,64755,JASPER,4173942599,4173943178,Municipal
Jefferson City Police Dept.,Roger Schroeder,Chief,401 Monroe Street,,Jefferson City,65101,COLE,5736346400,5736348726,Municipal
Jefferson College Campus Police Department,Donald Riffe,Chief,1000 Viking Drive,,Hillsboro,63050,JEFFERSON,6364813420,6364672612,University
Jefferson County Sheriff's Office,David Marshak,Sheriff,PO Box 100,,Hillsboro,63050,JEFFERSON,6367975022,6367975049,County
Johnson County Sheriff's Office,Scott Munsterman,Sheriff,278 SW 871 Rd,,Centerview,64019,JOHNSON,6607476469,8167326382,County
Jonesburg Police Dept.,Gregory Houdyshell,Chief,PO Box 256,,Jonesburg,63351,MONTGOMERY,6364885200,6364880411,Municipal
Joplin Police Dept.,Sloan Rowland,Chief,303 E Third Street,,Joplin,64801,JASPER,4176233131,4176234604,Municipal
Kahoka Police Dept.,Billy Conger,Chief,250 North Morgan,,Kahoka,63445,CLARK,6607272512,6607273750,Municipal
Kansas City Int'l Airport Police Dept.,WILLIAM SIMPSON,Acting Chief,1 International Square,,Kansas City,64153,PLATTE,8162432249,8162435432,Airport
Kansas City Police Dept.,Richard Smith,Chief,1125 Locust Street,,Kansas City,64106,JACKSON,8162345000,8162345013,Municipal
Kansas City Southern Railway,Mr. Keith Martin,Chief,4601 Hilry Huckaby III Avenue,,"Shreveport, LA",71107,No County Affiliation,3186766081,,Rail Road
Kearney Police Dept.,Thomas Carey,Chief,PO Box 773,725 West 92 Highway,Kearney,64060,CLAY,8166283925,8166284218,Municipal
Kelso Police Dept.,Matthew Scroggins,Chief,PO Box 279,426 S Messmer St,Kelso,63758,SCOTT,5735453525,5735453527,Municipal
Kennett Police Dept.,Kenneth Wilson,Acting Chief,200 Cedar Street,,Kennett,63857,DUNKLIN,5738884622,5738884933,Municipal
Keytesville Police Dept.,Bob Littleton,Mayor,404 W Bridge,,Keytesville,65261,CHARITON,6602883745,,Municipal
Kimberling City Police Dept.,Craig Alexander,Chief,PO Box 370,34 Kimberling Blvd,Kimberling City,65686,STONE,4177392131,4177392400,Municipal
Kimmswick Police Dept.,Michael McElrath,Chief,6041 3rd Street,,Imperial,63053,JEFFERSON,6364647407,6364644777,Municipal
King City Police Dept.,Jeremy D. Green,Chief,PO Box 653,101 E. Vermont,King City,64463,GENTRY,6605354329,6605356344,Municipal
Kingsville Police Dept.,Brian Hobbs,Chief,PO Box 32,,Kingsville,64061,JOHNSON,6607475511,,Municipal
Kirksville Police Dept.,Steve Farnsworth,Chief,119  E McPherson Street,,Kirksville,63501,ADAIR,6607856945,6606652346,Municipal
Kirkwood Police Dept.,Brian Murphy,Chief,131 W Madison Ave,,Kirkwood,63122,ST. LOUIS,3148225858,3149845917,Municipal
Knob Noster Police Dept.,Brian Kniskern,Chief,218 North State St,,Knob Noster,65336,JOHNSON,6605632233,6605632476,Municipal
Knox County Sheriff's Office,Gerald Gudehus,Sheriff,107 N Fourth Street,,Edina,63537,KNOX,6603972186,,County
Laclede County Sheriff's Office,David Millsap,Sheriff,240 North Adams Avenue,,Lebanon,65536,LACLEDE,4175322311,4175326719,County
Laddonia Police Dept.,Josh Deimeke,Mayor,301 E 1st Street,P.O. Box 70,Laddonia,63352,AUDRAIN,5733732028,5733732028,Municipal
Ladue Police Dept.,Kenneth Andreski,Chief,9345 Clayton Road,,St Louis,63124,ST. LOUIS,3149931214,3144323025,Municipal
Lafayette County Sheriff's Office,Kerrick Alumbaugh,Sheriff,107  South 11th Street,,Lexington,64067,LAFAYETTE,6602593622,6602599077,County
LaGrange Police Dept.,Carl Knoche,Chief,204 W Washington St,,LaGrange,63448,LEWIS,5736554611,5736554528,Municipal
Lake Lafayette Police Dept.,Steven Singer,Acting Chief,1001 Lafayette Dr,,Lake Lafayette,64076,LAFAYETTE,8166338783,8166338955,Municipal
Lake Lotawana Police Dept.,Randal Wilson,Acting Chief,100 Lake Lotawana Dr,,Lake Lotawana,64086,JACKSON,8165784333,8165785714,Municipal
Lake Ozark Police Dept.,Gary Launderville,Chief,PO Box 370,3162 Bagnell Dam Blvd,Lake Ozark,65049,MILLER,5733655371,5733656329,Municipal
Lake St Louis Police Dept.,Christopher DiGiuseppi,Chief,200 Civic Center Dr,,Lake St Louis,63367,ST. CHARLES,6366258018,6366251428,Municipal
Lake Tapawingo Police Dept.,Tammy Taylor,Chief,144 Anchor Drive   Rt 2  Box 135,,Lake Tapawingo,64015,JACKSON,8162293722,8162281912,Municipal
Lake Waukomis Police Dept.,Dennis Todd,Mayor,1147 South Shore Drive,,Lake Waukomis,64151,PLATTE,8167412071,8167413791,Municipal
Lake Winnebago Police Dept.,Richard Williams,Chief,10 N Winnebago Drive,,Lake Winnebago,64034,CASS,8165377900,8165374167,Municipal
Lakeshire Police Dept.,Timothy Sullivan,Chief,10000 Puttington Drive,,Lakeshire,63123,ST. LOUIS,3146314670,3146319926,Municipal
Lamar Police Dept.,Rusty Rives,Chief,1106 Broadway,,Lamar,64759,BARTON,4176823546,4176824484,Municipal
LaMonte Police Dept.,Ronnie McNeive,Mayor,1010 South Oak,PO Box 147,LaMonte,65337,PETTIS,6603475606,6603475828,Municipal
Lanagan Police Dept.,Christopher Creekmore,Chief,P.O. Box 16,,Lanagan,64847,MCDONALD,4174390062,4174362663,Municipal
Lancaster Police Dept.,Jason Moss,Chief,PO Box 477,,Lancaster,63548,SCHUYLER,6604573022,6604573455,Municipal
LaPlata Police Dept.,Jason Bunch,Chief,117 East Moore Street,,La Plata,63549,MACON,6603324343,6603324353,Municipal
Lathrop Police Dept.,David Speiser,Chief,PO Box 225    117 Pine St,,Lathrop,64465,CLINTON,8165286550,8165286552,Municipal
Laurie Police Dept.,Mark Black,Chief,147 South Main,PO Box 1515,Laurie,65038,MORGAN,5733744871,5733740114,Municipal
Lawrence County Sheriff's Office,Brad Delay,Sheriff,240 N. Main Suite 10,,Mount Vernon,65712,LAWRENCE,4174662131,4174711303,County
Lawson Police Dept.,Bruce Summa,Chief,PO Box 185,104 West 3rd,Lawson,64062,RAY,8165807210,8162963184,Municipal
Leadington Police Dept.,Erik Powers,Chief,12 Weir Street,,Leadington,63601,ST. FRANCOIS,5734315196,5735180590,Municipal
Leadwood Police Dept.,William Dickey,Chief,102 E Seventh Street,,Leadwood,63653,ST. FRANCOIS,5735627337,5735622902,Municipal
Leasburg Police Dept.,Jared West,Mr.,2303 Highway H,PO Box 39,Leasburg,65535,CRAWFORD,5732456565,5732456590,Municipal
Lebanon Police Dept.,Keith Shumate,Acting Chief,401 S. Jefferson,PO Box 111,Lebanon,65536,LACLEDE,4175323131,4175321935,Municipal
Lee's Summit Police Dept.,William Forbes,Chief,10 NE Tudor Rd,,Lee's Summit,64086,JACKSON,8169691795,8169691635,Municipal
Leeton Police Dept.,William Brasel,Chief,108 W Summerfield   PO Box 87,,Leeton,64761,JOHNSON,6606534520,6606534575,Municipal
Lewis County Sheriff's Office,David Parrish,Sheriff,107 S Washington Street,,Monticello,63457,LEWIS,5737675311,5737675412,County
Lexington Police Dept.,Ronald Sims,Chief,203 North 25th Street,,Lexington,64067,LAFAYETTE,6602596321,6602593344,Municipal
Liberal Police Dept.,William Cliffman,Chief,207 S Main,,Liberal,64762,BARTON,4178436025,4178436028,Municipal
Liberty Police Dept.,James Simpson,Chief,101 East Kansas St   PO Box 159,,Liberty,64068,CLAY,8164394712,8164394745,Municipal
Licking Police Dept.,Patrick Burton,Chief,P.O. Box 89,,Licking,65542,TEXAS,5736742521,5736742914,Municipal
Lilbourn Police Dept.,Robert Taylor,Mayor,200 North 3rd Street,PO Box 643,Lilbourn,63862,NEW MADRID,5736882513,5736882193,Municipal
Lincoln County Sheriff's Office,John Cottle,Sheriff,65 Business Park Drive,,Troy,63379,LINCOLN,6365288546,6365288564,County
Lincoln Police Dept.,Robert Greene,Chief,PO Box 17,122 East Main,Lincoln,65338,BENTON,6605472718,6605473964,Municipal
Lincoln University DPS,Gary Hill,Chief,1118 Chestnut Street,,Jefferson City,65101,COLE,5736815555,5736810450,University
Linn County Sheriff's Office,Jeffrey Henke,Sheriff,PO Box 142,115 W Jackson Street,Linneus,64653,LINN,6608955312,6608955587,County
Linn Creek Police Dept.,Gregory Berry,Chief,P.O. Box 1177,,Linn Creek,65052,CAMDEN,5733466200,5733465867,Municipal
Linn Police Dept.,Richard Bray,Chief,1200 East Main Street,,Linn,65051,OSAGE,5738974234,5738973009,Municipal
Livingston County Sheriff's Office,Stephen Cox,Sheriff,901 Webster St,,Chillicothe,64601,LIVINGSTON,6606460515,,County
Logan-Rogersville Police Unit,Mark Hall,Director,4700 S. State Highway 125,,Rogersville,65742,GREENE,4179290550,4177533960,School District
Lone Jack Police Dept.,William Forbes,Chief,401 N Bynum,,Lone Jack,64070,JACKSON,8166972417,8166972532,Municipal
Louisiana Police Dept.,April Epperson,Chief,202 S Third Street - Suite 121,,Louisiana,63353,PIKE,5737544021,5737545491,Municipal
Lowry City Police Dept.,Heather Hynek,Chief,PO Box 143 -- City Hall,,Lowry City,64763,ST. CLAIR,4176442338,4176442035,Municipal
Macon County Sheriff's Office,Kevin Shoemaker,Sheriff,101 E Washington St.,,Macon,63552,MACON,6603852062,6603855308,County
Macon Police Dept.,Adam Dawdy,Chief,301 E Bourke Street,,Macon,63552,MACON,6603852195,6603854695,Municipal
Madison County Sheriff's Office,Katy McCutcheon,Sheriff,124 N Main,,Fredericktown,63645,MADISON,5737832234,5735611211,County
Malden Police Dept.,Jarrett Bullock,Chief,112 East Laclede Street,,Malden,63863,DUNKLIN,5732762211,5732762379,Municipal
Manchester Police Dept.,Scott Will,Chief,200 Highlands Blvd Drive,,Manchester,63011,ST. LOUIS,6362072816,6362072829,Municipal
Mansfield Police Dept.,Bradley Hanger,Chief,PO Box 467,,Mansfield,65704,WRIGHT,4179248212,4179249327,Municipal
Maplewood Police Dept.,Stephen Kruse,Chief,7601 Manchester Rd,,Maplewood,63143,ST. LOUIS,3146463620,3146463696,Municipal
Marble Hill Police Dept.,Earl Parker,Mayor,305 First Street,,Marble Hill,63764,BOLLINGER,5732382970,5732384991,Municipal
Marceline Police Dept.,Robert Donelson,Chief,123 East Santa Fe Avenue,,Marceline,64658,LINN,6603763556,6603763301,Municipal
Maries County Sheriff's Office,Harold Heitman,Sheriff,P.O. Box 23,211 4th Street,Vienna,65582,MARIES,5734223381,5734223100,County
Marion County Sheriff's Office,James Shinn,Sheriff,1703 Marion City Rd,,Palmyra,63461,MARION,5737692077,5737692080,County
Marionville Police Dept.,Richard Witthuhn,Chief,PO Box 410,,Marionville,65705,LAWRENCE,4172587578,4172582609,Municipal
Marquand Police Dept.,Edwin Kennon,Mayor,119 S. Harding Street,,Marquand,63655,MADISON,5737837780,5737837780,Municipal
Marshall Police Dept.,Michael Donnell,Chief,461 West Arrow,,Marshall,65340,SALINE,6608867411,6608867505,Municipal
Marshfield Police Dept.,Charles Fannen,Chief,798 S Marshall,,Marshfield,65706,WEBSTER,4174684402,,Municipal
Marston Police Dept.,Julie Brock,Mayor,209 E Elm,P.O. Box F,Marston,63866,NEW MADRID,5736432416,5736439032,Municipal
Martinsburg Police Dept.,Brian Maskey,Chief,PO Box 128,,Martinsburg,65264,AUDRAIN,5734926616,5734926054,Municipal
Maryland Heights Police Dept.,William Carson,Chief,11911 Dorsett Rd,,Maryland Heights,63043,ST. LOUIS,3147382300,3147382500,Municipal
Maryville Dept. of Public Safety,R. Keith Wood,Director,222 E Third Street,,Maryville,64468,NODAWAY,6605623209,6605822121,Municipal
Matthews Police Dept.,Dwayne Whitworth,Chief,PO Box 54,,Matthews,63867,NEW MADRID,5734712541,5734812353,Municipal
Maysville Police Dept.,Gerry Pearl,Mayor,PO Box 470,,Maysville,64469,DEKALB,8164492185,8164495755,Municipal
McDonald County Sheriff's Office,Michael Hall,Sheriff,PO Box 68,300 East 7th Street,Pineville,64856,MCDONALD,4172234319,4172232331,County
Memphis Police Dept.,William Holland,Chief,112 S Market - Suite #3,,Memphis,63555,SCOTLAND,6604652612,6604658584,Municipal
Mercer County Sheriff's Office,Stephen Stockman,Sheriff,802 East Main,,Princeton,64673,MERCER,6607483165,6607483180,County
Merriam Woods Police Dept.,Mark Trog,Chief,4401 State Hwy. 176,,Merriam Woods,65740,TANEY,4172944390,4173022503,Municipal
Metropolitan Community College Police Department,Londell Jamerson,Chief,3217 Broadway,Suite 130,Kansas City,64111,JACKSON,8166041111,8164821200,University
Mexico Police Dept.,Susan Rockett,Chief,300 N Coal Street,,Mexico,65265,AUDRAIN,5735812100,5735818597,Municipal
Milan Police Dept.,Gail Hayes,Chief,212 E 2nd St,P.O. Box 247,Milan,63556,SULLIVAN,6602654499,6602653005,Municipal
Miller County Sheriff's Office,Louis Gregoire,Sheriff,1999 Hwy 52,,Tuscumbia,65082,MILLER,5733692341,5733698870,County
Miller Police Dept.,Chief of Police,Chief,PO Box 188,105 S. Washam,Miller,65707,LAWRENCE,4174523371,4174522523,Municipal
Miner Police Dept.,James Buckley,Chief,"103 State Hwy ""H""",,Miner,63801,SCOTT,5734718568,5734719110,Municipal
Mineral Area College DPS,Tammy Belfield,Acting Chief,PO Box 1000,5270 Flat River Rd,Park Hills,63601,ST. FRANCOIS,5735182148,5735182286,University
Mississippi County Sheriff's Office,Britton Ferrell,Sheriff,200 W Commercial St,,Charleston,63834,MISSISSIPPI,5736832111,5736833852,County
Missouri Univ. of Science & Technology Police Dept,Douglas Roberts,Chief,1201 N. State Street,G-10 Campus Support Facility,Rolla,65409,PHELPS,5733414300,5733414307,University
Missouri Western DPS,Jill Voltmer,Chief,4525 Downs Dr,Student Union Rm 201,St. Joseph,64507,BUCHANAN,8162714438,8162715619,University
MO Capitol Police,Brian Kempker,Acting Chief,630 West Main,,Jefferson City,65101,COLE,5737512764,5735263898,State Agency
MO Department of Revenue,Lester Elder,Chief Investigator,P.O. Box 2073,"301 West High Street, Room 219",Jefferson City,65102,COLE,5735265122,5737514809,State Agency
MO Dept. Natural Resources-Park Rangers,Thomas Dresner,Chief,PO Box 176,,Jefferson City,65102,COLE,5737518883,5737518359,State Agency
MO Dept. of Conservation,Cheryl Fey,Chief,2901 W Truman Blvd,,Jefferson City,65109,COLE,5737514115,5737518971,State Agency
MO Division of Alcohol and Tobacco Control,Christin Templeton,Chief,"1738 East Elm, Lower Level",,Jefferson City,65102,COLE,5737512964,5735264369,State Agency
MO Division of Fire Safety,James Bean,Chief,PO Box 844,,Jefferson City,65102,COLE,5737512930,5735264600,State Agency
MO Social Services STAT Team,Emerson McGuire,Chief,"301 W. High Street, Room 590",PO Box 208,Jefferson City,65102,COLE,5737515980,5737511479,State Agency
MO State Highway Patrol,Eric Olson,Colonel,1510 East Elm Street,PO Box 568,Jefferson City,65101,COLE,5735266117,5737519924,State Agency
Moberly Police Dept.,Troy Link,Chief,300 N Clark Street,,Moberly,65270,RANDOLPH,6602630346,6602638540,Municipal
Moline Acres Police Dept.,Gregory Moore,Chief,2449 Chambers Road,,St. Louis,63136,ST. LOUIS,3148682433,3148686779,Municipal
Monett Police Dept.,Georges Daoud,Chief,1901 East Cleveland,,Monett,65708,BARRY,4172354241,4172354235,Municipal
Moniteau County Sheriff's Office,Anthony Wheatley,Sheriff,110 N High Street,,California,65018,MONITEAU,5737962525,5737964057,County
Monroe City Police Dept.,Tyler Wheeler,Chief,300 N Main,,Monroe City,63456,MONROE,5737354585,5737352128,Municipal
Monroe County Sheriff's Office,James Hoffman,Sheriff,300 N Main Street,,Paris,65275,MONROE,6603274060,6603275188,County
Montgomery City Police Dept.,David Turner,Chief,723 North Sturgeon,,Montgomery City,63361,MONTGOMERY,5735642511,5735643802,Municipal
Montgomery County Sheriff's Office,Matthew Schoo,Sheriff,211 E Third Street,Ste 209,Montgomery City,63361,MONTGOMERY,5735648084,5735648083,County
Morehouse Police Dept.,Jackie Hays,Chief,113 Beech St     PO Box 53,,Morehouse,63868,NEW MADRID,5736675575,5736679091,Municipal
Morgan County Sheriff's Office,Norman Dills,Sheriff,211 East Newton Suite 2,,Versailles,65084,MORGAN,5733785481,5733787171,County
Morley Police Dept.,Adam Bequette,Chief,P.O. Box 339,104 N. Kirkwood Street,Morley,63767,SCOTT,5732623094,5732622478,Municipal
Moscow Mills Police Dept.,Terry Foster,Chief,995 Main Street,,Moscow Mills,63362,LINCOLN,6363564612,6363564062,Municipal
Mound City Police Dept.,John Panning,Chief,PO Box 215,205 East Sixth Street,Mound City,64470,HOLT,6604423636,8168973985,Municipal
Mount Vernon Police Dept.,David Hubert,Chief,PO Box 70,319 E Dallas St,Mount Vernon,65712,LAWRENCE,4174662122,4174669192,Municipal
Mountain Grove Police Dept.,DANIEL BLEDSOE,Chief,102 East State Street,,Mountain Grove,65711,WRIGHT,4179265181,4179263326,Municipal
Mountain View Police Dept.,James Perkins,Chief,233 W Second St   PO Box 1270,,Mountain View,65548,HOWELL,4179342525,4179346796,Municipal
MSSU Police Department,Kenneth Kennedy,Chief,3950 East Newman Road,,Joplin,64801,JASPER,4176262222,4176253503,Municipal
Napoleon Police Dept.,Robert Vick,Chief,191 W 2nd Street,,Napoleon,64074,LAFAYETTE,8164277808,8169348560,Municipal
Naylor Police Dept.,Chief of Police,Chief,101 N Front St    PO Box 8,,Naylor,63953,RIPLEY,5733992592,,Municipal
Neosho Police Dept.,David Kennedy,Chief,201 North College Street,,Neosho,64850,NEWTON,4174518012,4174518008,Municipal
Nevada Police Dept.,Casey Crain,Chief,120 S Ash Street,,Nevada,64772,VERNON,4174485171,4173811923,Municipal
New Bloomfield Police Dept,Greg Rehagen,Mayor,501 Glenwood,,New Bloomfield,65063,CALLAWAY,5734913600,5734913722,Municipal
New Florence Police Dept.,David Ingle,Chief,217 South Main Street,PO Box 70,New Florence,63363,MONTGOMERY,5738351111,5738352104,Municipal
New Franklin Police Dept.,Mike Wise,Chief,130 East Broadway,PO Box 96,New Franklin,65274,HOWARD,6608482075,6608482183,Municipal
New Haven Police Dept.,Christopher Hammann,Chief,1100 Olive Street,,New Haven,63068,FRANKLIN,5732372211,5732375686,Municipal
New London Police Dept.,Ryan Sparks,Chief,PO Box 425     419 S Main Street,,New London,63459,RALLS,5739854041,5739854231,Municipal
New Madrid County Sheriff's Office,Terry Stevens,Sheriff,#1 Courthouse Square,,New Madrid,63869,NEW MADRID,5737482516,5737486022,County
New Madrid Police Dept.,Danny Higgerson,Chief,342 US Hwy 61,,New Madrid,63869,NEW MADRID,5737485901,5737482019,Municipal
Newburg Police Dept.,Chris Finch,Chief,"2nd & Main - Drawer ""K""",,Newburg,65550,PHELPS,5737622135,5737623704,Municipal
Newton County Sheriff's Office,Christopher Jennings,Sheriff,208 West Coler,,Neosho,64850,NEWTON,4174518300,4174518316,County
Niangua Police Dept.,Teresa Lamm,Chief,"135 S. Commercia, POB 81",,Niangua,65713,WEBSTER,4174736449,4174736449,Municipal
Nixa Police Dept.,Joseph Campbell,Chief,PO Box 395,,Nixa,65714,CHRISTIAN,4177252510,4177250915,Municipal
Nodaway County Sheriff's Office,Randy Strong,Sheriff,404 North Vine,,Maryville,64468,NODAWAY,6605827451,6605828558,County
Noel Police Dept.,Paul Gardner,Marshal,118 Gratz Street,PO Box 1010,Noel,64854,MCDONALD,4174756237,4174756334,Municipal
Norborne Police Dept.,Chief of Police,Chief,109 E Second,,Norborne,64668,CARROLL,6605933737,6605933514,Municipal
Norfolk Southern Railroad Police Dept.,Craig Johnson,Mr.,7021 Hall Street,,St. Louis,63147,ST. LOUIS CITY,3146791807,3146791830,Rail Road
Normandy Police Dept.,Francis Mininni,Chief,7700 Natural Bridge Rd,,Normandy,63121,ST. LOUIS,3143853300,3143851054,Municipal
North Kansas City Police Dept.,Kevin Freeman,Chief,2020 Howell,,North Kansas City,64116,CLAY,8162746013,8162210432,Municipal
Northmoor Police Dept.,Kelly Clark,Chief,2039 NW 49th Terrace,,Northmoor,64151,PLATTE,8167413960,8167411126,Municipal
Northwoods Police Dept.,Norman Campbell,Chief,4608 Oakridge Blvd,,Northwoods,63121,ST. LOUIS,3143856000,3143859690,Municipal
NW MO State Univ Police Dept.,Clarence Green,Chief,800 University Drive,,Maryville,64468,NODAWAY,6605621254,6605621907,University
O'Fallon Police Dept.,Timothy Clothier,Chief,1019 Bryan Road,,O'Fallon,63366,ST. CHARLES,6362403200,6363795697,Municipal
Oak Grove Police Dept.,Bryon Price,Chief,1300 S Broadway,,Oak Grove,64075,JACKSON,8166903773,8166905861,Municipal
Oakview Police Dept.,Carl Drowns,Chief,6404 N Locust,,Oakview,64118,CLAY,8164369150,8164362671,Municipal
Odessa Police Dept.,Joshua Thompson,Chief,301 South 1st Street,,Odessa,64076,LAFAYETTE,8166337575,8166337221,Municipal
Old Monroe Police Dept.,Kimla Lowery,Chief,PO Box 212,101 Locust Street,Old Monroe,63369,LINCOLN,6366615112,6366615373,Municipal
Olivette Police Dept.,David Wolf,Colonel,1140 Dielman Road,,Olivette,63132,ST. LOUIS,3146453000,3149835287,Municipal
Oran Police Dept.,Gregory Ourth,Chief,"PO Drawer ""R""",,Oran,63771,SCOTT,5732623533,5732623042,Municipal
Oregon County Sheriff's Office,Eric King,Sheriff,PO Box 265,,Alton,65606,OREGON,4177787888,4177786641,County
Oregon Police Dept.,Joseph Martin,Chief,P.O. Box 225,104 S. Main Street,Oregon,64473,HOLT,6604463695,6604463668,Municipal
Oronogo Police Dept.,Bradley Winningham,Chief,PO Box 78,653 E Central St,Oronogo,64855,JASPER,4176731916,4176732113,Municipal
Orrick Police Dept.,Randy Dinwiddie,Chief,PO Box 227,207 W South Front St,Orrick,64077,RAY,8164965500,8164960190,Municipal
Osage Beach Police Dept.,Michael Davis,Chief,1000 City Parkway,,Osage Beach,65065,CAMDEN,5733022010,5733483277,Municipal
Osage County Sheriff's Office,Michael Bonham,Sheriff,106 East Main Street,PO Box 619,Linn,65051,OSAGE,5738973927,5738974383,County
Osceola Police Dept.,Betty Roth,Chief,210 Olive Street,PO Box 561,Osceola,64776,ST. CLAIR,4176468421,4176468415,Municipal
Otterville Police Dept.,William Smith,Chief,PO Box 58 - City Hall,,Otterville,65348,COOPER,6603664613,6603664694,Municipal
Overland Police Dept.,Andrew Mackey,Chief,2410 Goodale Ave,,Overland,63114,ST. LOUIS,3144281221,3142272806,Municipal
Owensville Police Dept.,Robert Rickerd,Chief,109 North 2nd Street,,Owensville,65066,GASCONADE,5734372195,5734375156,Municipal
Ozark County Sheriff's Office,Darrin Reed,Sheriff,1818 County Road 806,,Gainesville,65655,OZARK,4176794633,4176793201,County
Ozark Police Dept.,Justin Arnold,Acting Chief,201 E Brick,,Ozark,65721,CHRISTIAN,4175816600,4175818804,Municipal
Pacific Police Dept.,Matthew Mansell,Chief,300 Hoven Drive,,Pacific,63069,FRANKLIN,6362572424,6362572641,Municipal
Pagedale Police Dept.,Eddie Simmons,Chief,1420 Ferguson Ave,,Pagedale,63133,ST. LOUIS,3147261112,3147265485,Municipal
Palmyra Police Dept.,Thomas Bogue,Chief,200 N. Main,PO Box 32,Palmyra,63461,MARION,5737695540,5737694287,Municipal
Park Hills Police Dept.,Richard McFarland,Chief,8 Municipal Dr.,,Park Hills,63601,ST. FRANCOIS,5734313122,5734315074,Municipal
Parkville Police Dept.,Kevin Chrisman,Chief,8880 Clark Avenue,,Parkville,64152,PLATTE,8167414454,8167416380,Municipal
Parma Police Dept.,Rufus Williamson,Mayor,209 South Broad Street,PO Box 668,Parma,63870,NEW MADRID,5733574375,5733574047,Municipal
Peculiar Police Dept.,Harry Gurin,Chief,224 N. Main Street,P.O. Box 653,Peculiar,64078,CASS,8167795102,8167585103,Municipal
Pemiscot County Sheriff's Office,Thomas Greenwell,Sheriff,800 Ward Avenue,,Caruthersville,63830,PEMISCOT,5733334101,5733330713,County
Perry County Sheriff's Office,Gary Schaaf,Sheriff,710 S Kingshighway Street,,Perryville,63775,PERRY,5735474576,5735477461,County
Perry Police Dept.,Edward Landis,Chief,127 East Main Street,,Perry,63462,RALLS,5735653131,5735653148,Municipal
Perryville Police Dept.,Direk Hunt,Chief,120 N Jackson,,Perryville,63775,PERRY,5735474546,5735472261,Municipal
Pettis County Sheriff's Office,Kevin Bond,Sheriff,319 S Lamine,,Sedalia,65301,PETTIS,6608270052,6608265254,County
Pevely Police Dept.,Alan Eickhoff,Chief,401 Main Street,P.O. Box 304,Pevely,63070,JEFFERSON,6364755301,6364754632,Municipal
Phelps County Sheriff's Office,Richard Lisenbe,Sheriff,500 West 2nd Street,,Rolla,65401,PHELPS,5734263825,5734263857,County
Piedmont Police Dept.,Richard Sanders,Chief,P. O Box 98,116 West Green Street,Piedmont,63957,WAYNE,5732234300,5732237227,Municipal
Pierce City Police Dept.,Michael Abramovitz,Chief,One Frisco Place,,Pierce City,65723,LAWRENCE,4174762323,4174765580,Municipal
Pike County Sheriff's Office,Stephen Korte,Sheriff,1600 Business 54 West,,Bowling Green,63334,PIKE,5733243202,5733243972,County
Pilot Grove Police Dept.,Peter Busalacki,Chief,213 College Street,,Pilot Grove,65276,COOPER,6608344300,6608344088,Municipal
Pilot Knob Police Dept.,Darren Kelley,Chief,PO Box 188,112 South McCune Street,Pilot Knob,63663,IRON,5735464215,5735467581,Municipal
Pineville Police Dept.,Christopher Owens,Marshal,PO Box 34,,Pineville,64856,MCDONALD,4172234369,4172233503,Municipal
Platte City Police Dept.,Joseph Wellington,Chief,355 Main Street,,Platte City,64079,PLATTE,8168585150,8168585981,Municipal
Platte County Sheriff's Office,Mark Owen,Sheriff,415 Third St - Suite 10,,Platte City,64079,PLATTE,8168583521,8168583053,County
Platte Woods Police Dept.,JAMES KERNS,Acting Chief,6750 NW Tower Drive,,Platte Woods,64151,PLATTE,8167417973,8167414261,Municipal
Plattsburg Police Dept.,David Couzens,Chief,114 W Maple St,,Plattsburg,64477,CLINTON,8165392148,8169303260,Municipal
Pleasant Hill Police Dept.,Robert Driscoll,Chief,203 Paul Street,,Pleasant Hill,64080,CASS,8165409109,8169879113,Municipal
Pleasant Hope Police Dept.,Terin Cantrell,Chief,5492 Suite C State HWY H,,Pleasant Hope,65725,POLK,4172675027,4174672114,Municipal
Pleasant Valley Police Dept.,Gordon Abraham,Chief,6502 Royal Street,,Pleasant Valley,64068,CLAY,8167817373,8167817195,Municipal
Polk County Sheriff's Office,Edward Morrison,Sheriff,113 E Jefferson,,Bolivar,65613,POLK,4177779020,4177777684,County
Polo Police Dept.,Jonathan Abbott,Chief,P.O. Box 307,,Polo,64671,CALDWELL,6603542251,,Municipal
Poplar Bluff Police Dept.,Danny Whiteley,Chief,1111 Poplar Street,,Poplar Bluff,63901,BUTLER,5737855776,5737122591,Municipal
Portageville Police Dept.,Ronnie Adams,Chief,201 East Main Street,,Portageville,63873,NEW MADRID,5733795500,5733795802,Municipal
Potosi Police Dept.,William Gum,Chief,#1 Police Plaza,,Potosi,63664,WASHINGTON,5734385468,5734385874,Municipal
Prairie Home Police Dept.,Benjamin Burch,Chief,P.O. Box 39,416 Highway Drive,Prairie Home,65068,COOPER,6608415524,,Municipal
Pulaski County Sheriff's Office,Jimmy Bench,Sheriff,301 Historic Rt 66 E - Suite 136,,Waynesville,65583,PULASKI,5737744796,5737744761,County
Purdy Police Dept.,Jackie Lowe,Chief,PO Box 216,,Purdy,65734,BARRY,4174427429,4174427165,Municipal
Putnam County Sheriff's Office,Jason Knight,Sheriff,Courthouse  Room 0101,,Unionville,63565,PUTNAM,6609472515,6609473700,County
Puxico Police Dept.,Ricky Sheren,Chief,141 N. Hickman,,Puxico,63960,STODDARD,5732223565,5732223478,Municipal
Queen City Police Dept.,Jason Bunch,Chief,Box 400,,Queen City,63561,SCHUYLER,6607662735,6607662804,Municipal
Qulin Police Dept.,Michael Lashley,Chief,245 D Street,PO Box 172,Qulin,63961,BUTLER,5733284488,5733281288,Municipal
Ralls County Sheriff's Office,Gerry Dinwiddie,Sheriff,209 East 4th Street,,New London,63459,RALLS,5739855611,5739853100,County
Randolph County Sheriff's Office,Mark Nichols,Sheriff,372 Hwy JJ,Suite 1B,Huntsville,65259,RANDOLPH,6602775095,6602775084,County
Ray County Sheriff's Office,Garry Bush,Sheriff,200 W 9th St,,Henrietta,64036,RAY,8162905323,8162905548,County
Raymore Police Dept.,Jan Zimmerman,Chief,100 Municipal Circle,,Raymore,64083,CASS,8163310530,8163310564,Municipal
Raytown Police Dept.,Robert Kuehl,Chief,10000 E 59th Street,,Raytown,64133,JACKSON,8167376016,8167376053,Municipal
Reeds Spring Police Dept.,Tracy West,Chief,"22595 Main Street, PO Box 171",,Reeds Spring,65737,STONE,4172723107,4172721030,Municipal
Republic Police Dept,Thomas Sells,Chief,540 Civic Blvd,,Republic,65738,GREENE,4177323910,4177323990,Municipal
Reynolds County Sheriff's Office,Thomas Stout,Sheriff,Box 16,,Centerville,63633,REYNOLDS,5736482491,5736482296,County
Rich Hill Police Dept,David Johnson,Chief,120 N 7th St,,Rich Hill,64779,BATES,4173952222,4173954555,Municipal
Richland Police Dept,Jaime Solis,Acting Chief,201 S Chestnut   PO Box 798,,Richland,65556,PULASKI,5737654144,5737653093,Municipal
Richmond Heights Police Dept,GERALD ROHR,Chief,7447 Dale Ave,,Richmond Heights,63117,ST. LOUIS,3146453000,3146553635,Municipal
Richmond Police Dept,Chad Burnine,Chief,207 Summit Street,,Richmond,64085,RAY,8167763575,8164705961,Municipal
Ripley County Sheriff's Office,Michael Barton,Sheriff,301 Lafayette Street,,Doniphan,63935,RIPLEY,5739962129,5739964318,County
Risco Police Dept,Paul Hayes,Mayor,PO Box 238,,Risco,63874,NEW MADRID,5733965650,5733965650,Municipal
Riverside Police Dept,Christopher Skinrood,Chief,2990 NW Vivion Rd,,Riverside,64150,PLATTE,8167411191,8167410895,Municipal
Riverview Police Dept,Jeffrey Dominguez,Chief,9699 Lilac Drive,,Riverview,63137,ST. LOUIS,3148689130,3148683252,Municipal
Rock Hill Police Dept,Donald Wickenhauser,Chief,827 North Rock Hill Rd,,Rock Hill,63119,ST. LOUIS,3149626600,3149626603,Municipal
Rock Port Police Dept,Shannon Sherwood,Chief,500 S Main Street,,Rock Port,64482,ATCHISON,6607442636,6607445553,Municipal
Rockaway Beach Police Dept,Jody Intravia,Chief,PO Box 315,,Rockaway Beach,65740,TANEY,4172949070,4175619566,Municipal
Rogersville Police Dept,Edward Laughlin,Chief,211 E Center   Box 19,,Rogersville,65742,WEBSTER,4177532884,4177532871,Municipal
Rolla Police Dept,Sean Fagan,Chief,1007 N Elm St,,Rolla,65401,PHELPS,5733081213,5733646346,Municipal
Rosebud Police Dept,Mason Griffith,Chief,PO Box 197,307 N. Cedar Street,Rosebud,63091,GASCONADE,5734377770,5737647673,Municipal
Rutledge Police Dept.,Jason Moss,Chief,P.O. Box 35,,Rutledge,63563,SCOTLAND,6604652106,6608835805,Municipal
Salem Police Dept,John Chase,Chief,500 N Jackson Street,,Salem,65560,DENT,5737294242,5737293918,Municipal
Saline County Sheriff's Office,Cindi Mullins,Sheriff,1915 W. Arrow,PO Box 366,Marshall,65340,SALINE,6608865511,6608865513,County
Salisbury Police Dept,James Cole,Chief,123 West 2nd Street,123-B W Second Street,Salisbury,65281,CHARITON,6603886875,6603885722,Municipal
Sarcoxie Police Dept,Brandy Corum,Acting Chief,113 N. 6th,PO Box 130,Sarcoxie,64862,JASPER,4175487242,4175487337,Municipal
Savannah Police Dept,David Vincent,Chief,402 Court Street,,Savannah,64485,ANDREW,8163247541,8163245997,Municipal
Schuyler County Sheriff's Office,Joseph Wuebker,Sheriff,PO Box 355,,Lancaster,63548,SCHUYLER,6609569493,6609560351,County
Scotland County Sheriff's Office,Terry Winn,Sheriff,117 S Market St - Room 3,,Memphis,63555,SCOTLAND,6604652151,6604657005,County
Scott City Police Dept,Michael Culler,Chief,618 Main Street,,Scott City,63780,SCOTT,5732642121,5732642125,Municipal
Scott County Sheriff's Office,Wesley Drury,Sheriff,PO Box 279,131 South New Madrid,Benton,63736,SCOTT,5735453525,5735453527,County
Sedalia Police Dept,Matthew Wirt,Chief,201 W Second Street,,Sedalia,65301,PETTIS,6608268100,6608267040,Municipal
Seligman Police Dept,Kevin Phillips,Chief,29144 Main Street,,Seligman,65745,BARRY,4176623600,4176623718,Municipal
Senath Police Dept,Omar Karnes,Chief,PO Box 609,301 W Commercial,Senath,63876,DUNKLIN,5737382818,5737383201,Municipal
Seneca Police Dept,James Altic,Chief,517 Oneida,,Seneca,64865,NEWTON,4177768158,4177762943,Municipal
Seymour Police Dept,William Pogue,Chief,PO Box 247,124 West Washington Street,Seymour,65746,WEBSTER,4179354012,4179354653,Municipal
Shannon County Sheriff's Office,Darrin Brawley,Sheriff,PO Box 880,,Eminence,65466,SHANNON,5732263615,5732265561,County
Shelbina Police Dept,Gerald Fenton,Chief,120 East Walnut Street,,Shelbina,63468,SHELBY,5735882220,5735887901,Municipal
Shelby County Sheriff's Office,Dennis Perrigo,Sheriff,100 E. Main,,Shelbyville,63469,SHELBY,5736332161,5736332493,County
Shrewsbury Police Dept,Lisa Vargas,Chief,4400 Shrewsbury Ave,,Shrewsbury,63119,ST. LOUIS,3146475656,3146470019,Municipal
Sikeston Department of Public Safety,James McMillen,Acting Chief,201 S. Kingshighway,,Sikeston,63801,SCOTT,5734716200,5734717872,Municipal
Silex Police Dept,Richard Daleen,Acting Chief,14 N 1st,310 Cherry St,Silex,63377,LINCOLN,5733845959,5733845149,Municipal
Slater Police Dept,Troy Goff,Chief,117  N Walnut,,Slater,65349,SALINE,6605292241,6605292256,Municipal
Smithton Police Dept,Damian Lemens,Mayor,101 W Washington,,Smithton,65350,PETTIS,6603435475,6603433740,Municipal
Smithville Police Dept,Jason Lockridge,Chief,107 W Main Street,,Smithville,64089,CLAY,8165320500,8168733364,Municipal
Southeast Missouri State University - DPS,Beth Glaus,Director,1401 North Sprigg,,Cape Girardeau,63701,CAPE GIRARDEAU,5736512215,5736512707,University
Southwest City Police Dept,Harvey Gow,Chief,302 South Main,,Southwest City,64863,MCDONALD,4177623768,4177623038,Municipal
Sparta Police Dept,Trampus Taylor,Chief,P.O. Box 246,,Sparta,65753,CHRISTIAN,4172425511,4176345785,Municipal
Springfield Police Dept,Paul Williams,Chief,321 E Chestnut Expressway,,Springfield,65802,GREENE,4178641782,4178642052,Municipal
Springfield-Branson National Airport Police Dept.,Kevin Houseman,Chief,2300 N Airport Blvd Ste 100,,Springfield,65802,GREENE,4178680500,4178680581,Airport
St Ann Police Dept,Aaron Jimenez,Chief,10405 St Charles Rock Rd,,St Ann,63074,ST. LOUIS,3144278000,3144286825,Municipal
St Charles City Parks & Recreation,Todd Kassabaum,Chief,1900 W Randolph St,,St Charles,63301,ST. CHARLES,6369493377,6369493337,Municipal
St Charles Community College DPS,Robert Ronkoski,Chief,4601 Mid Rivers Mall Dr,,Cottleville,63376,ST. CHARLES,6369228604,6369228558,University
St Charles County Dept of Corrections,Daniel S. Keen,Director,301 N Second Street,,St Charles,63301,ST. CHARLES,6369493003,6369493054,County
St Charles County Police Department,David Tiefenbrunn,Acting Chief,101 Sheriff Dierker Court,,O'Fallon,63366,ST. CHARLES,6369497900,6369493077,County
St Charles County Sheriff's Office,Scott Lewis,Sheriff,201 N. Second Street,Suite 429,St. Charles,63301,ST. CHARLES,6369493010,6369497372,County
St Charles Police Dept,Randall McKinley,Chief,1781 Zumbehl Rd,,St Charles,63303,ST. CHARLES,6369493300,6369493299,Municipal
St Charles Prosecuting Attorney's Office,Len Tracy,Chief Investigator,300 N. Second Street #601,,St. Charles,63301,ST. CHARLES,6369497355,6369497360,County
St Clair County Sheriff's Office,Scott Keeler,Sheriff,360 Chestnut,PO Box 546,Osceola,64776,ST. CLAIR,4176462565,4176462852,County
St Clair Police Dept,William Hammack,Chief,#1 Paul Parks Dr,,St Clair,63077,FRANKLIN,6366291313,6366295730,Municipal
St Francois County Sheriff's Office,Daniel Bullock,Sheriff,1550 Doubet Road,,Farmington,63640,ST. FRANCOIS,5737563252,5737564327,County
St James Police Dept,Ronald Jones,Chief,200 North Bourbeuse Street,,St James,65559,PHELPS,5732657012,5732658182,Municipal
St John Police Dept,Robert Connell,Chief,8944 St Charles Rock Rd,,St John,63114,ST. LOUIS,3144278700,3144276818,Municipal
St Joseph Police Dept,Christopher Connally,Chief,501 Faraon,,St Joseph,64501,BUCHANAN,8162714701,8162715376,Municipal
St Louis Airport Police Department,William Collins,Acting Chief,PO Box 10212,,St Louis,63145,ST. LOUIS,3144268100,3148901819,Airport
St Louis City Police Dept.,John Hayden,Chief,1915 Olive St.,,St Louis,63103,ST. LOUIS CITY,3144445615,3144445493,Municipal
St Louis City Sheriff's Office,Vernon Betts,Sheriff,1114 Market Street,,St Louis,63101,ST. LOUIS CITY,3146224131,3146224839,County
St Louis Community College Police Department,Alfred Adkins,Director,3221 McKelvey Road,,Bridgeton,63044,ST. LOUIS,3149847444,3149847670,University
St Louis County Police Dept,Mary Barton,Chief,7900 Forsyth Blvd,,Clayton,63105,ST. LOUIS,3146154273,3146154698,County
St Louis County Sheriffs Office,Scott Kiefer,Sheriff,7900 Carondelet Ave,,Clayton,63105,ST. LOUIS,3146154724,3146152548,County
St Mary Police Dept.,Timothy Maurice,Chief,PO Box 107,782 Third St,St. Mary,63673,STE. GENEVIEVE,5735432279,5735435203,Municipal
St Peters Police Dept.,Richard Struttmann,Chief,1020 Grand Teton Drive,,St. Peters,63376,ST. CHARLES,6362782222,6362785276,Municipal
St Robert Police Dept.,Curtis Curenton,Chief,194 Eastlawn Ave - Suite A,,St  Robert,65584,PULASKI,5733364700,5733364290,Municipal
Stanberry Police Dept.,Terry Raymond,Mr.,130 West 1st St,,Stanberry,64489,GENTRY,6607832725,6607839004,Municipal
Ste Genevieve County Sheriff's Office,Gary Stolzer,Sheriff,#5 Basler Drive,,Ste. Genevieve,63670,STE. GENEVIEVE,5738835820,5738835315,County
Ste Genevieve Police Dept.,Eric Bennett,Chief,165 S Fourth Street,,Ste Genevieve,63670,STE. GENEVIEVE,5738835707,5738837143,Municipal
Steele Police Dept.,Billy Stanfield,Chief,115 S Walnut St,,Steele,63877,PEMISCOT,5736952100,5736952166,Municipal
Steelville Police Dept.,Michael Sherman,Chief,PO Box M,895 Frisco Street,Steelville,65565,CRAWFORD,5737752200,5737754312,Municipal
Stewartsville Police Dept.,Andrew Porter,Chief,PO Box 270,,Stewartsville,64490,DEKALB,8166698253,8166693646,Municipal
Stoddard County Sheriff's Office,Carl Hefner,Sheriff,PO Box 319,,Bloomfield,63825,STODDARD,5735684654,5735683003,County
Stone County Sheriff's Office,Doug Rader,Sheriff,110 S Maple,,Galena,65656,STONE,4173576116,4173576079,County
Stover Police Dept.,Trampus Jackson,Chief,503 W 2nd Street,PO Box 370,Stover,65078,MORGAN,5733774300,5733772521,Municipal
Strafford Police Dept.,Dennis Shook,Chief,PO Box 66,125 S Jefferson,Strafford,65757,GREENE,4177364000,4177363821,Municipal
Strasburg Police Dept.,Jack Ewing,Mayor,410 West 58 Highway,P.O. Box 223,Strasburg,64090,CASS,8168653484,8168653256,Municipal
Sturgeon Police Dept.,Steve Crosswhite,Mayor,303 East Station Drive,PO Box 687,Sturgeon,65284,BOONE,5736873300,5736873474,Municipal
Sugar Creek Police Dept.,Christopher Soule,Chief,1001 Heroes Way,,Sugar Creek,64054,JACKSON,8162525560,8164613493,Municipal
Sullivan County Sheriff's Office,Roger Smiley,Sheriff,109 N Main - County Courthouse,,Milan,63556,SULLIVAN,6602653313,6602654711,County
Sullivan Police Dept.,George Counts,Chief,106 Progress Dr,,Sullivan,63080,CRAWFORD,5734688001,5734684249,Municipal
Summersville Police Dept.,Kevin Jotz,Chief,195 Rogers Ave   PO Box 242,,Summersville,65571,TEXAS,4179324299,4179324358,Municipal
Sunrise Beach Police Dept.,JEFFRY CAMPBELL,Chief,PO Box 565,,Sunrise Beach,65079,CAMDEN,5733747757,5733748118,Municipal
Sunset Hills Police Dept.,Stephen Dodge,Chief,3905 S Lindbergh Blvd,,Sunset Hills,63127,ST. LOUIS,3148494400,3148494403,Municipal
Supreme Court of Missouri,Justice Zel M. Fischer,Chief,PO Box 150,,Jefferson City,65102,COLE,5737512117,5737517514,State Agency
Sweet Springs Police Dept.,Tammy Johnson,Chief,324 S Miller Street,,Sweet Springs,65351,SALINE,6603356823,6603354409,Municipal
Taney County Sheriff's Office,Jimmie Russell,Sheriff,PO Box 1005,,Forsyth,65653,TANEY,4175467250,4175468933,County
Tarkio Police Dept.,Tyson Gibbons,Chief,602 Main Street,,Tarkio,64491,ATCHISON,6607364821,6607365605,Municipal
Terminal Railroad,Charles Cross,Chief,"1017 Olive Street, 5th Floor",,St. Louis,63101,ST. LOUIS CITY,3145394750,3146213673,Rail Road
Terre du Lac Police Dept.,DANIEL BLUM,Chief,111 Rue Terrebonne,,Bonne Terre,63628,ST. FRANCOIS,5733585701,5733582469,Municipal
Texas County Sheriff's Office,Scott Lindsey,Sheriff,519 N Grand Ave Ste 101,,Houston,65483,TEXAS,4179674165,4179670713,County
Thayer Police Dept.,Daryl Childers,Chief,102 Front Street,,Thayer,65791,OREGON,4172643819,4172643389,Municipal
Tipton Police Dept.,Edward Wiecken,Chief,PO Box 517,101 East Moniteau Street,Tipton,65081,MONITEAU,6604332323,6604332810,Municipal
Town and Country Police Dept.,James Cavins,Chief,1011 Municipal Center Drive,,Town and Country,63131,ST. LOUIS,3144324696,3144324991,Municipal
Tracy Police Dept.,Frankie Thurman,Chief,PO Box 318,,Tracy,64079,PLATTE,8168585555,8168585554,Municipal
Trenton Police Dept.,Rex Ross,Chief,610 Main Street,,Trenton,64683,GRUNDY,6603595557,6603595969,Municipal
Trimble Police Dept.,Larissa Busch,Mayor,PO Box 25,,Trimble,64492,CLINTON,8163572397,,Municipal
Troy Police Dept.,Jeffrey Taylor,Chief,800 Cap Au Gris Street,Cap-Au-Gris,Troy,63379,LINCOLN,6365284725,6365285390,Municipal
Truesdale Police Dept.,Casey Doyle,Chief,109 S Pickney St.,,Truesdale,63380,WARREN,6364563166,6364565357,Municipal
Truman State University,Sara Holzmeier,Chief,100 East Normal Avenue,GS108,Kirksville,63501,ADAIR,6607854177,6607857482,University
Union Pacific Railroad,Mark Rowley,Chief,491 N Main,,Desoto,63020,JEFFERSON,3122874369,,Rail Road
Union Police Dept.,Andrew Parker,Chief,119 South Church,,Union,63084,FRANKLIN,6365833700,6365836706,Municipal
Unionville Police Dept.,Joshua Mathes,Chief,1611 Grant Street,,Unionville,63565,PUTNAM,6609477397,6609472797,Municipal
University City Police Dept.,Larry Hampton,Chief,6801 Delmar Blvd,,University City,63130,ST. LOUIS,3145058652,3145058648,Municipal
University of Central Missouri DPS,Scott Rhoad,Chief,306 Broad Street,,Warrensburg,64093,JOHNSON,6605434123,6605434163,University
University of Missouri Police Department (MUPD),Robert Schwandt,Chief,901 Virginia Ave,,Columbia,65211,BOONE,5738827202,5738826636,University
University of MO - K.C. Police Dept.,Michael Bongartz,Chief,5005 Oak Street,,Kansas City,64112,JACKSON,8162351515,8162355501,University
University of MO - St. Louis Police Dept.,Daniel Freet,Chief,44 Campus Police Building,One University Blvd,St. Louis,63121,ST. LOUIS,3145165155,3145166536,University
Urbana Police Dept.,Debra Glass,Mayor,PO Box 227,,Urbana,65767,DALLAS,4179935191,4179931189,Municipal
Van Buren Police Dept.,Alonzo Bradwell,Chief,1301 North Main Street,,Van Buren,63965,CARTER,5733234060,5733238656,Municipal
Vandalia Police Dept.,Logan Benjamin,Acting Chief,201 E Park St,,Vandalia,63382,AUDRAIN,5735943796,5735946876,Municipal
Vanduser Police Dept.,Robert Verble,Mayor,P.O. Box 127,,Vanduser,63784,SCOTT,5734717662,5734717662,Municipal
Velda City Police Dept.,Daniel Paulino,Chief,2803 Maywood Avenue,,Velda City,63121,ST. LOUIS,3143827004,3143827596,Municipal
Vernon County Sheriff's Office,Jason Mosher,Sheriff,2040 East Hunter,,Nevada,64772,VERNON,4172834400,4174482580,County
Verona Police Dept,Jereimy Allen,Acting Chief,114 N 3rd Street,,Verona,65769,LAWRENCE,4174986270,4174986225,Municipal
Versailles Police Dept.,Chad Hartman,Chief,104 N Fisher St,,Versailles,65084,MORGAN,5733784634,5733784631,Municipal
Viburnum Police Dept.,Charles Hedrick,Chief,#1 Missouri Avenue,PO Box 598,Viburnum,65566,IRON,5732445528,5732443102,Municipal
Vienna Police Dept.,Shannon Thompson,Chief,424 8th Street,PO Box 196,Vienna,65582,MARIES,5734223811,5734226110,Municipal
Village of Miramiguoa,Zane Ward,Mr.,PO Box 623,,Sullivan,63080,FRANKLIN,5734688145,5734688144,Municipal
Vinita Park Police Dept.,John Buchannan,Acting Chief,8027 Page Avenue,,Vinita Park,63130,ST. LOUIS,3144287374,3148900316,Municipal
Walker Police Dept.,Kevin Lester,Chief,103 N 5th Street  PO Box 58,,Walker,64772,VERNON,4174652230,4174652431,Municipal
Walnut Grove Police Dept.,Joseph Mahan,Chief,P.O. Box 66,,Walnut Grove,65770,GREENE,4177882596,4177882673,Municipal
Wardell Police Dept.,Christopher Rudd,Chief,PO Box 1,108 West Broad Street,Wardell,63879,PEMISCOT,5736283500,5736289407,Municipal
Warren County Sheriff's Office,Kevin Harrison,Sheriff,104 W Main - Suite A,,Warrenton,63383,WARREN,6364564332,6364561811,County
Warrensburg Police Dept.,Richard Lockhart,Chief,102 B South Holden Street,,Warrensburg,64093,JOHNSON,6607479133,6607471867,Municipal
Warrenton Police Dept.,Larry Ellard,Chief,200 W. Booneslick Rd,,Warrenton,63383,WARREN,6364563535,6364564307,Municipal
Warsaw Police Dept.,Jason Wenberg,Chief,181 West Harrison Street,P.O. Box 68,Warsaw,65355,BENTON,6604385522,6604385262,Municipal
Warson Woods Police Dept.,Robert Stanczak,Chief,10015 Manchester Rd,,Warson Woods,63122,ST. LOUIS,3149653100,3149652419,Municipal
Washburn Police Dept.,Terry Meek,Chief,P.O. Box 110,,Washburn,65772,BARRY,4178265242,4178265995,Municipal
Washington County Sheriff's Office,Zachary Jacobsen,Sheriff,116 W High St,,Potosi,63664,WASHINGTON,5734385478,5734388461,County
Washington Police Dept.,Edward Menefee,Chief,301 Jefferson St,,Washington,63090,FRANKLIN,6363901050,6363902455,Municipal
Washington University Police Dept,Mark Glenn,Chief,#1 Brookings Dr - Campus Box 1038,,St Louis,63130,ST. LOUIS,3149359011,,University
Waverly Police Dept.,James Plaggemeyer,Chief,111 Kelling Street,PO Box 162,Waverly,64096,LAFAYETTE,6604932914,6604932982,Municipal
Wayne County Sheriff's Office,Thomas Finch,Sheriff,PO Box 109,100 Maple Street,Greenville,63944,WAYNE,5732243219,5732243904,County
Waynesville Police Dept.,Daniel Cordova,Chief,201 North Street,,Waynesville,65583,PULASKI,5737742414,5737742195,Municipal
Weatherby Lake Police Department,Kevin Davis,Chief,7200 NW Eastside Dr,,Weatherby Lake,64152,PLATTE,8167418111,8167411480,Municipal
Webb City Police Dept.,Donald Melton,Chief,211 W Broadway St   PO Box 30,,Webb City,64870,JASPER,4176731911,4176735140,Municipal
Webster County Sheriff's Office,Roye Cole,Sheriff,101 S Crittenden Rm 32,,Marshfield,65706,WEBSTER,4178592247,4178593614,County
Webster Groves Police Dept.,Dale Curtis,Chief,4 South Elm Ave,,Webster Groves,63119,ST. LOUIS,3149635402,3149631510,Municipal
Wellington Police Dept.,Andrew Lockhart,Chief,P.O. Box 247,103 East 4th Street,Wellington,64097,LAFAYETTE,8169342666,8169342522,Municipal
Wellsville Police Dept.,Richard Daniels,Chief,200 W Hudson St,,Wellsville,63384,MONTGOMERY,5736842323,5736846161,Municipal
Wentzville Police Dept.,PAUL WEST,Acting Chief,1019 Schroeder Creek Blvd,,Wentzville,63385,ST. CHARLES,6363275105,6363275896,Municipal
West Plains Police Dept.,Stephen Monticelli,Chief,1912 Holiday Lane,,West Plains,65775,HOWELL,4172562244,4172572194,Municipal
West Sullivan Police Department,Jim Turntine,Mr.,56 Hwy WW,,West Sullivan,63080,CRAWFORD,5734685347,5734684501,Municipal
Weston Police Dept.,Terry Blanton,Chief,300 Main Street,,Weston,64098,PLATTE,8166402455,8166402336,Municipal
Wheaton Police Dept.,Clinton Danforth,Chief,PO Box 70,,Wheaton,64874,BARRY,4172362000,4176527162,Municipal
Willard Police Dept.,Thomas McClain,Chief,795 Hughes Road,PO Box 187,Willard,65781,GREENE,4177423077,4177424710,Municipal
Williamsville Police Dept.,Trevor Noisworthy,Chief,PO Box 88,,Williamsville,63967,WAYNE,5739982800,,Municipal
Willow Springs Police Dept.,Bryan Hogan,Chief,700 West Main,PO Box 190,Willow Springs,65793,HOWELL,4174693158,4174695050,Municipal
Winfield Police Dept.,William Burleson,Chief,PO Box 59,51 Harry's Way,Winfield,63389,LINCOLN,6365666936,6366656012,Municipal
Winona Police Dept.,Jon Tielking,Chief,202 Sapper Street,,Winona,65588,SHANNON,5733254247,5733258821,Municipal
Woodson Terrace Police Dept.,Randy Halstead,Chief,4305 Woodson Road,,Woodson Terrace,63134,ST. LOUIS,3144275858,3144270215,Municipal
Worth County Sheriff's Office,Terry Sheddrick,Sheriff,PO Box 36,11 West 4th Street,Grant City,64456,WORTH,6605642222,6605642225,County
Wright City Police Dept.,Matthew Eskew,Chief,203 Veterans Memorial Pkwy,,Wright City,63390,WARREN,6367453541,6367459978,Municipal
Wright County Sheriff's Office,Glenn Adler,Sheriff,125 Court Square,PO Box 250,Hartville,65667,WRIGHT,4177417576,4177416780,County
